{
"type": "FeatureCollection",
"name": "areas",
"features": [
{ "type": "Feature", "properties": { "fid": null, "id": null, "name": "Hostel Area", "building_type": null, "floors": null, "description": null }, "geometry": { "type": "Polygon", "coordinates": [ [ [ 76.631210776855056, 8.912374578320462 ], [ 76.631816692289988, 8.912192921941877 ], [ 76.631828447063285, 8.912188472610016 ], [ 76.631871967311412, 8.912190278653799 ], [ 76.631893145448046, 8.912202630502133 ], [ 76.632174197216088, 8.912245092210632 ], [ 76.632573472967763, 8.912308870197757 ], [ 76.633080182985722, 8.912398885923748 ], [ 76.633074176815825, 8.912128185684301 ], [ 76.633054540541053, 8.912053311540772 ], [ 76.632139903530387, 8.911867147126516 ], [ 76.631056788813083, 8.911766936707879 ], [ 76.631210776855056, 8.912374578320462 ] ] ] } },
{ "type": "Feature", "properties": { "fid": null, "id": null, "name": "APJ Park", "building_type": null, "floors": null, "description": null }, "geometry": { "type": "Polygon", "coordinates": [ [ [ 76.632250409404463, 8.915572299705749 ], [ 76.632165147546019, 8.915578603196025 ], [ 76.631973282274686, 8.915191886342436 ], [ 76.632006220471453, 8.915139035708259 ], [ 76.632228891105484, 8.915118337703188 ], [ 76.632250409404463, 8.915572299705749 ] ] ] } },
{ "type": "Feature", "properties": { "fid": null, "id": 18, "name": "Football and Cricket Ground", "building_type": "Sports Facility", "floors": 0, "description": "Campus football and cricket ground" }, "geometry": { "type": "Polygon", "coordinates": [ [ [ 76.63248034063615, 8.91263484323864 ], [ 76.632885550977136, 8.912531638670373 ], [ 76.633037387831578, 8.912936063735414 ], [ 76.633133779205323, 8.913213956080984 ], [ 76.633174341818531, 8.913362762553399 ], [ 76.632762479523663, 8.913475031131041 ], [ 76.632706066903921, 8.913278703495294 ], [ 76.632629521425585, 8.913042397377341 ], [ 76.632560626068397, 8.912854178910159 ], [ 76.63248034063615, 8.91263484323864 ] ] ] } },
{ "type": "Feature", "properties": { "fid": null, "id": 19, "name": "Cricket Net Practice", "building_type": "Sports Facility", "floors": 0, "description": "Cricket net practice facility" }, "geometry": { "type": "Polygon", "coordinates": [ [ [ 76.632560626068397, 8.912854178910159 ], [ 76.632495284168755, 8.912873128388275 ], [ 76.632415246725444, 8.912652273528867 ], [ 76.63248034063615, 8.91263484323864 ], [ 76.632560626068397, 8.912854178910159 ] ] ] } },
{ "type": "Feature", "properties": { "fid": null, "id": 22, "name": "Basketball Court", "building_type": "Sports Facility", "floors": 0, "description": "Campus basketball court" }, "geometry": { "type": "Polygon", "coordinates": [ [ [ 76.632153934216134, 8.914469065626253 ], [ 76.632420862185143, 8.914362633574491 ], [ 76.632377364527343, 8.914190314532677 ], [ 76.632110113724721, 8.914298555400171 ], [ 76.632153934216134, 8.914469065626253 ] ] ] } },
{ "type": "Feature", "properties": { "fid": null, "id": 36, "name": "Volleyball Court", "building_type": "Sports Facility", "floors": 0, "description": "Campus volleyball court" }, "geometry": { "type": "Polygon", "coordinates": [ [ [ 76.632250073383432, 8.915483172657702 ], [ 76.632431825766744, 8.915462613411943 ], [ 76.632413656584248, 8.915176590521551 ], [ 76.632233735081257, 8.915197468716789 ], [ 76.632250073383432, 8.915483172657702 ] ] ] } },
{ "type": "Feature", "properties": { "fid": null, "id": 37, "name": "Open Tennis Court", "building_type": "Sports Facility", "floors": 0, "description": "Open campus tennis court" }, "geometry": { "type": "Polygon", "coordinates": [ [ [ 76.632413656584248, 8.915176590521551 ], [ 76.632599250576803, 8.915159187118183 ], [ 76.632619070790923, 8.915443010964509 ], [ 76.632431825766744, 8.915462613411943 ], [ 76.632413656584248, 8.915176590521551 ] ] ] } }
]}
