{
"type": "FeatureCollection",
"name": "building",
"crs": { "type": "name", "properties": { "name": "urn:ogc:def:crs:OGC:1.3:CRS84" } },
"features": [
{ "type": "Feature", "properties": { "fid": null, "id": 1, "name": "Mechanical Block", "building_type": "Academic", "floors": 4, "description": "Mechanical Block" }, "geometry": { "type": "Polygon", "coordinates": [ [ [ 76.631543414326174, 8.912703483975944 ], [ 76.631544289545616, 8.9127063552103 ], [ 76.631591243755224, 8.91284573817711 ], [ 76.631595348260788, 8.912844268478807 ], [ 76.631609454123662, 8.912886946057796 ], [ 76.631583575939743, 8.91289552074916 ], [ 76.631624270936925, 8.913017675967593 ], [ 76.631649790586422, 8.913008984830153 ], [ 76.631664015279171, 8.913052021912046 ], [ 76.631660897808345, 8.913053198710102 ], [ 76.631692404819603, 8.913147392370661 ], [ 76.631687239299609, 8.913149048461388 ], [ 76.631690479130583, 8.913159460612913 ], [ 76.631696065692537, 8.913157577171198 ], [ 76.631708505036201, 8.913195602022503 ], [ 76.631755781837768, 8.913180408336999 ], [ 76.631757721515797, 8.913185457121566 ], [ 76.631770986896981, 8.91318105238626 ], [ 76.631769064569198, 8.913175906392146 ], [ 76.631789564554012, 8.913169053329364 ], [ 76.631787422137023, 8.913162866677453 ], [ 76.632091056122277, 8.9130641082058 ], [ 76.632058717128047, 8.912970170521811 ], [ 76.63198540840169, 8.912751379677516 ], [ 76.631958116011248, 8.912669925151027 ], [ 76.63192655340174, 8.912575726072351 ], [ 76.631620486508297, 8.912675223569911 ], [ 76.6316212231431, 8.912677670176492 ], [ 76.631558468853157, 8.912698489496453 ], [ 76.631557629310123, 8.912695849275474 ], [ 76.631544612774931, 8.912699996669124 ], [ 76.63154547970727, 8.912702798766537 ], [ 76.631543414326174, 8.912703483975944 ] ], [ [ 76.631653707406343, 8.912767343761734 ], [ 76.631652732573173, 8.912764393305991 ], [ 76.631845165849924, 8.91270158929122 ], [ 76.631847092047465, 8.912707821216326 ], [ 76.631800189254847, 8.912722784786746 ], [ 76.631815572065975, 8.912769009059829 ], [ 76.631862038384128, 8.912754161309801 ], [ 76.631890025671694, 8.912836965350447 ], [ 76.631883535158835, 8.912838724267232 ], [ 76.631887500534617, 8.912849428568833 ], [ 76.631869046604905, 8.912855223702365 ], [ 76.631875189044663, 8.912872934562706 ], [ 76.631893149947558, 8.912867226887542 ], [ 76.631896727112093, 8.912878460182725 ], [ 76.631903260538337, 8.912876122422993 ], [ 76.631932611243869, 8.912961302886252 ], [ 76.631931876041534, 8.912960785092936 ], [ 76.631885339948752, 8.91297582183895 ], [ 76.631900827944392, 8.913022357329279 ], [ 76.631947885841498, 8.913006549860357 ], [ 76.631948081083337, 8.913006576954109 ], [ 76.631949072018458, 8.913009536952719 ], [ 76.631756577667232, 8.913072759103118 ], [ 76.631755806820664, 8.913070211697734 ], [ 76.631653707406343, 8.912767343761734 ] ], [ [ 76.631911687316034, 8.913000857813833 ], [ 76.631906906701431, 8.912986673657972 ], [ 76.631921189743949, 8.912982002294822 ], [ 76.631925560619223, 8.912995921576872 ], [ 76.631911687316034, 8.913000857813833 ] ], [ [ 76.631836234074939, 8.912729329187636 ], [ 76.631840776247955, 8.912743020321098 ], [ 76.631826619843707, 8.912747713747425 ], [ 76.631821794569632, 8.912733779800078 ], [ 76.631836234074939, 8.912729329187636 ] ] ] } },
{ "type": "Feature", "properties": { "fid": null, "id": 2, "name": "Chemical Block", "building_type": "Academic", "floors": 4, "description": "Chemical Block" }, "geometry": { "type": "Polygon", "coordinates": [ [ [ 76.631501352669105, 8.912306420476426 ], [ 76.631499828617038, 8.912306853609076 ], [ 76.631423554937427, 8.912332436567466 ], [ 76.631480046673289, 8.912496953868127 ], [ 76.631445735412569, 8.912508065554015 ], [ 76.631465957648118, 8.912564705624957 ], [ 76.631499405939252, 8.912553332613779 ], [ 76.631534621478977, 8.912655888544062 ], [ 76.631534314810253, 8.912655981000382 ], [ 76.631534621478977, 8.912655888544068 ], [ 76.63153715686289, 8.91266277037802 ], [ 76.631720928773177, 8.91259971951118 ], [ 76.631722873533263, 8.912599133193273 ], [ 76.631916533676332, 8.91253327110582 ], [ 76.631903829071689, 8.912496758495212 ], [ 76.631870566106713, 8.912507940482595 ], [ 76.631773469768277, 8.912229085314726 ], [ 76.631768236290839, 8.912215268965307 ], [ 76.631501352669105, 8.912306420476426 ] ], [ [ 76.6315344930523, 8.912390044489726 ], [ 76.6315358768191, 8.91238962937798 ], [ 76.631710892325231, 8.912330340815958 ], [ 76.631755473937972, 8.912456879874142 ], [ 76.631748318400099, 8.912459388291623 ], [ 76.631655534617167, 8.912491650635618 ], [ 76.631636429840313, 8.912497477037284 ], [ 76.631579053177688, 8.912517296839125 ], [ 76.63157837665635, 8.912515181570507 ], [ 76.6315344930523, 8.912390044489726 ] ], [ [ 76.631528860221863, 8.912391734264389 ], [ 76.631528860221863, 8.912391734264387 ], [ 76.6315344930523, 8.912390044489726 ], [ 76.631528860221863, 8.912391734264389 ] ] ] } },
{ "type": "Feature", "properties": { "fid": null, "id": 3, "name": "Workshop (Electrical)", "building_type": "Workshop", "floors": 1, "description": "Workshop (Electrical)" }, "geometry": { "type": "Polygon", "coordinates": [ [ [ 76.632116797445633, 8.913055679372965 ], [ 76.632120212699675, 8.913054468318638 ], [ 76.632121855945385, 8.913059527525846 ], [ 76.632146891303037, 8.913051311241052 ], [ 76.632145438014689, 8.913046285123889 ], [ 76.632237491884197, 8.913015752114383 ], [ 76.632171293439342, 8.912818204075128 ], [ 76.632086254375523, 8.912845831099697 ], [ 76.632079830360581, 8.912825491209606 ], [ 76.632032791314458, 8.912841032911244 ], [ 76.632039699552692, 8.912861586150056 ], [ 76.632049963974382, 8.912858214233459 ], [ 76.632116797445633, 8.913055679372965 ] ] ] } },
{ "type": "Feature", "properties": { "fid": 6, "id": 5, "name": "Architecture Block", "building_type": "Academic", "floors": 3, "description": "Architecture Block" }, "geometry": { "type": "Polygon", "coordinates": [ [ [ 76.632288063074753, 8.913621691560477 ], [ 76.632412069637354, 8.913578667584146 ], [ 76.632270347851474, 8.913121081759614 ], [ 76.632287694007559, 8.913114154161056 ], [ 76.632269978784322, 8.913063473304433 ], [ 76.632127887931318, 8.913107226562364 ], [ 76.632288063074753, 8.913621691560477 ] ] ] } },
{ "type": "Feature", "properties": { "fid": 7, "id": 6, "name": "Interdisciplinary Research Block (RUSA)", "building_type": "Research", "floors": 3, "description": "Interdisciplinary Research Block (RUSA)" }, "geometry": { "type": "Polygon", "coordinates": [ [ [ 76.63294324953371, 8.913581219854041 ], [ 76.633177238107208, 8.913521241506116 ], [ 76.633154725010982, 8.913419150678497 ], [ 76.6329208287043, 8.913480792576706 ], [ 76.63294324953371, 8.913581219854041 ] ] ] } },
{ "type": "Feature", "properties": { "fid": 8, "id": 7, "name": "Main Block", "building_type": "Administration", "floors": 2, "description": "Main Block" }, "geometry": { "type": "Polygon", "coordinates": [ [ [ 76.632142771717454, 8.914976824583826 ], [ 76.632139819180253, 8.914961146413914 ], [ 76.632129485300041, 8.914966980151631 ], [ 76.632052350265582, 8.914930154680713 ], [ 76.632051981198401, 8.914915570334765 ], [ 76.632037956646698, 8.914923956333753 ], [ 76.632016181684804, 8.914845200857387 ], [ 76.632108079405285, 8.914806916939128 ], [ 76.632062684145808, 8.914639561477927 ], [ 76.63203094437084, 8.91465451044381 ], [ 76.631995144857243, 8.914517417465465 ], [ 76.632029468102274, 8.914504656148374 ], [ 76.631982227506995, 8.914318705477323 ], [ 76.631975215231137, 8.914321986960575 ], [ 76.631951225866345, 8.914232657683778 ], [ 76.631890329786501, 8.914255992680637 ], [ 76.631861911615928, 8.914147703698234 ], [ 76.631923545830062, 8.914122181037776 ], [ 76.631898449263829, 8.914034127845493 ], [ 76.631908229543299, 8.914031028664427 ], [ 76.631858590011547, 8.913851276117539 ], [ 76.631825743035137, 8.913864766676868 ], [ 76.631788836320084, 8.913734600989057 ], [ 76.631822052363631, 8.913722204254466 ], [ 76.6317744427012, 8.913561046666501 ], [ 76.631682175913582, 8.913594590785692 ], [ 76.631660216418098, 8.913520939563426 ], [ 76.631675348171299, 8.913514923497582 ], [ 76.631669443096882, 8.913499792180028 ], [ 76.631711147684854, 8.913422677142275 ], [ 76.631720374363638, 8.913421218701691 ], [ 76.631717052759299, 8.913409551176784 ], [ 76.631910443946168, 8.913342827511563 ], [ 76.631897526595921, 8.913301991163998 ], [ 76.63200935394255, 8.913263342473705 ], [ 76.63202300942713, 8.91330490804612 ], [ 76.632110478341815, 8.913275010003279 ], [ 76.632185029906239, 8.913516655395336 ], [ 76.632070988156727, 8.913556033278855 ], [ 76.632032974240232, 8.913433888904096 ], [ 76.631903062603229, 8.913478735947931 ], [ 76.631946219340463, 8.913623714674003 ], [ 76.631991085118685, 8.913774434611335 ], [ 76.631963405082402, 8.913784096770771 ], [ 76.632020795024317, 8.913990055665202 ], [ 76.632251277459872, 8.913898720954055 ], [ 76.63226991535096, 8.913966356041755 ], [ 76.632357568799208, 8.913933358871153 ], [ 76.632401303256543, 8.914099620827493 ], [ 76.632313834341815, 8.914134258725539 ], [ 76.632329704229292, 8.914199159199351 ], [ 76.632099406327328, 8.914291952272499 ], [ 76.632148492258324, 8.914481913657172 ], [ 76.632356646131271, 8.914398782775462 ], [ 76.632367718145787, 8.914444723528222 ], [ 76.632306452998776, 8.914469516947946 ], [ 76.63231826314761, 8.914514728473693 ], [ 76.632447067583144, 8.914466600075125 ], [ 76.632541548773673, 8.914814801603585 ], [ 76.632486188701108, 8.914838136563256 ], [ 76.632498736984232, 8.914878243521713 ], [ 76.632365134675723, 8.91493220560432 ], [ 76.632353324526889, 8.91488991099971 ], [ 76.632142771717454, 8.914976824583826 ] ], [ [ 76.63225441453055, 8.914780892987652 ], [ 76.632401303256458, 8.914721097141133 ], [ 76.632347050385349, 8.914516551518972 ], [ 76.632199423525094, 8.914575618180979 ], [ 76.63225441453055, 8.914780892987652 ] ], [ [ 76.632108501630739, 8.914176062869725 ], [ 76.632266440452767, 8.914114061745133 ], [ 76.632239496912376, 8.914011191990543 ], [ 76.632079681978965, 8.914071422550572 ], [ 76.632092423669704, 8.914118759882205 ], [ 76.632112025227599, 8.914110263330723 ], [ 76.632116029097986, 8.91412467659336 ], [ 76.632096323119484, 8.914131711186426 ], [ 76.632108501630739, 8.914176062869725 ] ] ] } },
{ "type": "Feature", "properties": { "fid": 9, "id": 8, "name": "Central Library", "building_type": "Library", "floors": 3, "description": "Central Library" }, "geometry": { "type": "Polygon", "coordinates": [ [ [ 76.632789561898889, 8.914443629700852 ], [ 76.632789192831737, 8.914406439567996 ], [ 76.632823147009603, 8.914363051074888 ], [ 76.632823516076741, 8.914332059290937 ], [ 76.632787532029553, 8.914286118524011 ], [ 76.632788454697419, 8.914250204507743 ], [ 76.633078356944196, 8.914264788880258 ], [ 76.633084262018627, 8.9144507851549 ], [ 76.632789561898889, 8.914443629700852 ] ] ] } },
{ "type": "Feature", "properties": { "fid": null, "id": 9, "name": "Cafe", "building_type": "Common Facility", "floors": 1, "description": "College Cafe" }, "geometry": { "type": "Polygon", "coordinates": [ [ [ 76.631416855825165, 8.913060737735949 ], [ 76.631455830608999, 8.91305269281197 ], [ 76.631442904238554, 8.912999901138535 ], [ 76.631406329999507, 8.913008191742025 ], [ 76.631416855825165, 8.913060737735949 ] ] ] } },
{ "type": "Feature", "properties": { "fid": null, "id": 11, "name": "Generator Room", "building_type": "Utility", "floors": 1, "description": "Campus generator room" }, "geometry": { "type": "Polygon", "coordinates": [ [ [ 76.631448622680253, 8.91321927111726 ], [ 76.631511761191561, 8.913205948449644 ], [ 76.631488646838136, 8.913094804968704 ], [ 76.631427121914456, 8.913107891250128 ], [ 76.631448622680253, 8.91321927111726 ] ] ] } },
{ "type": "Feature", "properties": { "fid": null, "id": 12, "name": "Transformer", "building_type": "Utility", "floors": 1, "description": "Campus electrical transformer facility" }, "geometry": { "type": "Polygon", "coordinates": [ [ [ 76.631466323175829, 8.913293248350465 ], [ 76.631453465923499, 8.913236156473925 ], [ 76.631497928537456, 8.913224755242853 ], [ 76.631510188210697, 8.913282260497606 ], [ 76.631466323175829, 8.913293248350465 ] ] ] } },
{ "type": "Feature", "properties": { "fid": null, "id": 13, "name": "Campus Hostel A Block", "building_type": "Hostel", "floors": null, "description": "Campus Hostel A Block" }, "geometry": { "type": "Polygon", "coordinates": [ [ [ 76.631180999075937, 8.912042229173823 ], [ 76.631254957861742, 8.91205045538868 ], [ 76.631254623816332, 8.912065533343533 ], [ 76.631291367842692, 8.912069314370591 ], [ 76.631292659916994, 8.912053821143408 ], [ 76.631364988397394, 8.912062927680516 ], [ 76.631366314294809, 8.912048895743581 ], [ 76.631395141463202, 8.912052461986958 ], [ 76.631404618707492, 8.911913521377226 ], [ 76.63137688416279, 8.91191043654552 ], [ 76.631378495115001, 8.911891505901478 ], [ 76.631315024958695, 8.911883942465264 ], [ 76.631318176426319, 8.911823364672172 ], [ 76.631263077298343, 8.911818423773477 ], [ 76.631257202203969, 8.911874451998212 ], [ 76.631196959532957, 8.911868615103632 ], [ 76.631194910973193, 8.911883394400473 ], [ 76.631164487322522, 8.911882169769587 ], [ 76.631153245178055, 8.91202109402845 ], [ 76.63118323261638, 8.912028064266186 ], [ 76.631180999075937, 8.912042229173823 ] ] ] } },
{ "type": "Feature", "properties": { "fid": null, "id": 14, "name": "Campus Hostel B Block", "building_type": "Hostel", "floors": null, "description": "Campus Hostel B Block" }, "geometry": { "type": "Polygon", "coordinates": [ [ [ 76.631577420804817, 8.91210502692296 ], [ 76.631578267338966, 8.912088728385775 ], [ 76.631505686929245, 8.912081033362139 ], [ 76.631506399217372, 8.91206631237684 ], [ 76.63147723798113, 8.912062760709485 ], [ 76.631487051189225, 8.911922350458953 ], [ 76.631515964200929, 8.911923784943673 ], [ 76.631517663938766, 8.911908690189421 ], [ 76.631578780778511, 8.91191540706164 ], [ 76.631584956204932, 8.911858521535924 ], [ 76.631641257707315, 8.91186745592392 ], [ 76.63163677790061, 8.911924745977242 ], [ 76.63170029051021, 8.911935373145905 ], [ 76.631698981873171, 8.911952609971683 ], [ 76.631726438946828, 8.911954773228679 ], [ 76.631717306470961, 8.912095083739343 ], [ 76.63168821046176, 8.912092198363998 ], [ 76.63168622056925, 8.912105823552832 ], [ 76.631616178107947, 8.912097115237243 ], [ 76.631614919159134, 8.912109121276966 ], [ 76.631577420804817, 8.91210502692296 ] ] ] } },
{ "type": "Feature", "properties": { "fid": null, "id": 15, "name": "Campus Hostel C Block", "building_type": "Hostel", "floors": null, "description": "Campus Hostel C Block" }, "geometry": { "type": "Polygon", "coordinates": [ [ [ 76.631828259687779, 8.912124672149522 ], [ 76.631900836131194, 8.912134040189313 ], [ 76.631898795503986, 8.912145473441399 ], [ 76.6319346869371, 8.912152380593337 ], [ 76.631936614196107, 8.912141582522136 ], [ 76.63200684560438, 8.912149232202236 ], [ 76.632009339704268, 8.912135258227561 ], [ 76.632035927098684, 8.912138579845333 ], [ 76.632046459351656, 8.912001569527574 ], [ 76.632017943128616, 8.911997911909953 ], [ 76.632018961872575, 8.911981061207095 ], [ 76.631957882298977, 8.911970421250771 ], [ 76.631959306705113, 8.911913690508353 ], [ 76.631903370674578, 8.911903946546568 ], [ 76.631898698946173, 8.911963549992521 ], [ 76.631837288584634, 8.911953834807289 ], [ 76.631836099395997, 8.911968854764089 ], [ 76.631807394095162, 8.911965327941502 ], [ 76.631797940017094, 8.912104654609113 ], [ 76.631828886301449, 8.912109554199567 ], [ 76.631828259687779, 8.912124672149522 ] ] ] } },
{ "type": "Feature", "properties": { "fid": null, "id": 16, "name": "Campus Hostel D Block", "building_type": "Hostel", "floors": null, "description": "Campus Hostel D Block" }, "geometry": { "type": "Polygon", "coordinates": [ [ [ 76.632377011385103, 8.91218637111648 ], [ 76.632405348043136, 8.912190570515289 ], [ 76.632404243880657, 8.912205114076935 ], [ 76.632476830032999, 8.912216284860879 ], [ 76.632476108488106, 8.912228684687266 ], [ 76.632511082482026, 8.912233303502063 ], [ 76.632512272259262, 8.912222458831421 ], [ 76.632581496936353, 8.912231570461714 ], [ 76.632584984185016, 8.912220389211122 ], [ 76.63261055513928, 8.91222337003386 ], [ 76.632619301058696, 8.912090796809148 ], [ 76.63259326187206, 8.91208626082917 ], [ 76.632592833798341, 8.912067766372481 ], [ 76.632529650685584, 8.912058233576904 ], [ 76.632532238096502, 8.912001951040086 ], [ 76.632477138941084, 8.911993089658496 ], [ 76.63247480660857, 8.912047943039811 ], [ 76.632414261660344, 8.912040343398463 ], [ 76.632412561726326, 8.912054046388214 ], [ 76.632381927596825, 8.912050183567894 ], [ 76.632377011385103, 8.91218637111648 ] ] ] } },
{ "type": "Feature", "properties": { "fid": null, "id": 17, "name": "Campus Hostel E Block", "building_type": "Hostel", "floors": null, "description": "Campus Hostel E Block" }, "geometry": { "type": "Polygon", "coordinates": [ [ [ 76.632790918123547, 8.912278366375002 ], [ 76.632827083660558, 8.912284666343867 ], [ 76.632827677666256, 8.912272981097376 ], [ 76.632896902343347, 8.912282092726413 ], [ 76.632901963752687, 8.912270448898125 ], [ 76.632928385556895, 8.912272841141846 ], [ 76.63293432384809, 8.912143462828061 ], [ 76.632906369807614, 8.912137119693936 ], [ 76.632906750659387, 8.912122450130152 ], [ 76.632844460321024, 8.912107915287812 ], [ 76.632848239275035, 8.912053313914415 ], [ 76.632793140119588, 8.912044452534069 ], [ 76.632788510315663, 8.912099642487693 ], [ 76.632728220445856, 8.912090613690721 ], [ 76.632727116283363, 8.912105157256345 ], [ 76.63269852454691, 8.912102387013213 ], [ 76.632691225249005, 8.912235212232506 ], [ 76.632719561907052, 8.912239411630756 ], [ 76.632720627676761, 8.912254333188619 ], [ 76.632790448125363, 8.912264285395514 ], [ 76.632790918123547, 8.912278366375002 ] ] ] } },
{ "type": "Feature", "properties": { "fid": null, "id": 20, "name": "Toilet Block", "building_type": "Common Facility", "floors": 2, "description": "Two-floor toilet block — Ground Floor: Men's Toilet; First Floor: Ladies' Toilet" }, "geometry": { "type": "Polygon", "coordinates": [ [ [ 76.631981242525214, 8.913189896344504 ], [ 76.632058349505911, 8.913165095540505 ], [ 76.632044585786034, 8.913125864021849 ], [ 76.631969551810869, 8.913149627185273 ], [ 76.631981242525214, 8.913189896344504 ] ] ] } },
{ "type": "Feature", "properties": { "fid": null, "id": 21, "name": "Auditorium", "building_type": "Common Facility", "floors": 1, "description": "College auditorium" }, "geometry": { "type": "Polygon", "coordinates": [ [ [ 76.632030240670062, 8.913928115295047 ], [ 76.632277497754075, 8.913833176505808 ], [ 76.632189845044124, 8.913536291818195 ], [ 76.631946219340463, 8.913623714674003 ], [ 76.631991085118685, 8.913774434611335 ], [ 76.632030240670062, 8.913928115295047 ] ] ] } },
{ "type": "Feature", "properties": { "fid": null, "id": 23, "name": "Civil Engineering Lab", "building_type": "Academic", "floors": 1, "description": "Civil Engineering laboratory" }, "geometry": { "type": "Polygon", "coordinates": [ [ [ 76.632451475144137, 8.914046564134924 ], [ 76.632503561583832, 8.914027973232283 ], [ 76.632467446467615, 8.913893618471453 ], [ 76.632415270103607, 8.913910950380224 ], [ 76.632451475144137, 8.914046564134924 ] ] ] } },
{ "type": "Feature", "properties": { "fid": null, "id": 24, "name": "Canteen", "building_type": "Common Facility", "floors": 1, "description": "College canteen" }, "geometry": { "type": "Polygon", "coordinates": [ [ [ 76.632347935027241, 8.913829438538739 ], [ 76.632472184471752, 8.913788327549666 ], [ 76.632535622619898, 8.913767337474033 ], [ 76.632648878011921, 8.913729864131824 ], [ 76.632616875022904, 8.913607726452582 ], [ 76.63231393974111, 8.913707886342333 ], [ 76.632347935027241, 8.913829438538739 ] ] ] } },
{ "type": "Feature", "properties": { "fid": null, "id": 25, "name": "Cooperative Store", "building_type": "Common Facility", "floors": 1, "description": "College cooperative store" }, "geometry": { "type": "Polygon", "coordinates": [ [ [ 76.632535622619898, 8.913767337474033 ], [ 76.632551237862842, 8.913824755762986 ], [ 76.632606487518913, 8.913807274835143 ], [ 76.632665283048439, 8.913788671996084 ], [ 76.632648878011921, 8.913729864131824 ], [ 76.632535622619898, 8.913767337474033 ] ] ] } },
{ "type": "Feature", "properties": { "fid": null, "id": 26, "name": "Campus Doctor", "building_type": "Health Facility", "floors": 1, "description": "Campus doctor and medical facility" }, "geometry": { "type": "Polygon", "coordinates": [ [ [ 76.632606487518913, 8.913807274835143 ], [ 76.632619845048737, 8.913858154507707 ], [ 76.632677783081675, 8.913840272093632 ], [ 76.632665283048439, 8.913788671996084 ], [ 76.632606487518913, 8.913807274835143 ] ] ] } },
{ "type": "Feature", "properties": { "fid": null, "id": 27, "name": "Ladies Amenities", "building_type": "Common Facility", "floors": 1, "description": "Ladies amenities facility" }, "geometry": { "type": "Polygon", "coordinates": [ [ [ 76.632535622619898, 8.913767337474033 ], [ 76.632472184471752, 8.913788327549666 ], [ 76.632502098307029, 8.913897789726073 ], [ 76.632564047464513, 8.913875943530353 ], [ 76.632535622619898, 8.913767337474033 ] ] ] } },
{ "type": "Feature", "properties": { "fid": null, "id": 28, "name": "Store Room", "building_type": "Utility", "floors": 1, "description": "Campus store room" }, "geometry": { "type": "Polygon", "coordinates": [ [ [ 76.632564047464513, 8.913875943530353 ], [ 76.632619845048737, 8.913858154507707 ], [ 76.632606487518913, 8.913807274835143 ], [ 76.632551237862842, 8.913824755762986 ], [ 76.632564047464513, 8.913875943530353 ] ] ] } },
{ "type": "Feature", "properties": { "fid": null, "id": 29, "name": "Shed", "building_type": "Utility", "floors": 1, "description": "Campus utility shed" }, "geometry": { "type": "Polygon", "coordinates": [ [ [ 76.63198540840169, 8.912751379677516 ], [ 76.632051871494397, 8.912731595806035 ], [ 76.632022081984573, 8.912649941107494 ], [ 76.631958116011248, 8.912669925151027 ], [ 76.63198540840169, 8.912751379677516 ] ] ] } },
{ "type": "Feature", "properties": { "fid": null, "id": 30, "name": "Water Tank", "building_type": "Utility", "floors": 1, "description": "Campus water tank" }, "geometry": { "type": "Polygon", "coordinates": [ [ [ 76.632399398725482, 8.912385561933378 ], [ 76.632431250066332, 8.912386914098802 ], [ 76.632431245596564, 8.912355208115182 ], [ 76.632399636380882, 8.912352499368271 ], [ 76.632399398725482, 8.912385561933378 ] ] ] } },
{ "type": "Feature", "properties": { "fid": null, "id": 31, "name": "Watcher Cabin 1", "building_type": "Security", "floors": 1, "description": "Campus security watcher cabin 1" }, "geometry": { "type": "Polygon", "coordinates": [ [ [ 76.631963758673052, 8.915027764268057 ], [ 76.631977435724821, 8.915025173437641 ], [ 76.63198644453405, 8.91501259983799 ], [ 76.631977083008579, 8.915005995760373 ], [ 76.631985984206594, 8.914994025080757 ], [ 76.631970591239238, 8.914984194512865 ], [ 76.6319490032744, 8.915020531428233 ], [ 76.631963758673052, 8.915027764268057 ] ] ] } },
{ "type": "Feature", "properties": { "fid": null, "id": 32, "name": "Watcher Cabin 2", "building_type": "Security", "floors": 1, "description": "Campus security watcher cabin 2" }, "geometry": { "type": "Polygon", "coordinates": [ [ [ 76.632043648561549, 8.915071987055395 ], [ 76.63205680226433, 8.915049411744013 ], [ 76.632064960889821, 8.915053941281149 ], [ 76.632074283689178, 8.915040489879358 ], [ 76.632089227779915, 8.915049309753664 ], [ 76.632066607547813, 8.915084378929294 ], [ 76.632043648561549, 8.915071987055395 ] ] ] } },
{ "type": "Feature", "properties": { "fid": null, "id": 33, "name": "Badminton Court", "building_type": "Sports Facility", "floors": 0, "description": "Campus badminton court" }, "geometry": { "type": "Polygon", "coordinates": [ [ [ 76.63225441453055, 8.914780892987652 ], [ 76.632401303256458, 8.914721097141133 ], [ 76.632347050385349, 8.914516551518972 ], [ 76.632199423525094, 8.914575618180979 ], [ 76.63225441453055, 8.914780892987652 ] ] ] } },
{ "type": "Feature", "properties": { "fid": null, "id": 34, "name": "PT Room", "building_type": "Sports Facility", "floors": 1, "description": "Physical training room" }, "geometry": { "type": "Polygon", "coordinates": [ [ [ 76.632555339632376, 8.915620273802897 ], [ 76.632550268496715, 8.915553493915914 ], [ 76.63258616670835, 8.915549800616853 ], [ 76.632583679731354, 8.915479119210897 ], [ 76.632655943463121, 8.915476165672619 ], [ 76.632661060402043, 8.915613201723326 ], [ 76.632555339632376, 8.915620273802897 ] ] ] } },
{ "type": "Feature", "properties": { "fid": null, "id": 35, "name": "College Gym", "building_type": "Sports Facility", "floors": 1, "description": "College gymnasium" }, "geometry": { "type": "Polygon", "coordinates": [ [ [ 76.632555339632376, 8.915620273802897 ], [ 76.632530623493196, 8.915621252490872 ], [ 76.63253046058648, 8.915611588303053 ], [ 76.63240108284765, 8.915620756072137 ], [ 76.632399024825531, 8.915537094431347 ], [ 76.632511278974363, 8.915528673781228 ], [ 76.632513149698212, 8.915556974592894 ], [ 76.632550268496715, 8.915553493915914 ], [ 76.632555339632376, 8.915620273802897 ] ] ] } },
{ "type": "Feature", "properties": { "fid": null, "id": 38, "name": "Workshop Block", "building_type": "Workshop", "floors": 1, "description": "Campus workshop block" }, "geometry": { "type": "Polygon", "coordinates": [ [ [ 76.6329208287043, 8.913480792576705 ], [ 76.632855997945995, 8.913498007791004 ], [ 76.632859700197969, 8.913516126006359 ], [ 76.632804246465142, 8.913531476892317 ], [ 76.632818953891586, 8.91358508830456 ], [ 76.632799526359406, 8.913590954641302 ], [ 76.632807800146054, 8.91361843453871 ], [ 76.632709277296115, 8.91364581185514 ], [ 76.63279309089188, 8.913972875284522 ], [ 76.632918480662582, 8.913942640649063 ], [ 76.632942949467264, 8.914050372209081 ], [ 76.632990905326011, 8.914038169205551 ], [ 76.632988292551289, 8.914029491353404 ], [ 76.633264673258651, 8.913969370386301 ], [ 76.633192963135116, 8.913609468775284 ], [ 76.632961452701238, 8.913663016325936 ], [ 76.6329208287043, 8.913480792576705 ] ], [ [ 76.632838966702252, 8.913801337404887 ], [ 76.632804659359834, 8.913653519220551 ], [ 76.6328883050748, 8.913631773068163 ], [ 76.632920297817734, 8.913780901130634 ], [ 76.632838966702252, 8.913801337404887 ] ], [ [ 76.633013645352634, 8.913917076664649 ], [ 76.632997787089536, 8.913839795820863 ], [ 76.633143776929359, 8.91380586912048 ], [ 76.633160926342583, 8.913884659685968 ], [ 76.633013645352634, 8.913917076664649 ] ] ] } }
]
}
