{
"type": "FeatureCollection",
"name": "entrances",
"crs": { "type": "name", "properties": { "name": "urn:ogc:def:crs:OGC:1.3:CRS84" } },
"features": [
{ "type": "Feature", "properties": { "id": 1, "name": "Mechanical Main Entrance", "building": "Mechanical Block", "floor": 0, "entrance_type": "main", "accessible": 1 }, "geometry": { "type": "Point", "coordinates": [ 76.631608899525716, 8.912879114093826 ] } },
{ "type": "Feature", "properties": { "id": 2, "name": "Chemical Main Entrance", "building": "Chemical Block", "floor": 0, "entrance_type": "main", "accessible": 1 }, "geometry": { "type": "Point", "coordinates": [ 76.63148208806922, 8.91250575017814 ] } },
{ "type": "Feature", "properties": { "id": 3, "name": "Main Block Entrance", "building": "Main Block", "floor": 0, "entrance_type": "main", "accessible": 1 }, "geometry": { "type": "Point", "coordinates": [ 76.632083287856773, 8.914945254087691 ] } }
]
}
