{
"type": "FeatureCollection",
"name": "walkways",
"crs": { "type": "name", "properties": { "name": "urn:ogc:def:crs:OGC:1.3:CRS84" } },
"features": [
{ "type": "Feature", "properties": { "id": 2, "name": "Entrance to H107 (Direct)", "type": "Indoor Walkway", "accessible": 1 }, "geometry": { "type": "LineString", "coordinates": [ [ 76.631489511535989, 8.912525104666102 ], [ 76.631554137954197, 8.912497642254076 ], [ 76.631556569246086, 8.912476947473355 ], [ 76.631526234933858, 8.912384613437892 ], [ 76.631578705095563, 8.912367199560169 ], [ 76.631575622651837, 8.912358248853307 ] ] } },
{ "type": "Feature", "properties": { "id": 1, "name": "Mechanical-Chemical Walkway", "type": "Walkway", "accessible": 1 }, "geometry": { "type": "LineString", "coordinates": [ [ 76.631631641809747, 8.912952142010484 ], [ 76.631631623231087, 8.912952148763097 ], [ 76.63155368067973, 8.912977943834608 ], [ 76.631412896949342, 8.912553012902466 ], [ 76.631489511535989, 8.912525104666102 ] ] } },
{ "type": "Feature", "properties": { "id": 2, "name": "Main Gate to Main Block", "type": "pedestrian", "accessible": 1 }, "geometry": { "type": "LineString", "coordinates": [ [ 76.632003602236921, 8.915049535715331 ], [ 76.632038439099048, 8.915000518977937 ], [ 76.632083502691572, 8.914945244776815 ] ] } },
{ "type": "Feature", "properties": { "id": 3, "name": "Entrance to H107 (Courtyard Route)", "type": "Indoor Walkway", "accessible": 1 }, "geometry": { "type": "LineString", "coordinates": [ [ 76.631489511535989, 8.912525104666102 ], [ 76.631561625605372, 8.912518923783747 ], [ 76.631575043542412, 8.912527485878508 ], [ 76.631766170205609, 8.912460665206524 ], [ 76.631716467025086, 8.912319430564168 ], [ 76.631582921752695, 8.912365496349571 ], [ 76.631578705095563, 8.912367199560169 ] ] } },
{ "type": "Feature", "properties": { "id": 4, "name": "Entrance to M101", "type": "Indoor Walkway", "accessible": 1 }, "geometry": { "type": "LineString", "coordinates": [ [ 76.63166555799225, 8.912861361174544 ], [ 76.631665657579788, 8.912861353381274 ], [ 76.631673733338573, 8.912858694128326 ], [ 76.631697560120969, 8.912929311352096 ], [ 76.631631641809747, 8.912952142010484 ] ] } }
]
}
