{
"type": "FeatureCollection",
"name": "rooms1",
"crs": { "type": "name", "properties": { "name": "urn:ogc:def:crs:OGC:1.3:CRS84" } },
"features": [
{"type":"Feature","properties":{"fid":null,"id":null,"room_no":"H302","room_name":"Process Control Room","building":"Chemical Block","floor":2,"type":null,"accessible":true},"geometry":{"type":"Polygon","coordinates":[[[76.631585273718983,8.91258755752019],[76.631589499954771,8.912599716977956],[76.63158738079575,8.912600563064727],[76.631591340189559,8.912611460798777],[76.631529020944882,8.912632565722678],[76.631501653325856,8.912553117542824],[76.631563511854296,8.91253186592621],[76.631583195395024,8.91258821869979],[76.631585273718983,8.91258755752019]]]}},
{"type":"Feature","properties":{"fid":null,"id":null,"room_no":"H303","room_name":"Library","building":null,"floor":2,"type":null,"accessible":true},"geometry":{"type":"Polygon","coordinates":[[[76.631560251919979,8.912515126349234],[76.631564370268947,8.912527053624554],[76.631562195669403,8.912527808395682],[76.631562712367938,8.912529913660499],[76.631500768984068,8.912551241403465],[76.631482403818353,8.912498416524764],[76.631544732783482,8.912477785714106],[76.631558222771531,8.912515780504112],[76.631560251919979,8.912515126349234]]]}},
{"type":"Feature","properties":{"fid":null,"id":null,"room_no":"H304","room_name":"classroom","building":null,"floor":2,"type":null,"accessible":true},"geometry":{"type":"Polygon","coordinates":[[[76.631541068819828,8.912460357186003],[76.631545168877238,8.91247259321273],[76.631543060535904,8.912473067719484],[76.631543820416212,8.912475672805177],[76.631481761563705,8.912496562482671],[76.631453926845182,8.912416553155678],[76.631516109554738,8.91239522270086],[76.631538886103755,8.912461020082024],[76.631541068819828,8.912460357186003]]]}},
{"type":"Feature","properties":{"fid":null,"id":null,"room_no":"H305","room_name":"classroom","building":null,"floor":2,"type":null,"accessible":true},"geometry":{"type":"Polygon","coordinates":[[[76.631512676980904,8.91237846153266],[76.631516782205438,8.912390651948947],[76.631514563616818,8.912391030494668],[76.631515167700684,8.912393430783681],[76.631453188778266,8.912414345751094],[76.631425452268857,8.912334758069862],[76.631487297349537,8.912313718023556],[76.631510251806191,8.912379311749547],[76.631512676980904,8.91237846153266]]]}},
{"type":"Feature","properties":{"fid":null,"id":null,"room_no":null,"room_name":"stair","building":null,"floor":2,"type":null,"accessible":true},"geometry":{"type":"Polygon","coordinates":[[[76.631502001547716,8.91230878663275],[76.631514982463045,8.912345500526273],[76.631524529633936,8.912342093853745],[76.631525150112807,8.912344491514238],[76.631533630196074,8.912341498607464],[76.631520160421118,8.912302618901942],[76.631502001547716,8.91230878663275]]]}},
{"type":"Feature","properties":{"fid":null,"id":null,"room_no":"H307","room_name":"MCA lab","building":null,"floor":2,"type":null,"accessible":true},"geometry":{"type":"Polygon","coordinates":[[[76.631573654263633,8.912359595495765],[76.631590081329875,8.912353964912816],[76.631589393508833,8.912351680430872],[76.631720879547643,8.912306710845126],[76.63169827390594,8.912241688970084],[76.631522448665933,8.912302026440896],[76.63154515460198,8.912366915261705],[76.631573128697653,8.912357261863823],[76.631573654263633,8.912359595495765]]]}},
{"type":"Feature","properties":{"fid":null,"id":null,"room_no":"H310","room_name":"classroom","building":null,"floor":2,"type":null,"accessible":false},"geometry":{"type":"Polygon","coordinates":[[[76.631721285330755,8.912309578463843],[76.631725172561914,8.912318862966657],[76.631794325102092,8.912295306060136],[76.631766826777849,8.912218833372794],[76.631700978334649,8.912241380679871],[76.631724078192804,8.912308645640886],[76.631721285330755,8.912309578463843]]]}},
{"type":"Feature","properties":{"fid":null,"id":null,"room_no":"H311","room_name":"classroom","building":null,"floor":2,"type":null,"accessible":true},"geometry":{"type":"Polygon","coordinates":[[[76.631729334487915,8.912330577545406],[76.631732956491348,8.91234088301057],[76.631735008361602,8.912339938103383],[76.63175362351798,8.912392855758155],[76.631820251299004,8.91236985718368],[76.631794531987964,8.912297655294845],[76.631727968616872,8.91232029299705],[76.631731655030293,8.912330237585705],[76.631729334487915,8.912330577545406]]]}},
{"type":"Feature","properties":{"fid":null,"id":null,"room_no":null,"room_name":"stair","building":null,"floor":2,"type":null,"accessible":true},"geometry":{"type":"Polygon","coordinates":[[[76.631784460866513,8.912411374787245],[76.631775899405,8.912387598384099],[76.631820264996051,8.912372790435981],[76.631828623228571,8.912396280103254],[76.631784460866513,8.912411374787245]]]}},
{"type":"Feature","properties":{"fid":null,"id":null,"room_no":"H312","room_name":"classroom","building":null,"floor":2,"type":null,"accessible":true},"geometry":{"type":"Polygon","coordinates":[[[76.631774348732876,8.912453246387706],[76.631772143781674,8.912453894329277],[76.631777010113382,8.912466868501735],[76.631845735574331,8.912443234971047],[76.63182988420121,8.912398160058451],[76.631762983759259,8.912421079466975],[76.631774348732876,8.912453246387706]]]}},
{"type":"Feature","properties":{"fid":null,"id":null,"room_no":"H313","room_name":"chemistry lab","building":null,"floor":2,"type":null,"accessible":true},"geometry":{"type":"Polygon","coordinates":[[[76.631756536166904,8.912585510216422],[76.631746691615888,8.912588843220846],[76.631739399275261,8.912567561456735],[76.631750642564398,8.912564117683523],[76.631746299672912,8.912551339070188],[76.631760001973674,8.912547003662899],[76.631767822025381,8.912544529398891],[76.631768012942032,8.912544468992881],[76.631770098788877,8.91255051975933],[76.631772397095432,8.912549797490525],[76.63174742604069,8.912478721772723],[76.631757012815626,8.912475670078683],[76.631756265280373,8.912473614643543],[76.631769029864657,8.912469338572402],[76.631769545756342,8.912471714026257],[76.631846413816149,8.912445649244647],[76.631880402611202,8.91254365531881],[76.631781655039106,8.912576875090972],[76.631774515870973,8.912556599855188],[76.631772360826716,8.912557460269463],[76.631779499994835,8.912577735505197],[76.631758154914166,8.91258496216788],[76.631753078665355,8.912570380051768],[76.63175152844893,8.912570835594435],[76.631756536166904,8.912585510216422]]]}},
{"type":"Feature","properties":{"fid":null,"id":null,"room_no":"H314","room_name":"chemistry lab","building":null,"floor":2,"type":null,"accessible":false},"geometry":{"type":"Polygon","coordinates":[[[76.631691641807734,8.912495484262356],[76.631679138407733,8.912499848399586],[76.631701641106645,8.912565167723619],[76.63175956066209,8.912545477795566],[76.631760001973674,8.912547003662899],[76.631767822025381,8.912544529398891],[76.631745286947478,8.91247983679736],[76.631692661597739,8.912497732370428],[76.631691641807734,8.912495484262356]]]}},
{"type":"Feature","properties":{"fid":null,"id":null,"room_no":"H315","room_name":"physics lab","building":null,"floor":2,"type":null,"accessible":true},"geometry":{"type":"Polygon","coordinates":[[[76.631734471096209,8.91259294060611],[76.631726808503458,8.912570994159077],[76.631728169300999,8.912570643387179],[76.631735584119852,8.912592557075254],[76.63174557950687,8.91258911281829],[76.631738276047869,8.912568485700964],[76.631735665029225,8.912569186588003],[76.631735285295775,8.912568036950528],[76.631749063545342,8.912563448897398],[76.631745051709046,8.912552268421612],[76.631700311439545,8.912567242794356],[76.631677778931802,8.912503114477015],[76.631675990783208,8.912503329114864],[76.631675185449083,8.912501169209675],[76.631662964884939,8.912505190960259],[76.631663574104635,8.912507757304581],[76.631612538267461,8.912525451581851],[76.631646715529456,8.91262317982623],[76.631734471096209,8.91259294060611]]]}},
{"type":"Feature","properties":{"fid":null,"id":null,"room_no":null,"room_name":"stair","building":null,"floor":2,"type":null,"accessible":true},"geometry":{"type":"Polygon","coordinates":[[[76.631611627642414,8.912530990844218],[76.63159903544279,8.912535139489869],[76.631597858932707,8.912532739173555],[76.631586386554346,8.912536838959754],[76.631601894353253,8.912581374390838],[76.631626402578831,8.912572715382399],[76.631611627642414,8.912530990844218]]]}},
{"type":"Feature","properties":{"fid":null,"id":null,"room_no":"H316","room_name":"H316","building":null,"floor":null,"type":null,"accessible":true},"geometry":{"type":"Polygon","coordinates":[[[76.631619435350331,8.912632031888403],[76.63164436699472,8.91262368883063],[76.63162732373749,8.912575285988598],[76.631602536906342,8.912583654273652],[76.631609337209809,8.912603277972551],[76.631607062873272,8.91260347183891],[76.631610497129898,8.912613510898151],[76.631612848069892,8.912612887837597],[76.631619435350331,8.912632031888403]]]}},
{"type":"Feature","properties":{"fid":null,"id":null,"room_no":"H301","room_name":"H301","building":null,"floor":2,"type":null,"accessible":true},"geometry":{"type":"Polygon","coordinates":[[[76.631588925045548,8.912642509046741],[76.631583654379355,8.912627029325444],[76.631584832584068,8.912626563120241],[76.631590092043766,8.912642108777693],[76.631600887123,8.912638406170405],[76.631595948602424,8.912624519132915],[76.631591733117901,8.912625820234947],[76.631591544881573,8.912624566186047],[76.631597860224559,8.912622273921166],[76.631595241984485,8.912614625973236],[76.631593008913939,8.912615593930822],[76.631591715724156,8.912613604619661],[76.63153019977122,8.912635048473463],[76.63153870510952,8.912659733996367],[76.631588925045548,8.912642509046741]]]}},
{"type":"Feature","properties":{"fid":null,"id":null,"room_no":"","room_name":"corridor","building":null,"floor":null,"type":null,"accessible":true},"geometry":{"type":"Polygon","coordinates":[[[76.631489208536962,8.912312706778719],[76.631502001547716,8.91230878663275],[76.631514982463045,8.912345500526273],[76.631524529633936,8.912342093853745],[76.631525150112807,8.912344491514238],[76.631533630196074,8.912341498607464],[76.631543284224421,8.912367967709057],[76.631535395295529,8.912370203003809],[76.631534300580668,8.91236712468171],[76.631531455533192,8.912367711939211],[76.631533530270247,8.912373487651028],[76.631721285330755,8.912309578463843],[76.631751929858851,8.912396077014654],[76.631775899405,8.912387598384099],[76.631784460866513,8.912411374787245],[76.631760085947377,8.912419401944128],[76.631777010113382,8.912466868501735],[76.63160946000032,8.912523403743233],[76.631611627642414,8.912530990844218],[76.63159903544279,8.912535139489869],[76.631597858932707,8.912532739173555],[76.631586386554346,8.912536838959754],[76.631584599569777,8.912531982755144],[76.631582153604683,8.912532882879109],[76.63161717867176,8.912632990021242],[76.631603268122888,8.912637991009507],[76.631489208536962,8.912312706778719]],[[76.631575583064233,8.912518672764065],[76.631755833927954,8.9124572850587],[76.63171102592635,8.912330548220858],[76.631531564105217,8.912392073547522],[76.631575583064233,8.912518672764065]]]}}
]
}
