{
"type": "FeatureCollection",
"name": "doors_ff",
"crs": { "type": "name", "properties": { "name": "urn:ogc:def:crs:OGC:1.3:CRS84" } },
"features": [
{ "type": "Feature", "properties": { "fid": 1, "id": "DOOR_H201", "room_no": "H201", "room_name": "HOD Chamber (Chemical)", "building": "Chemical Block", "floor": 1, "type": "Door", "accessible": true }, "geometry": { "type": "Point", "coordinates": [ 76.63159609951515, 8.912618551525863 ] } },
{ "type": "Feature", "properties": { "fid": 2, "id": "DOOR_H201A", "room_no": "H201A", "room_name": "Toilet", "building": "Chemical Block", "floor": 1, "type": "Door", "accessible": true }, "geometry": { "type": "Point", "coordinates": [ 76.631587811870176, 8.912639385527982 ] } },
{ "type": "Feature", "properties": { "fid": 3, "id": "DOOR_H202", "room_no": "H202", "room_name": "Classroom", "building": "Chemical Block", "floor": 1, "type": "Door", "accessible": true }, "geometry": { "type": "Point", "coordinates": [ 76.631587598286558, 8.912593940912661 ] } },
{ "type": "Feature", "properties": { "fid": 4, "id": "DOOR_H203", "room_no": "H203", "room_name": "Software Lab", "building": "Chemical Block", "floor": 1, "type": "Door", "accessible": true }, "geometry": { "type": "Point", "coordinates": [ 76.63156246078286, 8.912521169141014 ] } }
]
}
