{
  "type": "FeatureCollection",
  "name": "rooms_ff",
  "crs": {
    "type": "name",
    "properties": {
      "name": "urn:ogc:def:crs:OGC:1.3:CRS84"
    }
  },
  "features": [
    {
      "type": "Feature",
      "properties": {
        "fid": 11,
        "id": 10,
        "room_no": "H205",
        "room_name": "Seminar room",
        "building": "Chemical Block",
        "floor": 1,
        "type": "Seminar room",
        "accessible": true
      },
      "geometry": {
        "type": "Polygon",
        "coordinates": [
          [
            [
              76.63146329578602,
              8.912441167652181
            ],
            [
              76.63152474698569,
              8.912420230703592
            ],
            [
              76.63152409390334,
              8.912418242567485
            ],
            [
              76.63152648240599,
              8.912417013577597
            ],
            [
              76.63152241364774,
              8.912405234728437
            ],
            [
              76.63152002318112,
              8.9124061700846
            ],
            [
              76.63149227440883,
              8.912325427260006
            ],
            [
              76.63149449405019,
              8.912324408896533
            ],
            [
              76.63149031870942,
              8.91231232149331
            ],
            [
              76.63142664575531,
              8.912333981619254
            ],
            [
              76.63146329578602,
              8.912441167652181
            ]
          ]
        ]
      }
    },
    {
      "type": "Feature",
      "properties": {
        "fid": 2,
        "id": 1,
        "room_no": null,
        "room_name": "Main Corridor",
        "building": "Chemical Block",
        "floor": 1,
        "type": "Corridor",
        "accessible": true
      },
      "geometry": {
        "type": "Polygon",
        "coordinates": [
          [
            [
              76.63160267623392,
              8.912637590782499
            ],
            [
              76.63161709900162,
              8.912632836436966
            ],
            [
              76.63161397047054,
              8.912623919342877
            ],
            [
              76.63160823138587,
              8.91260756151892
            ],
            [
              76.63160443950896,
              8.912596753722895
            ],
            [
              76.63160227220105,
              8.912597685216628
            ],
            [
              76.63160145399819,
              8.912595008157357
            ],
            [
              76.63160359129374,
              8.912594124925
            ],
            [
              76.6315819241075,
              8.912532166499554
            ],
            [
              76.63158460897894,
              8.912531203456734
            ],
            [
              76.6315864021508,
              8.912536240565588
            ],
            [
              76.6315980369141,
              8.912532160642701
            ],
            [
              76.6315991237986,
              8.912535000777625
            ],
            [
              76.63161165830886,
              8.91253064263397
            ],
            [
              76.63160919013573,
              8.912523055267199
            ],
            [
              76.63161345578798,
              8.91252138974037
            ],
            [
              76.63162529869872,
              8.912517344585929
            ],
            [
              76.63169539882546,
              8.912493400653997
            ],
            [
              76.63170727568149,
              8.912489343904648
            ],
            [
              76.6317150537999,
              8.912486687151306
            ],
            [
              76.63172728136148,
              8.91248251061221
            ],
            [
              76.63178697069095,
              8.912462122669439
            ],
            [
              76.63179905479312,
              8.912457995131168
            ],
            [
              76.63181358744967,
              8.912453031245894
            ],
            [
              76.63182167005925,
              8.912450270487943
            ],
            [
              76.63182376916322,
              8.912449553501931
            ],
            [
              76.63181931368712,
              8.9124365054006
            ],
            [
              76.63177160604887,
              8.912453232646989
            ],
            [
              76.63176484434932,
              8.912434376483814
            ],
            [
              76.63176211949998,
              8.912426777772046
            ],
            [
              76.63175880862885,
              8.912417544837314
            ],
            [
              76.63176115473759,
              8.912416628797297
            ],
            [
              76.63176181121268,
              8.912418516333881
            ],
            [
              76.63178358776102,
              8.912410939419997
            ],
            [
              76.63177541503059,
              8.912387551503555
            ],
            [
              76.63175126810424,
              8.912395737227676
            ],
            [
              76.63173207716788,
              8.912340387576927
            ],
            [
              76.63172879515106,
              8.912330921728271
            ],
            [
              76.63172035506938,
              8.912306579214228
            ],
            [
              76.63171636728617,
              8.91229507782399
            ],
            [
              76.63170356253865,
              8.912258146927753
            ],
            [
              76.63170106045618,
              8.912250930529812
            ],
            [
              76.63169788096475,
              8.912241760378004
            ],
            [
              76.63168187837734,
              8.912247497001259
            ],
            [
              76.63170537417832,
              8.912314673644396
            ],
            [
              76.63169052215498,
              8.912319722995184
            ],
            [
              76.63167864547896,
              8.912323760795388
            ],
            [
              76.63165955317412,
              8.91233025174547
            ],
            [
              76.6316477106255,
              8.912334277942994
            ],
            [
              76.63164147627548,
              8.912336397480383
            ],
            [
              76.63162973382389,
              8.912340389647143
            ],
            [
              76.63161092171866,
              8.912346785335421
            ],
            [
              76.6315989701149,
              8.912350848609035
            ],
            [
              76.63153354412462,
              8.91237309195784
            ],
            [
              76.63153158597618,
              8.912367560709793
            ],
            [
              76.631528139703,
              8.912357825905282
            ],
            [
              76.63152047493726,
              8.912360672447475
            ],
            [
              76.63151978333192,
              8.912358019042452
            ],
            [
              76.63153742513865,
              8.912352373247083
            ],
            [
              76.63153378386487,
              8.91234117545656
            ],
            [
              76.63152539144886,
              8.912344391377676
            ],
            [
              76.63152457979388,
              8.912341931018165
            ],
            [
              76.63151508806918,
              8.912344772218447
            ],
            [
              76.63150298742008,
              8.912309034623147
            ],
            [
              76.63150272423117,
              8.912308257330949
            ],
            [
              76.63149031870942,
              8.91231232149331
            ],
            [
              76.63149449405019,
              8.912324408896533
            ],
            [
              76.63152241364774,
              8.912405234728437
            ],
            [
              76.63152648240599,
              8.912417013577597
            ],
            [
              76.63152869269376,
              8.91242341224869
            ],
            [
              76.6315328923974,
              8.912435570177545
            ],
            [
              76.6315602085911,
              8.912514649161732
            ],
            [
              76.63156419115873,
              8.912526178490088
            ],
            [
              76.63158528925317,
              8.91258725638109
            ],
            [
              76.6315893565752,
              8.912599031066643
            ],
            [
              76.631594678736,
              8.912614438444468
            ],
            [
              76.63159718892527,
              8.912621705311183
            ],
            [
              76.63160267623392,
              8.912637590782499
            ]
          ],
          [
            [
              76.63153470876568,
              8.912390227552036
            ],
            [
              76.6315344930523,
              8.912390044489726
            ],
            [
              76.63171089232523,
              8.912330340815958
            ],
            [
              76.63171091768064,
              8.912330359661304
            ],
            [
              76.63175547393797,
              8.912456879874142
            ],
            [
              76.63157916025929,
              8.912517107126977
            ],
            [
              76.63153470876568,
              8.912390227552036
            ]
          ]
        ]
      }
    },
    {
      "type": "Feature",
      "properties": {
        "fid": 3,
        "id": 2,
        "room_no": null,
        "room_name": "Central Courtyard",
        "building": "Chemical Block",
        "floor": 1,
        "type": "Courtyard",
        "accessible": true
      },
      "geometry": {
        "type": "Polygon",
        "coordinates": [
          [
            [
              76.63157916025929,
              8.912517107126977
            ],
            [
              76.63175547393797,
              8.912456879874142
            ],
            [
              76.63171089232523,
              8.912330340815958
            ],
            [
              76.6315344930523,
              8.912390044489726
            ],
            [
              76.63157916025929,
              8.912517107126977
            ]
          ]
        ]
      }
    },
    {
      "type": "Feature",
      "properties": {
        "fid": 4,
        "id": 3,
        "room_no": null,
        "room_name": "Staircase 1",
        "building": "Chemical Block",
        "floor": 1,
        "type": "Stair",
        "accessible": true
      },
      "geometry": {
        "type": "Polygon",
        "coordinates": [
          [
            [
              76.63178358776102,
              8.912410939419997
            ],
            [
              76.63182770056824,
              8.91239585939655
            ],
            [
              76.63182721491606,
              8.912394368040315
            ],
            [
              76.63182802143002,
              8.912393980050213
            ],
            [
              76.63182063226431,
              8.912373660329465
            ],
            [
              76.63181985256699,
              8.912373745504727
            ],
            [
              76.63181950676432,
              8.912372418802269
            ],
            [
              76.63177541503059,
              8.912387551503555
            ],
            [
              76.63178358776102,
              8.912410939419997
            ]
          ]
        ]
      }
    },
    {
      "type": "Feature",
      "properties": {
        "fid": 5,
        "id": 4,
        "room_no": null,
        "room_name": "Staircase 2",
        "building": "Chemical Block",
        "floor": 1,
        "type": "Stair",
        "accessible": true
      },
      "geometry": {
        "type": "Polygon",
        "coordinates": [
          [
            [
              76.6315980369141,
              8.912532160642701
            ],
            [
              76.6315864021508,
              8.912536240565588
            ],
            [
              76.63160176258639,
              8.912580769884608
            ],
            [
              76.63162625114703,
              8.91257235941577
            ],
            [
              76.63161165830886,
              8.91253064263397
            ],
            [
              76.6315991237986,
              8.912535000777625
            ],
            [
              76.6315980369141,
              8.912532160642701
            ]
          ]
        ]
      }
    },
    {
      "type": "Feature",
      "properties": {
        "fid": 6,
        "id": 5,
        "room_no": null,
        "room_name": "Staircase 3",
        "building": "Chemical Block",
        "floor": 1,
        "type": "Stair",
        "accessible": true
      },
      "geometry": {
        "type": "Polygon",
        "coordinates": [
          [
            [
              76.63151508806918,
              8.912344772218447
            ],
            [
              76.63152457979388,
              8.912341931018162
            ],
            [
              76.63152539144886,
              8.912344391377676
            ],
            [
              76.63153378386487,
              8.91234117545656
            ],
            [
              76.63152069952655,
              8.912302042807386
            ],
            [
              76.63150557688623,
              8.912307143509219
            ],
            [
              76.63150582306436,
              8.912307851335653
            ],
            [
              76.63150298742008,
              8.912309034623147
            ],
            [
              76.63151508806918,
              8.912344772218447
            ]
          ]
        ]
      }
    },
    {
      "type": "Feature",
      "properties": {
        "fid": 7,
        "id": 6,
        "room_no": "H201",
        "room_name": "HOD Chamber (Chemical)",
        "building": "Chemical Block",
        "floor": 1,
        "type": "Office",
        "accessible": true
      },
      "geometry": {
        "type": "Polygon",
        "coordinates": [
          [
            [
              76.63158879278075,
              8.912642267782086
            ],
            [
              76.6315866591466,
              8.912635998427863
            ],
            [
              76.63158352341492,
              8.912626784564601
            ],
            [
              76.63159718892527,
              8.912621705311183
            ],
            [
              76.631594678736,
              8.912614438444468
            ],
            [
              76.63159257219021,
              8.912615285088796
            ],
            [
              76.63159182024742,
              8.912613313018616
            ],
            [
              76.63152948677148,
              8.912634471918198
            ],
            [
              76.63153875244214,
              8.912659759651149
            ],
            [
              76.63158879278075,
              8.912642267782086
            ]
          ]
        ]
      }
    },
    {
      "type": "Feature",
      "properties": {
        "fid": 8,
        "id": 7,
        "room_no": "H201A",
        "room_name": "Toilet",
        "building": "Chemical Block",
        "floor": 1,
        "type": "Toilet",
        "accessible": true
      },
      "geometry": {
        "type": "Polygon",
        "coordinates": [
          [
            [
              76.63158879278075,
              8.912642267782088
            ],
            [
              76.63160033974158,
              8.912638307409933
            ],
            [
              76.63159544969923,
              8.912623772375518
            ],
            [
              76.63158478588124,
              8.912627351381186
            ],
            [
              76.63158760016968,
              8.91263568063709
            ],
            [
              76.6315866591466,
              8.912635998427863
            ],
            [
              76.63158879278075,
              8.912642267782088
            ]
          ]
        ]
      }
    },
    {
      "type": "Feature",
      "properties": {
        "fid": 9,
        "id": 8,
        "room_no": "H202",
        "room_name": "Classroom",
        "building": "Chemical Block",
        "floor": 1,
        "type": "Classroom",
        "accessible": true
      },
      "geometry": {
        "type": "Polygon",
        "coordinates": [
          [
            [
              76.6315893565752,
              8.912599031066643
            ],
            [
              76.63158674630964,
              8.912599982618694
            ],
            [
              76.63159101178825,
              8.91261110721422
            ],
            [
              76.63152913808572,
              8.912632305853203
            ],
            [
              76.63150178787306,
              8.912552705246174
            ],
            [
              76.63156341683899,
              8.912531218458435
            ],
            [
              76.63158296933169,
              8.912588137413803
            ],
            [
              76.63158528925317,
              8.91258725638109
            ],
            [
              76.6315893565752,
              8.912599031066643
            ]
          ]
        ]
      }
    },
    {
      "type": "Feature",
      "properties": {
        "fid": 10,
        "id": 9,
        "room_no": "H203",
        "room_name": "Software Lab",
        "building": "Chemical Block",
        "floor": 1,
        "type": "Laboratory",
        "accessible": true
      },
      "geometry": {
        "type": "Polygon",
        "coordinates": [
          [
            [
              76.63156419115873,
              8.912526178490088
            ],
            [
              76.63156176975188,
              8.9125271475152
            ],
            [
              76.63156247667607,
              8.912529191977923
            ],
            [
              76.63150105939488,
              8.912550468212785
            ],
            [
              76.63146398658655,
              8.912443328137241
            ],
            [
              76.63152524055376,
              8.912422152205275
            ],
            [
              76.63152590245933,
              8.912424269060686
            ],
            [
              76.63152869269376,
              8.91242341224869
            ],
            [
              76.6315328923974,
              8.912435570177545
            ],
            [
              76.63153030396639,
              8.912436473383035
            ],
            [
              76.63155772002239,
              8.912515221521042
            ],
            [
              76.6315602085911,
              8.912514649161732
            ],
            [
              76.63156419115873,
              8.912526178490088
            ]
          ]
        ]
      }
    },
    {
      "type": "Feature",
      "properties": {
        "fid": 12,
        "id": 11,
        "room_no": "H216",
        "room_name": "Meeting Room (Future Staff Room)",
        "building": "Chemical Block",
        "floor": 1,
        "type": "Meeting Room",
        "accessible": true
      },
      "geometry": {
        "type": "Polygon",
        "coordinates": [
          [
            [
              76.63161949321068,
              8.912631814547451
            ],
            [
              76.6316440138343,
              8.912623394015258
            ],
            [
              76.63162722651863,
              8.912574990118578
            ],
            [
              76.63160259899162,
              8.912583259821439
            ],
            [
              76.63161054215072,
              8.91260698666983
            ],
            [
              76.63160823138587,
              8.91260756151892
            ],
            [
              76.63161397047054,
              8.912623919342877
            ],
            [
              76.63161640774146,
              8.912623608996826
            ],
            [
              76.63161949321068,
              8.912631814547451
            ]
          ]
        ]
      }
    },
    {
      "type": "Feature",
      "properties": {
        "fid": 13,
        "id": 12,
        "room_no": "H209",
        "room_name": "MCA",
        "building": "Chemical Block",
        "floor": 1,
        "type": "Classroom",
        "accessible": true
      },
      "geometry": {
        "type": "Polygon",
        "coordinates": [
          [
            [
              76.63166964974121,
              8.912323826235799
            ],
            [
              76.63167760926466,
              8.912321678332168
            ],
            [
              76.63167864547896,
              8.912323760795388
            ],
            [
              76.63169052215498,
              8.912319722995184
            ],
            [
              76.63169011870603,
              8.912317620210406
            ],
            [
              76.63170246003315,
              8.912313324895322
            ],
            [
              76.6316797118097,
              8.912247405578757
            ],
            [
              76.63164722591601,
              8.912259626695727
            ],
            [
              76.63166964974121,
              8.912323826235799
            ]
          ]
        ]
      }
    },
    {
      "type": "Feature",
      "properties": {
        "fid": 14,
        "id": 13,
        "room_no": "H208",
        "room_name": "Chemistry",
        "building": "Chemical Block",
        "floor": 1,
        "type": "Laboratory",
        "accessible": true
      },
      "geometry": {
        "type": "Polygon",
        "coordinates": [
          [
            [
              76.63162363389053,
              8.91233992769989
            ],
            [
              76.63162916833521,
              8.912338396892645
            ],
            [
              76.63162973382389,
              8.912340389647143
            ],
            [
              76.63164147627546,
              8.912336397480383
            ],
            [
              76.63164106546724,
              8.912334232107947
            ],
            [
              76.6316471520737,
              8.912331965853873
            ],
            [
              76.6316477106255,
              8.91233427794299
            ],
            [
              76.63165955317412,
              8.91233025174547
            ],
            [
              76.63165925330883,
              8.912327836623474
            ],
            [
              76.63166964974121,
              8.912323826235799
            ],
            [
              76.63164722591601,
              8.912259626695727
            ],
            [
              76.63160094581463,
              8.912274850498195
            ],
            [
              76.63162363389053,
              8.91233992769989
            ]
          ]
        ]
      }
    },
    {
      "type": "Feature",
      "properties": {
        "fid": 15,
        "id": 14,
        "room_no": "H211",
        "room_name": "Maths",
        "building": "Chemical Block",
        "floor": 1,
        "type": "Classroom",
        "accessible": true
      },
      "geometry": {
        "type": "Polygon",
        "coordinates": [
          [
            [
              76.63175315955054,
              8.91239242958394
            ],
            [
              76.63173491541907,
              8.912340185187261
            ],
            [
              76.63173207716788,
              8.912340387576927
            ],
            [
              76.63172879515106,
              8.912330921728271
            ],
            [
              76.6317313963521,
              8.912330424216734
            ],
            [
              76.63172373358026,
              8.912308506475071
            ],
            [
              76.63176116576794,
              8.912295691638105
            ],
            [
              76.63173781338497,
              8.912228091917545
            ],
            [
              76.63176641892456,
              8.912218532591142
            ],
            [
              76.63181890521014,
              8.91237039179916
            ],
            [
              76.63175315955054,
              8.91239242958394
            ]
          ]
        ]
      }
    },
    {
      "type": "Feature",
      "properties": {
        "fid": 16,
        "id": 15,
        "room_no": "H215",
        "room_name": "Reaction Engineering and Process Control Lab",
        "building": "Chemical Block",
        "floor": 1,
        "type": "Laboratory",
        "accessible": true
      },
      "geometry": {
        "type": "Polygon",
        "coordinates": [
          [
            [
              76.6316463086834,
              8.912622666253002
            ],
            [
              76.63174522448949,
              8.912588773474162
            ],
            [
              76.63171114630919,
              8.912490893686716
            ],
            [
              76.63170844594782,
              8.912491414059014
            ],
            [
              76.63170727568149,
              8.912489343904648
            ],
            [
              76.63169539882546,
              8.912493400653997
            ],
            [
              76.63169592852937,
              8.912496367092784
            ],
            [
              76.63162598368817,
              8.91251965240141
            ],
            [
              76.63162529869872,
              8.912517344585929
            ],
            [
              76.63161345578798,
              8.91252138974037
            ],
            [
              76.63161402682726,
              8.912523712312982
            ],
            [
              76.63161213887686,
              8.912524176051638
            ],
            [
              76.6316463086834,
              8.912622666253002
            ]
          ]
        ]
      }
    },
    {
      "type": "Feature",
      "properties": {
        "fid": 17,
        "id": 16,
        "room_no": "H214",
        "room_name": "Mass Transfer Operations Lab",
        "building": "Chemical Block",
        "floor": 1,
        "type": "Laboratory",
        "accessible": true
      },
      "geometry": {
        "type": "Polygon",
        "coordinates": [
          [
            [
              76.63178765140307,
              8.912464702911135
            ],
            [
              76.63178697069095,
              8.912462122669439
            ],
            [
              76.63179905479312,
              8.912457995131168
            ],
            [
              76.6318000940875,
              8.912460311470477
            ],
            [
              76.63181200339088,
              8.912456726622596
            ],
            [
              76.63182072290643,
              8.912481605835826
            ],
            [
              76.63185427252104,
              8.91247027751845
            ],
            [
              76.63187926253299,
              8.912543182051358
            ],
            [
              76.63174752907015,
              8.912588090411134
            ],
            [
              76.63171350235056,
              8.912490112372662
            ],
            [
              76.631715605971,
              8.912489366424463
            ],
            [
              76.6317150537999,
              8.912486687151306
            ],
            [
              76.63172728136148,
              8.91248251061221
            ],
            [
              76.63172806711958,
              8.912485001812904
            ],
            [
              76.63178765140307,
              8.912464702911135
            ]
          ]
        ]
      }
    },
    {
      "type": "Feature",
      "properties": {
        "fid": 18,
        "id": 17,
        "room_no": "H207",
        "room_name": "Physics",
        "building": "Chemical Block",
        "floor": 1,
        "type": "Classroom",
        "accessible": true
      },
      "geometry": {
        "type": "Polygon",
        "coordinates": [
          [
            [
              76.63153381430598,
              8.912366650478097
            ],
            [
              76.63153158597618,
              8.912367560709793
            ],
            [
              76.631528139703,
              8.912357825905282
            ],
            [
              76.63154082480293,
              8.912353620265046
            ],
            [
              76.631523016211,
              8.912300874944245
            ],
            [
              76.63160094581463,
              8.912274850498195
            ],
            [
              76.63162363389053,
              8.91233992769989
            ],
            [
              76.63161072683359,
              8.912344498706878
            ],
            [
              76.63161092171866,
              8.912346785335421
            ],
            [
              76.6315989701149,
              8.912350848609035
            ],
            [
              76.63159746703656,
              8.912348395199537
            ],
            [
              76.63153523293134,
              8.912369569685879
            ],
            [
              76.63153381430598,
              8.912366650478097
            ]
          ]
        ]
      }
    },
    {
      "type": "Feature",
      "properties": {
        "fid": 19,
        "id": 18,
        "room_no": "H210",
        "room_name": "Maths",
        "building": "Chemical Block",
        "floor": 1,
        "type": "Classroom",
        "accessible": true
      },
      "geometry": {
        "type": "Polygon",
        "coordinates": [
          [
            [
              76.63172035506938,
              8.912306579214228
            ],
            [
              76.63175703679397,
              8.912293939521275
            ],
            [
              76.63173499327156,
              8.912229418208772
            ],
            [
              76.63172074051343,
              8.912234235419907
            ],
            [
              76.63172653043262,
              8.91225182113059
            ],
            [
              76.63170621388717,
              8.912258699755588
            ],
            [
              76.63171915059104,
              8.912294031495376
            ],
            [
              76.63171636728617,
              8.91229507782399
            ],
            [
              76.63172035506938,
              8.912306579214228
            ]
          ]
        ]
      }
    },
    {
      "type": "Feature",
      "properties": {
        "fid": 20,
        "id": 19,
        "room_no": "H212A",
        "room_name": "Library",
        "building": "Chemical Block",
        "floor": 1,
        "type": "Library",
        "accessible": true
      },
      "geometry": {
        "type": "Polygon",
        "coordinates": [
          [
            [
              76.6317729632898,
              8.912450090189937
            ],
            [
              76.6317675073151,
              8.912434083496949
            ],
            [
              76.63178138249565,
              8.912429656765871
            ],
            [
              76.63178646954646,
              8.912445142942548
            ],
            [
              76.6317729632898,
              8.912450090189937
            ]
          ]
        ]
      }
    },
    {
      "type": "Feature",
      "properties": {
        "fid": 21,
        "id": 20,
        "room_no": "H212",
        "room_name": "Maths HOD",
        "building": "Chemical Block",
        "floor": 1,
        "type": "Office",
        "accessible": true
      },
      "geometry": {
        "type": "Polygon",
        "coordinates": [
          [
            [
              76.63178646954646,
              8.912445142942548
            ],
            [
              76.63181981195312,
              8.91243380449606
            ],
            [
              76.63182600656066,
              8.91243169795264
            ],
            [
              76.63183940583788,
              8.912427141383182
            ],
            [
              76.63182874020224,
              8.912398060489949
            ],
            [
              76.63176252593146,
              8.912420592813278
            ],
            [
              76.63176446756432,
              8.912426101883392
            ],
            [
              76.63176211949998,
              8.912426777772046
            ],
            [
              76.63176484434932,
              8.912434376483814
            ],
            [
              76.63178138249565,
              8.912429656765871
            ],
            [
              76.63178646954646,
              8.912445142942548
            ]
          ]
        ]
      }
    },
    {
      "type": "Feature",
      "properties": {
        "fid": 22,
        "id": 21,
        "room_no": null,
        "room_name": "H212A toilet",
        "building": "Chemical Block",
        "floor": 1,
        "type": null,
        "accessible": false
      },
      "geometry": {
        "type": "Polygon",
        "coordinates": [
          [
            [
              76.63182488481883,
              8.912449442287164
            ],
            [
              76.63183508747294,
              8.912445922610447
            ],
            [
              76.63183085070007,
              8.91243282500121
            ],
            [
              76.63182710754378,
              8.912434127780905
            ],
            [
              76.63182600656066,
              8.91243169795264
            ],
            [
              76.63181981195312,
              8.91243380449606
            ],
            [
              76.63182488481883,
              8.912449442287164
            ]
          ]
        ]
      }
    },
    {
      "type": "Feature",
      "properties": {
        "fid": 23,
        "id": 22,
        "room_no": "H213",
        "room_name": "Staff room",
        "building": "Chemical Block",
        "floor": 1,
        "type": "Staff Room",
        "accessible": true
      },
      "geometry": {
        "type": "Polygon",
        "coordinates": [
          [
            [
              76.63181358744967,
              8.912453031245894
            ],
            [
              76.63182167005925,
              8.912450270487943
            ],
            [
              76.63182211576294,
              8.912452666007827
            ],
            [
              76.63183998140036,
              8.912447197002068
            ],
            [
              76.63184601514008,
              8.912445349961477
            ],
            [
              76.6318535423441,
              8.912469162238066
            ],
            [
              76.63182159457831,
              8.912480336297186
            ],
            [
              76.63181346318703,
              8.912456816674483
            ],
            [
              76.63181466368647,
              8.912456343279036
            ],
            [
              76.63181358744967,
              8.912453031245894
            ]
          ]
        ]
      }
    },
    {
      "type": "Feature",
      "properties": {
        "fid": 24,
        "id": 23,
        "room_no": "H213A",
        "room_name": "Toilet",
        "building": "Chemical Block",
        "floor": 1,
        "type": "Toilet",
        "accessible": true
      },
      "geometry": {
        "type": "Polygon",
        "coordinates": [
          [
            [
              76.63183164161015,
              8.912432404561038
            ],
            [
              76.6318358310881,
              8.912445621959373
            ],
            [
              76.63183895864238,
              8.912444737469709
            ],
            [
              76.63183998140036,
              8.912447197002068
            ],
            [
              76.63184601514008,
              8.912445349961477
            ],
            [
              76.63184013379507,
              8.91243004733144
            ],
            [
              76.63183164161015,
              8.912432404561038
            ]
          ]
        ]
      }
    },
    {
      "type": "Feature",
      "properties": {
        "fid": 25,
        "id": 24,
        "room_no": "H210A",
        "room_name": null,
        "building": "Chemical Block",
        "floor": 1,
        "type": null,
        "accessible": true
      },
      "geometry": {
        "type": "Polygon",
        "coordinates": [
          [
            [
              76.63170106045618,
              8.912250930529812
            ],
            [
              76.63170356253865,
              8.912258146927753
            ],
            [
              76.63172475797387,
              8.912250963313207
            ],
            [
              76.63171897100021,
              8.912234563760077
            ],
            [
              76.63170047813556,
              8.912241516361956
            ],
            [
              76.63170327130823,
              8.912250524759909
            ],
            [
              76.63170106045618,
              8.912250930529812
            ]
          ]
        ]
      }
    }
  ]
}