{
"type": "FeatureCollection",
"name": "doors",
"crs": { "type": "name", "properties": { "name": "urn:ogc:def:crs:OGC:1.3:CRS84" } },
"features": [
{ "type": "Feature", "properties": { "fid": 1, "id": "DOOR_H107", "room_no": "H107", "room_name": "Instrument Room", "building": "Chemical Block", "floor": 0, "type": "Door", "accessible": true }, "geometry": { "type": "Point", "coordinates": [ 76.631575599956975, 8.912358256558074 ] } },
{ "type": "Feature", "properties": { "fid": 2, "id": "DOOR_H101", "room_no": "H101", "room_name": "Staff Room", "building": "Chemical Block", "floor": 0, "type": "Door", "accessible": true }, "geometry": { "type": "Point", "coordinates": [ 76.631597778507057, 8.912621705922092 ] } },
{ "type": "Feature", "properties": { "fid": 3, "id": "DOOR_H102", "room_no": "H102", "room_name": "Class Room", "building": "Chemical Block", "floor": 0, "type": "Door", "accessible": true }, "geometry": { "type": "Point", "coordinates": [ 76.631581468585679, 8.912575363123619 ] } },
{ "type": "Feature", "properties": { "fid": 4, "id": "DOOR_H104", "room_no": "H104", "room_name": "Chemical & Instrumental Analysis Lab", "building": "Chemical Block", "floor": 0, "type": "Door", "accessible": true }, "geometry": { "type": "Point", "coordinates": [ 76.631542895849691, 8.912465841078278 ] } },
{ "type": "Feature", "properties": { "fid": 5, "id": "DOOR_H106", "room_no": "H106", "room_name": "Toilet", "building": "Chemical Block", "floor": 0, "type": "Door", "accessible": true }, "geometry": { "type": "Point", "coordinates": [ 76.631529641011397, 8.912362810906407 ] } },
{ "type": "Feature", "properties": { "fid": 6, "id": "DOOR_H108", "room_no": "H108", "room_name": "Library", "building": "Chemical Block", "floor": 0, "type": "Door", "accessible": true }, "geometry": { "type": "Point", "coordinates": [ 76.631659574002342, 8.912329812248661 ] } },
{ "type": "Feature", "properties": { "fid": 7, "id": "DOOR_H109", "room_no": "H109", "room_name": "Staff Room", "building": "Chemical Block", "floor": 0, "type": "Door", "accessible": true }, "geometry": { "type": "Point", "coordinates": [ 76.63171400529734, 8.912311392287968 ] } },
{ "type": "Feature", "properties": { "fid": 8, "id": "DOOR_H110", "room_no": "H110", "room_name": "Class Room", "building": "Chemical Block", "floor": 0, "type": "Door", "accessible": true }, "geometry": { "type": "Point", "coordinates": [ 76.631723246190191, 8.912313564735213 ] } },
{ "type": "Feature", "properties": { "fid": 9, "id": "DOOR_H111", "room_no": "H111", "room_name": "Class Room", "building": "Chemical Block", "floor": 0, "type": "Door", "accessible": true }, "geometry": { "type": "Point", "coordinates": [ 76.631731020734321, 8.912335614848757 ] } },
{ "type": "Feature", "properties": { "fid": 10, "id": "DOOR_H114", "room_no": "H114", "room_name": "Heat Transfer Operations Lab", "building": "Chemical Block", "floor": 0, "type": "Door", "accessible": true }, "geometry": { "type": "Point", "coordinates": [ 76.631719326204347, 8.912485986999616 ] } },
{ "type": "Feature", "properties": { "fid": 11, "id": "DOOR_H115", "room_no": "H115", "room_name": "Particle Technology & Mineral Processing Lab", "building": "Chemical Block", "floor": 0, "type": "Door", "accessible": true }, "geometry": { "type": "Point", "coordinates": [ 76.631617462948853, 8.912520679578627 ] } },
{ "type": "Feature", "properties": { "fid": 12, "id": "DOOR_H116", "room_no": "H116", "room_name": "Chemical Store", "building": "Chemical Block", "floor": 0, "type": "Door", "accessible": true }, "geometry": { "type": "Point", "coordinates": [ 76.631602139156527, 8.912589721396664 ] } },
{ "type": "Feature", "properties": { "fid": 13, "id": "DOOR_H101A", "room_no": "H101A", "room_name": "Toilet", "building": "Chemical Block", "floor": 0, "type": "Door", "accessible": true }, "geometry": { "type": "Point", "coordinates": [ 76.631599473826213, 8.912635576539252 ] } },
{ "type": "Feature", "properties": { "fid": 14, "id": "DOOR_H102_2", "room_no": "H102", "room_name": "Class Room", "building": "Chemical Block", "floor": 0, "type": "Door", "accessible": true }, "geometry": { "type": "Point", "coordinates": [ 76.631591458925584, 8.912603712311235 ] } },
{ "type": "Feature", "properties": { "fid": 15, "id": "DOOR_H104_2", "room_no": "H104", "room_name": "Chemical & Instrumental Analysis Lab", "building": "Chemical Block", "floor": 0, "type": "Door", "accessible": true }, "geometry": { "type": "Point", "coordinates": [ 76.631491453660601, 8.912319476192703 ] } },
{ "type": "Feature", "properties": { "fid": 16, "id": "DOOR_H114_2", "room_no": "H114", "room_name": "Heat Transfer Operations Lab", "building": "Chemical Block", "floor": 0, "type": "Door", "accessible": true }, "geometry": { "type": "Point", "coordinates": [ 76.631837110220502, 8.912448480205487 ] } },
{ "type": "Feature", "properties": { "fid": 17, "id": "DOOR_H115_2", "room_no": "H115", "room_name": "Particle Technology & Mineral Processing Lab", "building": "Chemical Block", "floor": 0, "type": "Door", "accessible": true }, "geometry": { "type": "Point", "coordinates": [ 76.63169973988802, 8.912492431896542 ] } }
]
}
