{
"type": "FeatureCollection",
"name": "indoor_paths1",
"crs": { "type": "name", "properties": { "name": "urn:ogc:def:crs:OGC:1.3:CRS84" } },
"features": [
{ "type": "Feature", "properties": { "fid": null, "id": 26, "path_id": "CHEM_PATH_026", "building": "Chemical Block", "floor": 0, "type": "VerticalConnector", "accessible": true }, "geometry": { "type": "LineString", "coordinates": [ [ 76.631591618568109, 8.912534892503064 ], [ 76.631588452740374, 8.912524942970947 ] ] } },
{ "type": "Feature", "properties": { "fid": 1, "id": 1, "path_id": "CHEM_PATH_001", "building": "Chemical Block", "floor": 0, "type": "Entrance", "accessible": true }, "geometry": { "type": "LineString", "coordinates": [ [ 76.631489511535989, 8.912525104666102 ], [ 76.63156366879609, 8.912501344335798 ] ] } },
{ "type": "Feature", "properties": { "fid": 2, "id": 2, "path_id": "CHEM_PATH_002", "building": "Chemical Block", "floor": 0, "type": "DoorConnector", "accessible": true }, "geometry": { "type": "LineString", "coordinates": [ [ 76.63156366879609, 8.912501344335798 ], [ 76.631573866632806, 8.912530168433715 ], [ 76.631589112808967, 8.912573261615501 ], [ 76.631581468585679, 8.912575363123619 ] ] } },
{ "type": "Feature", "properties": { "fid": 3, "id": 3, "path_id": "CHEM_PATH_003", "building": "Chemical Block", "floor": 0, "type": "DoorConnector", "accessible": true }, "geometry": { "type": "LineString", "coordinates": [ [ 76.63156366879609, 8.912501344335798 ], [ 76.631551120114054, 8.912462988447514 ], [ 76.631542895849691, 8.912465841078278 ] ] } },
{ "type": "Feature", "properties": { "fid": null, "id": 27, "path_id": "CHEM_PATH_027", "building": "Chemical Block", "floor": 0, "type": "VerticalConnector", "accessible": true }, "geometry": { "type": "LineString", "coordinates": [ [ 76.631518446940945, 8.912343761980244 ], [ 76.631521189511261, 8.91235132212473 ], [ 76.631512700616653, 8.912354336803947 ] ] } },
{ "type": "Feature", "properties": { "fid": null, "id": 28, "path_id": "CHEM_PATH_028", "building": "Chemical Block", "floor": 0, "type": "StairConnector", "accessible": true }, "geometry": { "type": "LineString", "coordinates": [ [ 76.631782233318972, 8.912404977890366 ], [ 76.631751889181857, 8.912414218703157 ] ] } },
{ "type": "Feature", "properties": { "fid": 7, "id": 7, "path_id": "CHEM_PATH_007", "building": "Chemical Block", "floor": 0, "type": "DoorConnector", "accessible": true }, "geometry": { "type": "LineString", "coordinates": [ [ 76.631551120114054, 8.912462988447514 ], [ 76.631524446120139, 8.91238755349012 ], [ 76.631517268380946, 8.912367254598214 ], [ 76.631512700616653, 8.912354336803947 ], [ 76.631499250248268, 8.9123162986977 ], [ 76.631491453660601, 8.912319476192703 ] ] } },
{ "type": "Feature", "properties": { "fid": 8, "id": 8, "path_id": "CHEM_PATH_008", "building": "Chemical Block", "floor": 0, "type": "DoorConnector", "accessible": true }, "geometry": { "type": "LineString", "coordinates": [ [ 76.631517268380946, 8.912367254598214 ], [ 76.631529641011397, 8.912362810906407 ] ] } },
{ "type": "Feature", "properties": { "fid": 9, "id": 9, "path_id": "CHEM_PATH_009", "building": "Chemical Block", "floor": 0, "type": "DoorConnector", "accessible": true }, "geometry": { "type": "LineString", "coordinates": [ [ 76.631524446120139, 8.91238755349012 ], [ 76.631579157931142, 8.912368421265866 ], [ 76.631575599956975, 8.912358256558074 ] ] } },
{ "type": "Feature", "properties": { "fid": 10, "id": 10, "path_id": "CHEM_PATH_010", "building": "Chemical Block", "floor": 0, "type": "DoorConnector", "accessible": true }, "geometry": { "type": "LineString", "coordinates": [ [ 76.631579157931142, 8.912368421265866 ], [ 76.63166275683237, 8.912338697360553 ], [ 76.631659574002342, 8.912329812248661 ] ] } },
{ "type": "Feature", "properties": { "fid": 11, "id": 11, "path_id": "CHEM_PATH_011", "building": "Chemical Block", "floor": 0, "type": "DoorConnector", "accessible": true }, "geometry": { "type": "LineString", "coordinates": [ [ 76.63166275683237, 8.912338697360553 ], [ 76.631716995921806, 8.912319732743494 ], [ 76.631715684163268, 8.91231607442271 ], [ 76.63171400529734, 8.912311392287966 ] ] } },
{ "type": "Feature", "properties": { "fid": 12, "id": 12, "path_id": "CHEM_PATH_012", "building": "Chemical Block", "floor": 0, "type": "DoorConnector", "accessible": true }, "geometry": { "type": "LineString", "coordinates": [ [ 76.631715684163268, 8.91231607442271 ], [ 76.631723246190191, 8.912313564735213 ] ] } },
{ "type": "Feature", "properties": { "fid": 13, "id": 13, "path_id": "CHEM_PATH_013", "building": "Chemical Block", "floor": 0, "type": "DoorConnector", "accessible": true }, "geometry": { "type": "LineString", "coordinates": [ [ 76.631716995921806, 8.912319732743493 ], [ 76.631723813459729, 8.912338007940335 ], [ 76.631731020734321, 8.912335614848756 ] ] } },
{ "type": "Feature", "properties": { "fid": 14, "id": 14, "path_id": "CHEM_PATH_014", "building": "Chemical Block", "floor": 0, "type": "DoorConnector", "accessible": true }, "geometry": { "type": "LineString", "coordinates": [ [ 76.631723813459729, 8.912338007940335 ], [ 76.631751889181857, 8.912414218703157 ], [ 76.631761064490988, 8.912439124819816 ], [ 76.631769145702876, 8.912461061039052 ], [ 76.631716983743246, 8.912479953354854 ], [ 76.631719326204347, 8.912485986999616 ] ] } },
{ "type": "Feature", "properties": { "fid": 15, "id": 15, "path_id": "CHEM_PATH_015", "building": "Chemical Block", "floor": 0, "type": "DoorConnector", "accessible": true }, "geometry": { "type": "LineString", "coordinates": [ [ 76.631769145702876, 8.912461061039052 ], [ 76.63183402800945, 8.912439469819793 ], [ 76.631837110220502, 8.912448480205487 ] ] } },
{ "type": "Feature", "properties": { "fid": 16, "id": 16, "path_id": "CHEM_PATH_016", "building": "Chemical Block", "floor": 0, "type": "DoorConnector", "accessible": true }, "geometry": { "type": "LineString", "coordinates": [ [ 76.631716983743246, 8.912479953354854 ], [ 76.63169751905123, 8.912486616269574 ], [ 76.63169973988802, 8.912492431896542 ] ] } },
{ "type": "Feature", "properties": { "fid": 17, "id": 17, "path_id": "CHEM_PATH_017", "building": "Chemical Block", "floor": 0, "type": "DoorConnector", "accessible": true }, "geometry": { "type": "LineString", "coordinates": [ [ 76.63169751905123, 8.912486616269574 ], [ 76.631615391710511, 8.912515292103672 ], [ 76.631617462948853, 8.912520679578627 ] ] } },
{ "type": "Feature", "properties": { "fid": 19, "id": 19, "path_id": "CHEM_PATH_019", "building": "Chemical Block", "floor": 0, "type": "Entrance", "accessible": true }, "geometry": { "type": "LineString", "coordinates": [ [ 76.631761064490988, 8.912439124819816 ], [ 76.631825763082759, 8.912416667082104 ], [ 76.631837011277696, 8.912412762684593 ] ] } },
{ "type": "Feature", "properties": { "fid": 20, "id": 20, "path_id": "CHEM_PATH_020", "building": "Chemical Block", "floor": 0, "type": "Entrance", "accessible": true }, "geometry": { "type": "LineString", "coordinates": [ [ 76.63183402800945, 8.912439469819793 ], [ 76.631825763082759, 8.912416667082104 ] ] } },
{ "type": "Feature", "properties": { "fid": 21, "id": 21, "path_id": "CHEM_PATH_021", "building": "Chemical Block", "floor": 0, "type": "DoorConnector", "accessible": true }, "geometry": { "type": "LineString", "coordinates": [ [ 76.631615391710511, 8.912515292103672 ], [ 76.631588452740374, 8.912524942970947 ], [ 76.631573866632806, 8.912530168433715 ] ] } },
{ "type": "Feature", "properties": { "fid": null, "id": 22, "path_id": "CHEM_PATH_022", "building": "Chemical Block", "floor": 0, "type": "DoorConnector", "accessible": true }, "geometry": { "type": "LineString", "coordinates": [ [ 76.631589112808967, 8.912573261615503 ], [ 76.631595694845686, 8.912591979275648 ], [ 76.631602139156527, 8.912589721396662 ] ] } },
{ "type": "Feature", "properties": { "fid": null, "id": 23, "path_id": "CHEM_PATH_023", "building": "Chemical Block", "floor": 0, "type": "DoorConnector", "accessible": true }, "geometry": { "type": "LineString", "coordinates": [ [ 76.631595694845686, 8.912591979275648 ], [ 76.631598953299971, 8.912601137426313 ], [ 76.631591458925584, 8.912603712311235 ] ] } },
{ "type": "Feature", "properties": { "fid": null, "id": 24, "path_id": "CHEM_PATH_024", "building": "Chemical Block", "floor": 0, "type": "DoorConnector", "accessible": true }, "geometry": { "type": "LineString", "coordinates": [ [ 76.631598953299971, 8.912601137426313 ], [ 76.631605155461514, 8.912619514326421 ], [ 76.631597778507057, 8.912621705922092 ] ] } },
{ "type": "Feature", "properties": { "fid": null, "id": 25, "path_id": "CHEM_PATH_025", "building": "Chemical Block", "floor": 0, "type": "DoorConnector", "accessible": true }, "geometry": { "type": "LineString", "coordinates": [ [ 76.631597778507057, 8.912621705922092 ], [ 76.631590477423075, 8.912623897945467 ], [ 76.631595145690412, 8.912637320420068 ], [ 76.631599473826213, 8.912635576539252 ] ] } }
]
}
