{
"type": "FeatureCollection",
"name": "chemical_gf",
"crs": { "type": "name", "properties": { "name": "urn:ogc:def:crs:OGC:1.3:CRS84" } },
"features": [
{ "type": "Feature", "properties": { "fid": 3, "id": 3, "room_no": null, "name": "Main Corridor", "category": "Corridor", "floor": 0, "building": "Chemical Block", "department": "Chemical Engineering", "accessible": true, "remarks": "Main circulation corridor" }, "geometry": { "type": "Polygon", "coordinates": [ [ [ 76.63159964599987, 8.912627035301854 ], [ 76.63159524453549, 8.91261447457055 ], [ 76.631588914497712, 8.912596363581423 ], [ 76.631579365413529, 8.912569344162902 ], [ 76.631565087620032, 8.912528763580202 ], [ 76.631555063420222, 8.91250027262978 ], [ 76.631546780801102, 8.912476731627642 ], [ 76.631545294813577, 8.912472508128284 ], [ 76.63148907426492, 8.912312668098759 ], [ 76.631501791591774, 8.912308226946669 ], [ 76.631514627219289, 8.912344866449793 ], [ 76.631524327877912, 8.912342061511886 ], [ 76.631525274283618, 8.912343931470494 ], [ 76.631533555333661, 8.912341126532578 ], [ 76.631537340956541, 8.912352346284111 ], [ 76.631519359247889, 8.912358423649382 ], [ 76.631520246503257, 8.912360527352719 ], [ 76.631527758598622, 8.912357897723544 ], [ 76.631533318732238, 8.912372623646684 ], [ 76.631651956753032, 8.912332431110174 ], [ 76.631707723561377, 8.91231345698761 ], [ 76.631718900158432, 8.912309783430496 ], [ 76.631721564745007, 8.912308840526897 ], [ 76.631724988947354, 8.912318461206333 ], [ 76.631729135990753, 8.91233011130743 ], [ 76.6317326470691, 8.912340363823873 ], [ 76.631751672276948, 8.91239579359995 ], [ 76.631776160524964, 8.912387729404529 ], [ 76.631784678176444, 8.912411921990261 ], [ 76.631828804343201, 8.912396728579115 ], [ 76.631829395846736, 8.912398014175468 ], [ 76.631829869049625, 8.912397780430677 ], [ 76.631831880161755, 8.912404208412372 ], [ 76.631833772973224, 8.912403740922795 ], [ 76.631839688008952, 8.912420219929919 ], [ 76.631837795197526, 8.91242092116425 ], [ 76.63184601709726, 8.91244517218397 ], [ 76.631830283102232, 8.912451015802933 ], [ 76.631829573297921, 8.912448678355355 ], [ 76.631727412263373, 8.912483108815634 ], [ 76.631707486960025, 8.91248981743052 ], [ 76.631695532074616, 8.912493851940802 ], [ 76.631613560784032, 8.912522010870211 ], [ 76.63160929736658, 8.912523476670396 ], [ 76.631611663380895, 8.912530956501055 ], [ 76.631598650302251, 8.912535163905734 ], [ 76.631597822197236, 8.912533060203399 ], [ 76.631586347027849, 8.912536449501598 ], [ 76.631584483791599, 8.912532066788405 ], [ 76.631582383953855, 8.912532826458694 ], [ 76.631600179866339, 8.912584146772499 ], [ 76.631603507073407, 8.91259361342993 ], [ 76.63161340831634, 8.912622116924924 ], [ 76.63159964599987, 8.912627035301854 ] ], [ [ 76.631579160259292, 8.912517107126977 ], [ 76.631755280448772, 8.912457063948469 ], [ 76.631710917680635, 8.912330359661304 ], [ 76.631534708765685, 8.912390227552036 ], [ 76.631579160259292, 8.912517107126977 ] ] ] } },
{ "type": "Feature", "properties": { "fid": 4, "id": 1, "room_no": null, "name": "Central Courtyard", "category": "Courtyard", "floor": 0, "building": "Chemical Block", "department": "Chemical Engineering", "accessible": true, "remarks": "Open courtyard" }, "geometry": { "type": "Polygon", "coordinates": [ [ [ 76.631579160259292, 8.912517107126977 ], [ 76.631755280448772, 8.912457063948469 ], [ 76.631710917680635, 8.912330359661304 ], [ 76.631534708765685, 8.912390227552036 ], [ 76.631579160259292, 8.912517107126977 ] ] ] } },
{ "type": "Feature", "properties": { "fid": 5, "id": 1, "room_no": null, "name": "Staircase 1", "category": "Stair", "floor": 0, "building": "Chemical Block", "department": "Chemical Engineering", "accessible": true, "remarks": "Connects Ground Floor to First Floor" }, "geometry": { "type": "Polygon", "coordinates": [ [ [ 76.631601973812849, 8.912581160477686 ], [ 76.631626462060865, 8.91257274566934 ], [ 76.631611663380895, 8.912530956501055 ], [ 76.631598650302251, 8.91253516390573 ], [ 76.631597822197236, 8.912533060203399 ], [ 76.631586347027849, 8.912536449501598 ], [ 76.631601973812849, 8.912581160477686 ] ] ] } },
{ "type": "Feature", "properties": { "fid": 6, "id": 2, "room_no": null, "name": "Staircase 2", "category": "Stair", "floor": 0, "building": "Chemical Block", "department": "Chemical Engineering", "accessible": true, "remarks": "Connects Ground Floor to First Floor" }, "geometry": { "type": "Polygon", "coordinates": [ [ [ 76.631514627219289, 8.912344866449793 ], [ 76.631524327877912, 8.912342061511886 ], [ 76.631525274283618, 8.912343931470494 ], [ 76.631533555333661, 8.912341126532578 ], [ 76.631519891601116, 8.912302189755451 ], [ 76.631501791591774, 8.912308226946669 ], [ 76.631514627219289, 8.912344866449793 ] ] ] } },
{ "type": "Feature", "properties": { "fid": 7, "id": 3, "room_no": null, "name": "Staircase 1", "category": "Stair", "floor": -3, "building": "Chemical Block", "department": "Chemical Engineering", "accessible": true, "remarks": "Connects Ground Floor to First Floor" }, "geometry": { "type": "Polygon", "coordinates": [ [ [ 76.631820072271651, 8.912372269377205 ], [ 76.631776160524964, 8.912387729404529 ], [ 76.631784678176444, 8.912411921990261 ], [ 76.631828804343201, 8.912396728579111 ], [ 76.631820072271651, 8.912372269377205 ] ] ] } },
{ "type": "Feature", "properties": { "fid": 8, "id": 7, "room_no": "H101", "name": "Staff Room", "category": "Office", "floor": 0, "building": "Chemical Block", "department": "Chemical Engineering", "accessible": true, "remarks": "Faculty office" }, "geometry": { "type": "Polygon", "coordinates": [ [ [ 76.631600505655044, 8.912638556766119 ], [ 76.631598654896564, 8.912633211228135 ], [ 76.631596845727302, 8.912627775296464 ], [ 76.63159964599987, 8.912627035301851 ], [ 76.63159524453549, 8.91261447457055 ], [ 76.631592470450073, 8.912615498226213 ], [ 76.631591721828485, 8.912613312348871 ], [ 76.63152956960117, 8.912634678066711 ], [ 76.631538669512423, 8.912659528038498 ], [ 76.631600505655044, 8.912638556766119 ] ] ] } },
{ "type": "Feature", "properties": { "fid": 9, "id": 8, "room_no": "H102", "name": "Classroom", "category": "Classroom", "floor": 0, "building": "Chemical Block", "department": "Chemical Engineering", "accessible": true, "remarks": "Teaching classroom" }, "geometry": { "type": "Polygon", "coordinates": [ [ [ 76.631501151094227, 8.912553069235422 ], [ 76.6315634649647, 8.912531750949997 ], [ 76.631576736919982, 8.912570297402763 ], [ 76.631579365413529, 8.912569344162902 ], [ 76.631583557694398, 8.912581341836823 ], [ 76.631580796112559, 8.912582295076653 ], [ 76.631586086371726, 8.912597382561888 ], [ 76.631588914497712, 8.912596363581423 ], [ 76.631593044393313, 8.912608291404997 ], [ 76.631590199631304, 8.912609359690929 ], [ 76.63159090250376, 8.912611348346282 ], [ 76.631529082997204, 8.912632352490553 ], [ 76.631501151094227, 8.912553069235422 ] ] ] } },
{ "type": "Feature", "properties": { "fid": 10, "id": 9, "room_no": "H104", "name": "Chemical and Instrumental Analysis Lab", "category": "Laboratory", "floor": 0, "building": "Chemical Block", "department": "Chemical Engineering", "accessible": true, "remarks": "Laboratory" }, "geometry": { "type": "Polygon", "coordinates": [ [ [ 76.631545294813577, 8.912472508128284 ], [ 76.631542766136235, 8.912473428498048 ], [ 76.631543398305553, 8.912475236367221 ], [ 76.631481545526967, 8.912496602093132 ], [ 76.631425057869691, 8.91233448550776 ], [ 76.63148907426492, 8.91231266809876 ], [ 76.631493298885871, 8.912324755880721 ], [ 76.631491302561628, 8.912325479028684 ], [ 76.631505210287031, 8.912365515127396 ], [ 76.631538715261797, 8.912461167857783 ], [ 76.631540977762583, 8.912460510450787 ], [ 76.631545294813577, 8.912472508128284 ] ] ] } },
{ "type": "Feature", "properties": { "fid": 11, "id": 10, "room_no": "H106", "name": "Toilet", "category": "Toilet", "floor": 0, "building": "Chemical Block", "department": "Chemical Engineering", "accessible": true, "remarks": "Restroom" }, "geometry": { "type": "Polygon", "coordinates": [ [ [ 76.631527758598622, 8.912357897723544 ], [ 76.631540495317509, 8.912353665362998 ], [ 76.631522495127555, 8.912301401487728 ], [ 76.631542924178731, 8.912294301489005 ], [ 76.631565715546841, 8.91235949985176 ], [ 76.631534639433198, 8.912370347070041 ], [ 76.631533508182798, 8.91236686281208 ], [ 76.631531445314451, 8.912367520219249 ], [ 76.631527758598622, 8.912357897723544 ] ] ] } },
{ "type": "Feature", "properties": { "fid": 12, "id": 11, "room_no": "H107", "name": "Instrument Room", "category": "Laboratory", "floor": 0, "building": "Chemical Block", "department": "Chemical Engineering", "accessible": true, "remarks": "Instrument laboratory" }, "geometry": { "type": "Polygon", "coordinates": [ [ [ 76.631570872717688, 8.912359861425706 ], [ 76.631580554890164, 8.912356574389802 ], [ 76.63157988944873, 8.91235443781645 ], [ 76.631616621814359, 8.912342078561107 ], [ 76.631593996806572, 8.912276732278603 ], [ 76.631545020319123, 8.912294087831631 ], [ 76.631567678598984, 8.91235885887976 ], [ 76.631570007643901, 8.91235800425042 ], [ 76.631570872717688, 8.912359861425706 ] ] ] } },
{ "type": "Feature", "properties": { "fid": 13, "id": 12, "room_no": "H108", "name": "Library", "category": "Library", "floor": 0, "building": "Chemical Block", "department": "Chemical Engineering", "accessible": true, "remarks": "Department library" }, "geometry": { "type": "Polygon", "coordinates": [ [ [ 76.631651956753032, 8.912332431110174 ], [ 76.631651091679203, 8.912330195925596 ], [ 76.631618485050296, 8.912341503329801 ], [ 76.631596059674976, 8.912276518621216 ], [ 76.631649028810827, 8.912257881122994 ], [ 76.631671786906921, 8.912323621853227 ], [ 76.631667261905349, 8.912324936667709 ], [ 76.631667827530592, 8.912326974630151 ], [ 76.631651956753032, 8.912332431110174 ] ] ] } },
{ "type": "Feature", "properties": { "fid": 14, "id": 13, "room_no": "H109", "name": "Staff Room", "category": "Office", "floor": 0, "building": "Chemical Block", "department": "Chemical Engineering", "accessible": true, "remarks": "Faculty office" }, "geometry": { "type": "Polygon", "coordinates": [ [ [ 76.631718900158432, 8.912309783430496 ], [ 76.631718134900837, 8.912307482505051 ], [ 76.631720730122325, 8.912306627875596 ], [ 76.631697972026245, 8.912241347327482 ], [ 76.631650659142323, 8.912257519548948 ], [ 76.631673616870799, 8.91232293157562 ], [ 76.631706955485214, 8.912311426948664 ], [ 76.631707723561377, 8.91231345698761 ], [ 76.631718900158432, 8.912309783430496 ] ] ] } },
{ "type": "Feature", "properties": { "fid": 15, "id": 14, "room_no": "H110", "name": "Classroom", "category": "Classroom", "floor": 0, "building": "Chemical Block", "department": "Chemical Engineering", "accessible": true, "remarks": "Teaching classroom" }, "geometry": { "type": "Polygon", "coordinates": [ [ [ 76.631724988947354, 8.912318461206333 ], [ 76.631793762316619, 8.912295057507398 ], [ 76.631766911755889, 8.912217746401382 ], [ 76.631699968350503, 8.912240624179359 ], [ 76.631723558248325, 8.912308041301237 ], [ 76.631721564745007, 8.912308840526897 ], [ 76.631724988947354, 8.912318461206333 ] ] ] } },
{ "type": "Feature", "properties": { "fid": 16, "id": 16, "room_no": "H114", "name": "Heat Transfer Operations Lab", "category": "Laboratory", "floor": 0, "building": "Chemical Block", "department": "Chemical Engineering", "accessible": true, "remarks": "Laboratory" }, "geometry": { "type": "Polygon", "coordinates": [ [ [ 76.631913558406097, 8.912531932235696 ], [ 76.631902556441503, 8.912499587816315 ], [ 76.631869195645677, 8.912510807561031 ], [ 76.631868219664923, 8.912507914970631 ], [ 76.631870260351903, 8.9125073890451 ], [ 76.63186617897793, 8.912495205103442 ], [ 76.63186378338888, 8.912496081646021 ], [ 76.63184601709726, 8.91244517218397 ], [ 76.631830283102232, 8.912451015802933 ], [ 76.631728210793057, 8.912485212517891 ], [ 76.631727412263373, 8.912483108815634 ], [ 76.631715345592553, 8.912487403874392 ], [ 76.631716055396723, 8.912489595230882 ], [ 76.631713748533159, 8.912490296464957 ], [ 76.63174799658421, 8.912588293913563 ], [ 76.631913558406097, 8.912531932235696 ] ] ] } },
{ "type": "Feature", "properties": { "fid": 17, "id": 15, "room_no": "H111", "name": "Classroom", "category": "Classroom", "floor": 0, "building": "Chemical Block", "department": "Chemical Engineering", "accessible": true, "remarks": "Teaching classroom" }, "geometry": { "type": "Polygon", "coordinates": [ [ [ 76.6317326470691, 8.912340363823873 ], [ 76.631734599030537, 8.912339574935213 ], [ 76.631753231389851, 8.912392912570036 ], [ 76.631820086069851, 8.912369990974433 ], [ 76.631794444394316, 8.912297062599512 ], [ 76.631727722802637, 8.912319852718237 ], [ 76.631731050009662, 8.91232949469112 ], [ 76.631729135990753, 8.91233011130743 ], [ 76.6317326470691, 8.912340363823873 ] ] ] } },
{ "type": "Feature", "properties": { "fid": 18, "id": 17, "room_no": "H115", "name": "Particle Technology and Mineral Processing Lab", "category": "Laboratory", "floor": 0, "building": "Chemical Block", "department": "Chemical Engineering", "accessible": true, "remarks": "Laboratory" }, "geometry": { "type": "Polygon", "coordinates": [ [ [ 76.631707486960025, 8.91248981743052 ], [ 76.631708558090153, 8.912492312512898 ], [ 76.631711929659943, 8.912491085353272 ], [ 76.631745933715806, 8.912589017060995 ], [ 76.631646339318664, 8.912623070729893 ], [ 76.631612046904849, 8.912524766500733 ], [ 76.631614265042884, 8.912524065266723 ], [ 76.631613560784032, 8.912522010870211 ], [ 76.631625572001411, 8.912517913033922 ], [ 76.631626547982137, 8.912520016735977 ], [ 76.631696330604299, 8.912496262432896 ], [ 76.631695532074616, 8.912493851940802 ], [ 76.631707486960025, 8.91248981743052 ] ] ] } },
{ "type": "Feature", "properties": { "fid": 19, "id": 18, "room_no": "H116", "name": "Chemical Store", "category": "Store", "floor": 0, "building": "Chemical Block", "department": "Chemical Engineering", "accessible": true, "remarks": "Chemical storage" }, "geometry": { "type": "Polygon", "coordinates": [ [ [ 76.631603507073407, 8.91259361342993 ], [ 76.631605769574193, 8.912592780714704 ], [ 76.631619610755422, 8.912632093636802 ], [ 76.631644409538495, 8.912623503522635 ], [ 76.631627196787434, 8.912574855423296 ], [ 76.631600179866339, 8.912584146772499 ], [ 76.631603507073407, 8.91259361342993 ] ] ] } },
{ "type": "Feature", "properties": { "fid": 20, "id": 19, "room_no": "H101A", "name": "Toilet", "category": "Toilet", "floor": 0, "building": "Chemical Block", "department": "Chemical Engineering", "accessible": true, "remarks": "Staff toilet" }, "geometry": { "type": "Polygon", "coordinates": [ [ [ 76.631598654896564, 8.912633211228135 ], [ 76.631600983941496, 8.9126322251181 ], [ 76.631599519970408, 8.912627951974601 ], [ 76.631613693872353, 8.912623087165018 ], [ 76.631617220711775, 8.912633014006129 ], [ 76.631600505655044, 8.912638556766119 ], [ 76.631598654896564, 8.912633211228135 ] ] ] } },
{ "type": "Feature", "properties": { "fid": 21, "id": null, "room_no": null, "name": null, "category": null, "floor": null, "building": null, "department": null, "accessible": true, "remarks": null }, "geometry": { "type": "Polygon", "coordinates": [ [ [ 76.631565087620032, 8.912528763580202 ], [ 76.631546780801102, 8.912476731627642 ], [ 76.63154659519715, 8.91247679770877 ], [ 76.631482707276831, 8.912498596227499 ], [ 76.631482405055564, 8.912498667446574 ], [ 76.631483048315587, 8.912500683494484 ], [ 76.631480941084462, 8.912501406642098 ], [ 76.631480311687753, 8.912499560424326 ], [ 76.631479380069763, 8.912497325240766 ], [ 76.631445972184849, 8.912508671305291 ], [ 76.631465975229119, 8.912565093236218 ], [ 76.631499271222523, 8.912553747186262 ], [ 76.631497674163171, 8.912549671263896 ], [ 76.631500136296395, 8.912548849505347 ], [ 76.631500602105334, 8.912550887466532 ], [ 76.631564592614581, 8.912528938295189 ], [ 76.631565087620032, 8.912528763580202 ] ], [ [ 76.63149221754361, 8.912533745582913 ], [ 76.63149431368403, 8.912532989565015 ], [ 76.631497108537943, 8.912540484003221 ], [ 76.631494879309244, 8.912541535854187 ], [ 76.63149221754361, 8.912533745582913 ] ], [ [ 76.631483733165652, 8.912509651620491 ], [ 76.631485729489853, 8.912508829861856 ], [ 76.63148859088794, 8.912516291430212 ], [ 76.631486461475419, 8.912517080318489 ], [ 76.631483733165652, 8.912509651620491 ] ] ] } }
]
}
