{
"type": "FeatureCollection",
"name": "stairs",
"crs": { "type": "name", "properties": { "name": "urn:ogc:def:crs:OGC:1.3:CRS84" } },
"features": [
{ "type": "Feature", "properties": { "fid": 1, "name": "Top Staircase", "id": "CHEM_STAIR_01_GF", "building": "Chemical Block", "floor": 0, "type": "Stair", "accessible": true, "connects_to": "CHEM_STAIR_01_F1" }, "geometry": { "type": "Point", "coordinates": [ 76.631782233318972, 8.912404977890366 ] } },
{ "type": "Feature", "properties": { "fid": 2, "name": "Bottom Left Staircase", "id": "CHEM_STAIR_02_GF", "building": "Chemical Block", "floor": 0, "type": "Stair", "accessible": true, "connects_to": "CHEM_STAIR_02_F1" }, "geometry": { "type": "Point", "coordinates": [ 76.631591618568109, 8.912534892503064 ] } },
{ "type": "Feature", "properties": { "fid": 3, "name": "Bottom Right Staircase", "id": "CHEM_STAIR_03_GF", "building": "Chemical Block", "floor": 0, "type": "Stair", "accessible": true, "connects_to": "CHEM_STAIR_03_F1" }, "geometry": { "type": "Point", "coordinates": [ 76.631518446940945, 8.912343761980244 ] } }
]
}
