{
  "type": "FeatureCollection",
  "name": "doors",
  "crs": {
    "type": "name",
    "properties": {
      "name": "urn:ogc:def:crs:OGC:1.3:CRS84"
    }
  },
  "features": [
    {
      "type": "Feature",
      "properties": {
        "fid": 9,
        "id": "MECH_M409_F3_DOOR",
        "room_no": "M409",
        "room_name": "Class Room 4",
        "building": "Mechanical Block",
        "floor": 3,
        "type": "Door",
        "accessible": true
      },
      "geometry": {
        "type": "Point",
        "coordinates": [
          76.63194367533973,
          8.912920138704921
        ]
      }
    },
    {
      "type": "Feature",
      "properties": {
        "fid": 10,
        "id": "MECH_M408_F3_DOOR",
        "room_no": "M408",
        "room_name": "PG Electronics Classroom",
        "building": "Mechanical Block",
        "floor": 3,
        "type": "Door",
        "accessible": true
      },
      "geometry": {
        "type": "Point",
        "coordinates": [
          76.63193415564375,
          8.912891882781532
        ]
      }
    },
    {
      "type": "Feature",
      "properties": {
        "fid": 11,
        "id": "MECH_M407_F3_DOOR",
        "room_no": "M407",
        "room_name": "Class Room 5",
        "building": "Mechanical Block",
        "floor": 3,
        "type": "Door",
        "accessible": true
      },
      "geometry": {
        "type": "Point",
        "coordinates": [
          76.63192438180575,
          8.912862872523146
        ]
      }
    },
    {
      "type": "Feature",
      "properties": {
        "fid": 12,
        "id": "MECH_M406_F3_DOOR",
        "room_no": "M406",
        "room_name": "Class Room 6",
        "building": "Mechanical Block",
        "floor": 3,
        "type": "Door",
        "accessible": true
      },
      "geometry": {
        "type": "Point",
        "coordinates": [
          76.63189595307556,
          8.912778491655105
        ]
      }
    },
    {
      "type": "Feature",
      "properties": {
        "fid": 24,
        "id": "MECH_M405_F3_DOOR",
        "room_no": "M405",
        "room_name": "Class Room 7",
        "building": "Mechanical Block",
        "floor": 3,
        "type": "Door",
        "accessible": true
      },
      "geometry": {
        "type": "Point",
        "coordinates": [
          76.6318514252953,
          8.912682203379203
        ]
      }
    },
    {
      "type": "Feature",
      "properties": {
        "fid": 25,
        "id": "MECH_M404_F3_DOOR",
        "room_no": "M404",
        "room_name": "Class Room 8",
        "building": "Mechanical Block",
        "floor": 3,
        "type": "Door",
        "accessible": true
      },
      "geometry": {
        "type": "Point",
        "coordinates": [
          76.6318377870243,
          8.912686715599948
        ]
      }
    },
    {
      "type": "Feature",
      "properties": {
        "fid": 26,
        "id": "MECH_M403_F3_DOOR",
        "room_no": "M403",
        "room_name": "Class Room 9",
        "building": "Mechanical Block",
        "floor": 3,
        "type": "Door",
        "accessible": true
      },
      "geometry": {
        "type": "Point",
        "coordinates": [
          76.6317590216749,
          8.91271277510756
        ]
      }
    },
    {
      "type": "Feature",
      "properties": {
        "fid": 27,
        "id": "MECH_M402_F3_DOOR",
        "room_no": "M402",
        "room_name": "Research Scholars Conference Room",
        "building": "Mechanical Block",
        "floor": 3,
        "type": "Door",
        "accessible": true
      },
      "geometry": {
        "type": "Point",
        "coordinates": [
          76.63167981577872,
          8.912738980368141
        ]
      }
    },
    {
      "type": "Feature",
      "properties": {
        "fid": 28,
        "id": "MECH_M410_F3_DOOR",
        "room_no": "M410",
        "room_name": "Class Room",
        "building": "Mechanical Block",
        "floor": 3,
        "type": "Door",
        "accessible": true
      },
      "geometry": {
        "type": "Point",
        "coordinates": [
          76.63199965270495,
          8.912990879323855
        ]
      }
    },
    {
      "type": "Feature",
      "properties": {
        "fid": 29,
        "id": "MECH_M411_F3_DOOR",
        "room_no": "M411",
        "room_name": "Class Room",
        "building": "Mechanical Block",
        "floor": 3,
        "type": "Door",
        "accessible": true
      },
      "geometry": {
        "type": "Point",
        "coordinates": [
          76.63199390272369,
          8.91301795427061
        ]
      }
    },
    {
      "type": "Feature",
      "properties": {
        "fid": 30,
        "id": "MECH_M412_F3_DOOR",
        "room_no": "M412",
        "room_name": "Class Room",
        "building": "Mechanical Block",
        "floor": 3,
        "type": "Door",
        "accessible": true
      },
      "geometry": {
        "type": "Point",
        "coordinates": [
          76.63191275441693,
          8.913044869839775
        ]
      }
    },
    {
      "type": "Feature",
      "properties": {
        "fid": 31,
        "id": "MECH_M413_F3_DOOR",
        "room_no": "M413",
        "room_name": "Class Room",
        "building": "Mechanical Block",
        "floor": 3,
        "type": "Door",
        "accessible": true
      },
      "geometry": {
        "type": "Point",
        "coordinates": [
          76.6318349700295,
          8.913070669649933
        ]
      }
    }
  ]
}