{
  "type": "FeatureCollection",
  "name": "paths",
  "crs": {
    "type": "name",
    "properties": {
      "name": "urn:ogc:def:crs:OGC:1.3:CRS84"
    }
  },
  "features": [
    {
      "type": "Feature",
      "properties": {
        "fid": null,
        "id": "MECH_TF_PATH_001",
        "path_id": "MECH_TF_PATH_001",
        "building": "Mechanical Block",
        "floor": 3,
        "type": "StairConnector",
        "accessible": true
      },
      "geometry": {
        "type": "LineString",
        "coordinates": [
          [
            76.63188957141304,
            8.912780299787942
          ],
          [
            76.63187663299367,
            8.912740532751519
          ]
        ]
      }
    },
    {
      "type": "Feature",
      "properties": {
        "fid": null,
        "id": "MECH_TF_PATH_002",
        "path_id": "MECH_TF_PATH_002",
        "building": "Mechanical Block",
        "floor": 3,
        "type": "DoorConnector",
        "accessible": true
      },
      "geometry": {
        "type": "LineString",
        "coordinates": [
          [
            76.63187663299367,
            8.912740532751519
          ],
          [
            76.63186036314232,
            8.912690279694564
          ],
          [
            76.63185457847972,
            8.912691808186255
          ],
          [
            76.6318514252953,
            8.912682203379203
          ]
        ]
      }
    },
    {
      "type": "Feature",
      "properties": {
        "fid": null,
        "id": "MECH_TF_PATH_003",
        "path_id": "MECH_TF_PATH_003",
        "building": "Mechanical Block",
        "floor": 3,
        "type": "DoorConnector",
        "accessible": true
      },
      "geometry": {
        "type": "LineString",
        "coordinates": [
          [
            76.63185457847972,
            8.912691808186255
          ],
          [
            76.63184000273657,
            8.912696057100867
          ],
          [
            76.6318377870243,
            8.912686715599948
          ]
        ]
      }
    },
    {
      "type": "Feature",
      "properties": {
        "fid": null,
        "id": "MECH_TF_PATH_004",
        "path_id": "MECH_TF_PATH_004",
        "building": "Mechanical Block",
        "floor": 3,
        "type": "DoorConnector",
        "accessible": true
      },
      "geometry": {
        "type": "LineString",
        "coordinates": [
          [
            76.63184000273657,
            8.912696057100865
          ],
          [
            76.63176177466106,
            8.912720621636499
          ],
          [
            76.6317590216749,
            8.91271277510756
          ]
        ]
      }
    },
    {
      "type": "Feature",
      "properties": {
        "fid": null,
        "id": "MECH_TF_PATH_005",
        "path_id": "MECH_TF_PATH_005",
        "building": "Mechanical Block",
        "floor": 3,
        "type": "StairConnector",
        "accessible": true
      },
      "geometry": {
        "type": "LineString",
        "coordinates": [
          [
            76.63185950158379,
            8.912746296134461
          ],
          [
            76.63187663299367,
            8.912740532751519
          ]
        ]
      }
    },
    {
      "type": "Feature",
      "properties": {
        "fid": null,
        "id": "MECH_TF_PATH_006",
        "path_id": "MECH_TF_PATH_006",
        "building": "Mechanical Block",
        "floor": 3,
        "type": "StairConnector",
        "accessible": true
      },
      "geometry": {
        "type": "LineString",
        "coordinates": [
          [
            76.63193539242371,
            8.912968376264239
          ],
          [
            76.6319496397643,
            8.912963844634895
          ]
        ]
      }
    },
    {
      "type": "Feature",
      "properties": {
        "fid": null,
        "id": "MECH_TF_PATH_007",
        "path_id": "MECH_TF_PATH_007",
        "building": "Mechanical Block",
        "floor": 3,
        "type": "DoorConnector",
        "accessible": true
      },
      "geometry": {
        "type": "LineString",
        "coordinates": [
          [
            76.63176177466106,
            8.912720621636499
          ],
          [
            76.63168142757256,
            8.912746905651442
          ],
          [
            76.63167981577872,
            8.912738980368138
          ]
        ]
      }
    },
    {
      "type": "Feature",
      "properties": {
        "fid": null,
        "id": "MECH_TF_PATH_008",
        "path_id": "MECH_TF_PATH_008",
        "building": "Mechanical Block",
        "floor": 3,
        "type": "StairConnector",
        "accessible": true
      },
      "geometry": {
        "type": "LineString",
        "coordinates": [
          [
            76.6319496397643,
            8.912963844634895
          ],
          [
            76.63193642901825,
            8.912922663987949
          ]
        ]
      }
    },
    {
      "type": "Feature",
      "properties": {
        "fid": null,
        "id": "MECH_TF_PATH_009",
        "path_id": "MECH_TF_PATH_009",
        "building": "Mechanical Block",
        "floor": 3,
        "type": "DoorConnector",
        "accessible": true
      },
      "geometry": {
        "type": "LineString",
        "coordinates": [
          [
            76.63194367533971,
            8.912920138704921
          ],
          [
            76.63193642901825,
            8.912922663987949
          ]
        ]
      }
    },
    {
      "type": "Feature",
      "properties": {
        "fid": null,
        "id": "MECH_TF_PATH_010",
        "path_id": "MECH_TF_PATH_010",
        "building": "Mechanical Block",
        "floor": 3,
        "type": "DoorConnector",
        "accessible": true
      },
      "geometry": {
        "type": "LineString",
        "coordinates": [
          [
            76.6319496397643,
            8.912963844634895
          ],
          [
            76.63196130816365,
            8.912998702770613
          ],
          [
            76.63198534252916,
            8.912990954605773
          ],
          [
            76.63199819528967,
            8.912986629334165
          ],
          [
            76.63199965270495,
            8.912990879323855
          ]
        ]
      }
    },
    {
      "type": "Feature",
      "properties": {
        "fid": null,
        "id": "MECH_TF_PATH_011",
        "path_id": "MECH_TF_PATH_011",
        "building": "Mechanical Block",
        "floor": 3,
        "type": "DoorConnector",
        "accessible": true
      },
      "geometry": {
        "type": "LineString",
        "coordinates": [
          [
            76.63198534252916,
            8.912990954605773
          ],
          [
            76.63199021646557,
            8.913006796850356
          ],
          [
            76.63199390272369,
            8.91301795427061
          ]
        ]
      }
    },
    {
      "type": "Feature",
      "properties": {
        "fid": null,
        "id": "MECH_TF_PATH_012",
        "path_id": "MECH_TF_PATH_012",
        "building": "Mechanical Block",
        "floor": 3,
        "type": "DoorConnector",
        "accessible": true
      },
      "geometry": {
        "type": "LineString",
        "coordinates": [
          [
            76.63199021646557,
            8.913006796850356
          ],
          [
            76.63190937871765,
            8.913035829910944
          ],
          [
            76.63191275441693,
            8.913044869839775
          ]
        ]
      }
    },
    {
      "type": "Feature",
      "properties": {
        "fid": null,
        "id": "MECH_TF_PATH_013",
        "path_id": "MECH_TF_PATH_013",
        "building": "Mechanical Block",
        "floor": 3,
        "type": "DoorConnector",
        "accessible": true
      },
      "geometry": {
        "type": "LineString",
        "coordinates": [
          [
            76.63190937871765,
            8.913035829910944
          ],
          [
            76.63183059948803,
            8.9130617902759
          ],
          [
            76.6318349700295,
            8.913070669649933
          ]
        ]
      }
    },
    {
      "type": "Feature",
      "properties": {
        "fid": null,
        "id": "MECH_TF_PATH_014",
        "path_id": "MECH_TF_PATH_014",
        "building": "Mechanical Block",
        "floor": 3,
        "type": "DoorConnector",
        "accessible": true
      },
      "geometry": {
        "type": "LineString",
        "coordinates": [
          [
            76.63193642901825,
            8.912922663987949
          ],
          [
            76.63192741732392,
            8.912894268027149
          ],
          [
            76.63193415564375,
            8.912891882781532
          ]
        ]
      }
    },
    {
      "type": "Feature",
      "properties": {
        "fid": null,
        "id": "MECH_TF_PATH_015",
        "path_id": "MECH_TF_PATH_015",
        "building": "Mechanical Block",
        "floor": 3,
        "type": "DoorConnector",
        "accessible": true
      },
      "geometry": {
        "type": "LineString",
        "coordinates": [
          [
            76.63192741732392,
            8.912894268027149
          ],
          [
            76.63191758995153,
            8.912864807382435
          ],
          [
            76.63192438180575,
            8.912862872523146
          ]
        ]
      }
    },
    {
      "type": "Feature",
      "properties": {
        "fid": null,
        "id": "MECH_TF_PATH_016",
        "path_id": "MECH_TF_PATH_016",
        "building": "Mechanical Block",
        "floor": 3,
        "type": "VerticalConnector",
        "accessible": true
      },
      "geometry": {
        "type": "LineString",
        "coordinates": [
          [
            76.63191758995153,
            8.912864807382435
          ],
          [
            76.63191292440332,
            8.912851504172865
          ],
          [
            76.6318903095528,
            8.91285898246286
          ]
        ]
      }
    },
    {
      "type": "Feature",
      "properties": {
        "fid": null,
        "id": "MECH_TF_PATH_017",
        "path_id": "MECH_TF_PATH_017",
        "building": "Mechanical Block",
        "floor": 3,
        "type": "DoorConnector",
        "accessible": true
      },
      "geometry": {
        "type": "LineString",
        "coordinates": [
          [
            76.63191292440332,
            8.912851504172865
          ],
          [
            76.63188957141304,
            8.912780299787945
          ],
          [
            76.63189595307556,
            8.912778491655105
          ]
        ]
      }
    }
  ]
}