{
  "type": "FeatureCollection",
  "name": "rooms",
  "crs": {
    "type": "name",
    "properties": {
      "name": "urn:ogc:def:crs:OGC:1.3:CRS84"
    }
  },
  "features": [
    {
      "type": "Feature",
      "properties": {
        "fid": 10,
        "id": null,
        "room_no": "M406",
        "name": "Class Room 6",
        "category": "Classroom",
        "floor": 3,
        "building": "Mechanical Block",
        "department": "Mechanical Engineering",
        "accessible": true,
        "remarks": null
      },
      "geometry": {
        "type": "Polygon",
        "coordinates": [
          [
            [
              76.63187687769124,
              8.912714663699374
            ],
            [
              76.63189605007007,
              8.912770871272986
            ],
            [
              76.63189364998655,
              8.912771655729887
            ],
            [
              76.63189793569275,
              8.912784376370201
            ],
            [
              76.6319847667324,
              8.912756061033026
            ],
            [
              76.6319613066105,
              8.91268720721274
            ],
            [
              76.6319606201849,
              8.912684935411736
            ],
            [
              76.63187630103,
              8.912713017947796
            ],
            [
              76.63187687769124,
              8.912714663699374
            ]
          ]
        ]
      }
    },
    {
      "type": "Feature",
      "properties": {
        "fid": 12,
        "id": null,
        "room_no": "M407",
        "name": "Class Room 5",
        "category": "Classroom",
        "floor": 3,
        "building": "Mechanical Block",
        "department": "Mechanical Engineering",
        "accessible": true,
        "remarks": null
      },
      "geometry": {
        "type": "Polygon",
        "coordinates": [
          [
            [
              76.63192643637768,
              8.912868970809674
            ],
            [
              76.63192218931046,
              8.912856364858717
            ],
            [
              76.63192485102753,
              8.912855407340524
            ],
            [
              76.63190107079754,
              8.912786035930854
            ],
            [
              76.63198548090608,
              8.912758684842435
            ],
            [
              76.63201307197154,
              8.912840755257548
            ],
            [
              76.63192643637768,
              8.912868970809674
            ]
          ]
        ]
      }
    },
    {
      "type": "Feature",
      "properties": {
        "fid": 13,
        "id": null,
        "room_no": "M408",
        "name": "PG Electronics Classroom",
        "category": "Classroom",
        "floor": 3,
        "building": "Mechanical Block",
        "department": "Mechanical Engineering",
        "accessible": true,
        "remarks": null
      },
      "geometry": {
        "type": "Polygon",
        "coordinates": [
          [
            [
              76.63193615406699,
              8.912897814409554
            ],
            [
              76.63193846779315,
              8.912896981914093
            ],
            [
              76.63194289996896,
              8.912910359663494
            ],
            [
              76.63202740103945,
              8.912882807090549
            ],
            [
              76.63201381429622,
              8.91284275911989
            ],
            [
              76.63192915951788,
              8.912870556594315
            ],
            [
              76.63193447967133,
              8.91288419769809
            ],
            [
              76.63193187629378,
              8.912885117319485
            ],
            [
              76.63193615406699,
              8.912897814409554
            ]
          ]
        ]
      }
    },
    {
      "type": "Feature",
      "properties": {
        "fid": 14,
        "id": null,
        "room_no": "M409",
        "name": "Class Room 4",
        "category": "Classroom",
        "floor": 3,
        "building": "Mechanical Block",
        "department": "Mechanical Engineering",
        "accessible": true,
        "remarks": null
      },
      "geometry": {
        "type": "Polygon",
        "coordinates": [
          [
            [
              76.63194557529685,
              8.912925778069939
            ],
            [
              76.63194138187913,
              8.912913331360956
            ],
            [
              76.63202810651568,
              8.912884940370757
            ],
            [
              76.63205214974624,
              8.912955919701103
            ],
            [
              76.63196757729744,
              8.912983487001993
            ],
            [
              76.63194819045813,
              8.912925014375817
            ],
            [
              76.63194557529685,
              8.912925778069939
            ]
          ]
        ]
      }
    },
    {
      "type": "Feature",
      "properties": {
        "fid": 27,
        "id": "MECH_STAIR_02_F3_AREA",
        "room_no": null,
        "name": "Staircase 2",
        "category": "Stair",
        "floor": 3,
        "building": "Mechanical Block",
        "department": null,
        "accessible": true,
        "remarks": null
      },
      "geometry": {
        "type": "Polygon",
        "coordinates": [
          [
            [
              76.63194808108334,
              8.913006576954109
            ],
            [
              76.63190082794439,
              8.913022357329279
            ],
            [
              76.63188533994875,
              8.912975821838948
            ],
            [
              76.63193312885895,
              8.912961561538097
            ],
            [
              76.63194808108334,
              8.913006576954109
            ]
          ],
          [
            [
              76.63191168731603,
              8.913000857813833
            ],
            [
              76.63192556061922,
              8.912995921576872
            ],
            [
              76.63192118974395,
              8.912982002294822
            ],
            [
              76.63190690670143,
              8.912986673657972
            ],
            [
              76.63191168731603,
              8.913000857813833
            ]
          ]
        ]
      }
    },
    {
      "type": "Feature",
      "properties": {
        "fid": 28,
        "id": "MECH_STAIR_03_F3_AREA",
        "room_no": null,
        "name": "Staircase 3",
        "category": "Stair",
        "floor": 3,
        "building": "Mechanical Block",
        "department": null,
        "accessible": true,
        "remarks": null
      },
      "geometry": {
        "type": "Polygon",
        "coordinates": [
          [
            [
              76.63184709204747,
              8.912707821216326
            ],
            [
              76.63180018925485,
              8.912722784786746
            ],
            [
              76.63181557206597,
              8.91276900905983
            ],
            [
              76.63186203838413,
              8.9127541613098
            ],
            [
              76.63184709204747,
              8.912707821216326
            ]
          ],
          [
            [
              76.63182661984371,
              8.912747713747425
            ],
            [
              76.63182179456963,
              8.912733779800078
            ],
            [
              76.63183623407494,
              8.912729329187636
            ],
            [
              76.63184077624796,
              8.9127430203211
            ],
            [
              76.63182661984371,
              8.912747713747425
            ]
          ]
        ]
      }
    },
    {
      "type": "Feature",
      "properties": {
        "fid": 30,
        "id": "MECH_LIFT_01_F3_AREA",
        "room_no": null,
        "name": "Lift",
        "category": "Lift",
        "floor": 3,
        "building": "Mechanical Block",
        "department": null,
        "accessible": true,
        "remarks": null
      },
      "geometry": {
        "type": "Polygon",
        "coordinates": [
          [
            [
              76.63189314994756,
              8.912867226887542
            ],
            [
              76.63187518904466,
              8.912872934562706
            ],
            [
              76.6318690466049,
              8.912855223702365
            ],
            [
              76.63188724480332,
              8.912849508876759
            ],
            [
              76.63189314994756,
              8.912867226887542
            ]
          ]
        ]
      }
    },
    {
      "type": "Feature",
      "properties": {
        "fid": 39,
        "id": "MECH_F3_MAIN_CORRIDOR",
        "room_no": null,
        "name": "Main Corridor",
        "category": "Corridor",
        "floor": 3,
        "building": "Mechanical Block",
        "department": null,
        "accessible": true,
        "remarks": null
      },
      "geometry": {
        "type": "Polygon",
        "coordinates": [
          [
            [
              76.6316039070119,
              8.912683414964357
            ],
            [
              76.63162173337868,
              8.912677444483583
            ],
            [
              76.63164618592715,
              8.912750106799656
            ],
            [
              76.63167513040929,
              8.912740530521967
            ],
            [
              76.6316843337827,
              8.912737485587162
            ],
            [
              76.63175342920735,
              8.91271462537479
            ],
            [
              76.6317626957787,
              8.912711559530743
            ],
            [
              76.63183348225745,
              8.912688139831658
            ],
            [
              76.6318425880646,
              8.912685127176205
            ],
            [
              76.63184683330071,
              8.912683722640214
            ],
            [
              76.63185605469147,
              8.912680671743892
            ],
            [
              76.631923206421,
              8.912658454599395
            ],
            [
              76.6319348017546,
              8.912690914148556
            ],
            [
              76.63187358475423,
              8.91271114201182
            ],
            [
              76.63196609148034,
              8.912986495826914
            ],
            [
              76.63204434573953,
              8.912960545967188
            ],
            [
              76.63204911632438,
              8.912974838748237
            ],
            [
              76.63200650191196,
              8.912988658192004
            ],
            [
              76.63199449175643,
              8.912992552969744
            ],
            [
              76.63199147843547,
              8.912993530160696
            ],
            [
              76.63199944663948,
              8.913016115444137
            ],
            [
              76.63198751150736,
              8.91302007413285
            ],
            [
              76.63191926199185,
              8.913042711383442
            ],
            [
              76.63190679570384,
              8.913046846247596
            ],
            [
              76.63184126266083,
              8.913068582487035
            ],
            [
              76.63182890502266,
              8.913072681313508
            ],
            [
              76.63176392394519,
              8.913094234473483
            ],
            [
              76.63175842202546,
              8.913077202318567
            ],
            [
              76.63195577475162,
              8.913011823106308
            ],
            [
              76.63195378990623,
              8.913005851542941
            ],
            [
              76.63194854220053,
              8.913007954346341
            ],
            [
              76.63190326053834,
              8.912876122422992
            ],
            [
              76.63189672711209,
              8.912878460182725
            ],
            [
              76.63188353515883,
              8.912838724267232
            ],
            [
              76.63189002567168,
              8.912836965350447
            ],
            [
              76.63184516584992,
              8.91270158929122
            ],
            [
              76.63184501251531,
              8.912701016164124
            ],
            [
              76.63164990476287,
              8.91276323583611
            ],
            [
              76.63165130028955,
              8.912766954253838
            ],
            [
              76.63163393457243,
              8.912772914155756
            ],
            [
              76.6316039070119,
              8.912683414964357
            ]
          ]
        ]
      }
    },
    {
      "type": "Feature",
      "properties": {
        "fid": 40,
        "id": null,
        "room_no": "M402",
        "name": "Research Scholars Conference Room",
        "category": "Conference Room",
        "floor": 3,
        "building": "Mechanical Block",
        "department": "Mechanical Engineering",
        "accessible": true,
        "remarks": null
      },
      "geometry": {
        "type": "Polygon",
        "coordinates": [
          [
            [
              76.6316843337827,
              8.912737485587162
            ],
            [
              76.63168357420614,
              8.912735153039103
            ],
            [
              76.63168467546727,
              8.912734751529147
            ],
            [
              76.63166022340779,
              8.912662305735026
            ],
            [
              76.63162278266256,
              8.912674477126634
            ],
            [
              76.63164737921305,
              8.912746860276942
            ],
            [
              76.63167425137378,
              8.912738233417993
            ],
            [
              76.63167513040929,
              8.912740530521967
            ],
            [
              76.6316843337827,
              8.912737485587162
            ]
          ]
        ]
      }
    },
    {
      "type": "Feature",
      "properties": {
        "fid": 41,
        "id": null,
        "room_no": "M403",
        "name": "Class Room 9",
        "category": "Classroom",
        "floor": 3,
        "building": "Mechanical Block",
        "department": "Mechanical Engineering",
        "accessible": true,
        "remarks": null
      },
      "geometry": {
        "type": "Polygon",
        "coordinates": [
          [
            [
              76.63175342920735,
              8.91271462537479
            ],
            [
              76.6317626957787,
              8.912711559530743
            ],
            [
              76.6317619941951,
              8.912709440801688
            ],
            [
              76.63176337443971,
              8.912708918362213
            ],
            [
              76.63173905256113,
              8.912636679627974
            ],
            [
              76.63166207172907,
              8.91266170487513
            ],
            [
              76.63168638363811,
              8.912734074303993
            ],
            [
              76.63175266271907,
              8.91271196870966
            ],
            [
              76.63175342920735,
              8.91271462537479
            ]
          ]
        ]
      }
    },
    {
      "type": "Feature",
      "properties": {
        "fid": 42,
        "id": null,
        "room_no": "M404",
        "name": "Class Room 8",
        "category": "Classroom",
        "floor": 3,
        "building": "Mechanical Block",
        "department": "Mechanical Engineering",
        "accessible": true,
        "remarks": null
      },
      "geometry": {
        "type": "Polygon",
        "coordinates": [
          [
            [
              76.63176520250477,
              8.912708050112576
            ],
            [
              76.63183261470536,
              8.912685845230044
            ],
            [
              76.63183348225745,
              8.912688139831658
            ],
            [
              76.6318425880646,
              8.912685127176205
            ],
            [
              76.63184195592933,
              8.912683022346254
            ],
            [
              76.63184328230648,
              8.912682320995307
            ],
            [
              76.63181885370291,
              8.912610737541076
            ],
            [
              76.6317411501118,
              8.912635997747516
            ],
            [
              76.63176520250477,
              8.912708050112576
            ]
          ]
        ]
      }
    },
    {
      "type": "Feature",
      "properties": {
        "fid": 43,
        "id": null,
        "room_no": "M405",
        "name": "Class Room 7",
        "category": "Classroom",
        "floor": 3,
        "building": "Mechanical Block",
        "department": "Mechanical Engineering",
        "accessible": true,
        "remarks": null
      },
      "geometry": {
        "type": "Polygon",
        "coordinates": [
          [
            [
              76.63184683330071,
              8.912683722640214
            ],
            [
              76.6318461358579,
              8.912681716147125
            ],
            [
              76.63184470174588,
              8.912682059675205
            ],
            [
              76.6318208357294,
              8.91261009321563
            ],
            [
              76.63189879629748,
              8.912584749468266
            ],
            [
              76.63192269341013,
              8.912656103292932
            ],
            [
              76.63185540602865,
              8.912678329920494
            ],
            [
              76.63185605469147,
              8.912680671743892
            ],
            [
              76.63184683330071,
              8.912683722640214
            ]
          ]
        ]
      }
    },
    {
      "type": "Feature",
      "properties": {
        "fid": 44,
        "id": null,
        "room_no": "M410",
        "name": "Class Room",
        "category": "Classroom",
        "floor": 3,
        "building": "Mechanical Block",
        "department": "Mechanical Engineering",
        "accessible": true,
        "remarks": null
      },
      "geometry": {
        "type": "Polygon",
        "coordinates": [
          [
            [
              76.63200650191196,
              8.912988658192004
            ],
            [
              76.63200724102497,
              8.912990730215713
            ],
            [
              76.63205836917214,
              8.912973953179701
            ],
            [
              76.63208854389462,
              8.913064925320503
            ],
            [
              76.63202525493529,
              8.913085510373087
            ],
            [
              76.63199449175643,
              8.912992552969744
            ],
            [
              76.63200650191196,
              8.912988658192004
            ]
          ]
        ]
      }
    },
    {
      "type": "Feature",
      "properties": {
        "fid": 45,
        "id": null,
        "room_no": "M411",
        "name": "Class Room",
        "category": "Classroom",
        "floor": 3,
        "building": "Mechanical Block",
        "department": "Mechanical Engineering",
        "accessible": true,
        "remarks": null
      },
      "geometry": {
        "type": "Polygon",
        "coordinates": [
          [
            [
              76.63199944663948,
              8.913016115444137
            ],
            [
              76.63198751150736,
              8.91302007413285
            ],
            [
              76.63198835792085,
              8.913022617816166
            ],
            [
              76.63192191482602,
              8.913044440529347
            ],
            [
              76.63194476576133,
              8.913111689880376
            ],
            [
              76.6320229000133,
              8.9130862763233
            ],
            [
              76.63199944663948,
              8.913016115444137
            ]
          ]
        ]
      }
    },
    {
      "type": "Feature",
      "properties": {
        "fid": 46,
        "id": null,
        "room_no": "M412",
        "name": "Class Room",
        "category": "Classroom",
        "floor": 3,
        "building": "Mechanical Block",
        "department": "Mechanical Engineering",
        "accessible": true,
        "remarks": null
      },
      "geometry": {
        "type": "Polygon",
        "coordinates": [
          [
            [
              76.63191926199185,
              8.913042711383442
            ],
            [
              76.63190679570384,
              8.913046846247596
            ],
            [
              76.63190767179435,
              8.913049249114877
            ],
            [
              76.63184423882693,
              8.913070070434962
            ],
            [
              76.63186683846716,
              8.913137036121626
            ],
            [
              76.63194231984689,
              8.913112485426272
            ],
            [
              76.63191926199185,
              8.913042711383442
            ]
          ]
        ]
      }
    },
    {
      "type": "Feature",
      "properties": {
        "fid": 47,
        "id": null,
        "room_no": "M413",
        "name": "Class Room",
        "category": "Classroom",
        "floor": 3,
        "building": "Mechanical Block",
        "department": "Mechanical Engineering",
        "accessible": true,
        "remarks": null
      },
      "geometry": {
        "type": "Polygon",
        "coordinates": [
          [
            [
              76.63178742213702,
              8.91316286667745
            ],
            [
              76.63176475184684,
              8.913096232508238
            ],
            [
              76.63182966294427,
              8.913074821038272
            ],
            [
              76.63182890502266,
              8.913072681313508
            ],
            [
              76.63184126266083,
              8.913068582487035
            ],
            [
              76.63186414244728,
              8.913137913015515
            ],
            [
              76.63178742213702,
              8.91316286667745
            ]
          ]
        ]
      }
    }
  ]
}