{
"type": "FeatureCollection",
"name": "pathsS",
"crs": { "type": "name", "properties": { "name": "urn:ogc:def:crs:OGC:1.3:CRS84" } },
"features": [
{ "type": "Feature", "properties": { "fid": null, "id": null, "path_id": null, "building": null, "floor": null, "type": "Corridor", "accessible": true }, "geometry": { "type": "LineString", "coordinates": [ [ 76.631949639764301, 8.912963844634895 ], [ 76.631936429018253, 8.912922663987949 ] ] } },
{ "type": "Feature", "properties": { "fid": null, "id": null, "path_id": null, "building": null, "floor": null, "type": "StairConnector", "accessible": true }, "geometry": { "type": "LineString", "coordinates": [ [ 76.631945828049041, 8.913000454192257 ], [ 76.631960773253482, 8.912995872843544 ], [ 76.631949639764301, 8.912963844634895 ] ] } },
{ "type": "Feature", "properties": { "fid": null, "id": null, "path_id": null, "building": null, "floor": null, "type": "DoorConnector", "accessible": true }, "geometry": { "type": "LineString", "coordinates": [ [ 76.631972853903363, 8.913006745160871 ], [ 76.631965364930238, 8.913008933002622 ], [ 76.631960773253482, 8.912995872843544 ] ] } },
{ "type": "Feature", "properties": { "fid": null, "id": null, "path_id": null, "building": null, "floor": null, "type": "Corridor", "accessible": true }, "geometry": { "type": "LineString", "coordinates": [ [ 76.631889571413041, 8.912780299787942 ], [ 76.631876632993666, 8.912740532751519 ] ] } },
{ "type": "Feature", "properties": { "fid": null, "id": null, "path_id": null, "building": null, "floor": 1, "type": "StairConnector", "accessible": true }, "geometry": { "type": "LineString", "coordinates": [ [ 76.63185950158379, 8.912746296134461 ], [ 76.631876632993666, 8.912740532751519 ] ] } },
{ "type": "Feature", "properties": { "fid": null, "id": null, "path_id": null, "building": null, "floor": 1, "type": "StairConnector", "accessible": true }, "geometry": { "type": "LineString", "coordinates": [ [ 76.631935392423713, 8.912968376264239 ], [ 76.631949639764301, 8.912963844634895 ] ] } },
{ "type": "Feature", "properties": { "fid": null, "id": null, "path_id": null, "building": null, "floor": null, "type": "StairConnector", "accessible": true }, "geometry": { "type": "LineString", "coordinates": [ [ 76.631849390822495, 8.912714784199261 ], [ 76.631863405535285, 8.912710540979491 ], [ 76.631876632993666, 8.912740532751519 ] ] } },
{ "type": "Feature", "properties": { "fid": null, "id": null, "path_id": null, "building": null, "floor": null, "type": "DoorConnector", "accessible": true }, "geometry": { "type": "LineString", "coordinates": [ [ 76.631863405535285, 8.912710540979491 ], [ 76.63185892114187, 8.912695646834663 ], [ 76.631867136320082, 8.912692946129766 ] ] } },
{ "type": "Feature", "properties": { "fid": null, "id": null, "path_id": null, "building": null, "floor": 1, "type": "DoorConnector", "accessible": true }, "geometry": { "type": "LineString", "coordinates": [ [ 76.631943675339713, 8.912920138704921 ], [ 76.631936429018253, 8.912922663987949 ] ] } },
{ "type": "Feature", "properties": { "fid": null, "id": null, "path_id": null, "building": null, "floor": null, "type": "DoorConnector", "accessible": true }, "geometry": { "type": "LineString", "coordinates": [ [ 76.63185892114187, 8.912695646834663 ], [ 76.631831185235612, 8.912614008146145 ], [ 76.631839862424442, 8.912611486966059 ] ] } },
{ "type": "Feature", "properties": { "fid": null, "id": null, "path_id": null, "building": null, "floor": null, "type": "DoorConnector", "accessible": true }, "geometry": { "type": "LineString", "coordinates": [ [ 76.631819384833747, 8.912629708540969 ], [ 76.631816328510695, 8.912618748026288 ], [ 76.631831185235612, 8.912614008146145 ] ] } },
{ "type": "Feature", "properties": { "fid": null, "id": null, "path_id": null, "building": null, "floor": null, "type": "DoorConnector", "accessible": true }, "geometry": { "type": "LineString", "coordinates": [ [ 76.631816328510695, 8.912618748026288 ], [ 76.631736763784616, 8.912645869922882 ], [ 76.63173909128615, 8.912655929287586 ] ] } },
{ "type": "Feature", "properties": { "fid": null, "id": null, "path_id": null, "building": null, "floor": 1, "type": "DoorConnector", "accessible": true }, "geometry": { "type": "LineString", "coordinates": [ [ 76.631736763784616, 8.912645869922882 ], [ 76.631656827709534, 8.912673005290246 ], [ 76.631660108730429, 8.912681721913458 ] ] } },
{ "type": "Feature", "properties": { "fid": null, "id": null, "path_id": null, "building": null, "floor": 1, "type": "DoorConnector", "accessible": true }, "geometry": { "type": "LineString", "coordinates": [ [ 76.631656827709534, 8.912673005290246 ], [ 76.631614686881946, 8.912688001214738 ], [ 76.631640235943692, 8.912759055986532 ], [ 76.631632122767854, 8.912762464560064 ] ] } },
{ "type": "Feature", "properties": { "fid": null, "id": null, "path_id": null, "building": null, "floor": 1, "type": "DoorConnector", "accessible": true }, "geometry": { "type": "LineString", "coordinates": [ [ 76.631640235943692, 8.912759055986532 ], [ 76.631685234752268, 8.912888122377135 ], [ 76.631675135515124, 8.912889855285304 ] ] } },
{ "type": "Feature", "properties": { "fid": null, "id": null, "path_id": null, "building": null, "floor": 1, "type": "DoorConnector", "accessible": true }, "geometry": { "type": "LineString", "coordinates": [ [ 76.631685234752268, 8.912888122377135 ], [ 76.631699123988199, 8.912928920459661 ], [ 76.631682403537994, 8.912933927188462 ], [ 76.631658612587643, 8.912940545111111 ], [ 76.631654420438693, 8.912925192369782 ] ] } },
{ "type": "Feature", "properties": { "fid": null, "id": 16, "path_id": null, "building": "Mechanical Block", "floor": 1, "type": "DoorConnector", "accessible": true }, "geometry": { "type": "LineString", "coordinates": [ [ 76.631936429018253, 8.912922663987949 ], [ 76.631927417323922, 8.912894268027149 ], [ 76.631934155643748, 8.912891882781532 ] ] } },
{ "type": "Feature", "properties": { "fid": null, "id": 17, "path_id": null, "building": "Mechanical Block", "floor": 1, "type": "DoorConnector", "accessible": true }, "geometry": { "type": "LineString", "coordinates": [ [ 76.631927417323922, 8.912894268027149 ], [ 76.631917589951527, 8.912864807382435 ], [ 76.631924381805746, 8.912862872523146 ] ] } },
{ "type": "Feature", "properties": { "fid": null, "id": 18, "path_id": null, "building": "Mechanical Block", "floor": 1, "type": "VerticalConnector", "accessible": true }, "geometry": { "type": "LineString", "coordinates": [ [ 76.631917589951527, 8.912864807382435 ], [ 76.631912924403323, 8.912851504172865 ], [ 76.631890309552801, 8.912858982462859 ] ] } },
{ "type": "Feature", "properties": { "fid": null, "id": 19, "path_id": null, "building": "Mechanical Block", "floor": 1, "type": "DoorConnector", "accessible": true }, "geometry": { "type": "LineString", "coordinates": [ [ 76.631912924403323, 8.912851504172865 ], [ 76.631889571413041, 8.912780299787945 ], [ 76.631895953075556, 8.912778491655105 ] ] } },
{ "type": "Feature", "properties": { "fid": null, "id": null, "path_id": null, "building": null, "floor": 1, "type": "StairConnector", "accessible": true }, "geometry": { "type": "LineString", "coordinates": [ [ 76.631688277452639, 8.912952729395608 ], [ 76.631682403537994, 8.912933927188464 ] ] } },
{ "type": "Feature", "properties": { "fid": null, "id": null, "path_id": null, "building": null, "floor": 1, "type": "StairConnector", "accessible": true }, "geometry": { "type": "LineString", "coordinates": [ [ 76.631662320886932, 8.912961607544828 ], [ 76.631658612587643, 8.912940545111111 ] ] } },
{ "type": "Feature", "properties": { "fid": null, "id": null, "path_id": null, "building": null, "floor": 1, "type": "DoorConnector", "accessible": true }, "geometry": { "type": "LineString", "coordinates": [ [ 76.631699123988199, 8.912928920459661 ], [ 76.631725893204987, 8.913004655082911 ], [ 76.631714689910567, 8.913006551304292 ] ] } },
{ "type": "Feature", "properties": { "fid": null, "id": null, "path_id": null, "building": null, "floor": 1, "type": "DoorConnector", "accessible": true }, "geometry": { "type": "LineString", "coordinates": [ [ 76.631725893204987, 8.91300465508291 ], [ 76.631747313784174, 8.913068898780971 ], [ 76.63173646486571, 8.913071684409925 ] ] } },
{ "type": "Feature", "properties": { "fid": null, "id": null, "path_id": null, "building": null, "floor": 1, "type": "DoorConnector", "accessible": true }, "geometry": { "type": "LineString", "coordinates": [ [ 76.63173646486571, 8.913071684409925 ], [ 76.63169013728951, 8.913084672622793 ] ] } },
{ "type": "Feature", "properties": { "fid": null, "id": null, "path_id": null, "building": null, "floor": 1, "type": "DoorConnector", "accessible": true }, "geometry": { "type": "LineString", "coordinates": [ [ 76.631747313784174, 8.913068898780971 ], [ 76.631754751231952, 8.913091718867676 ], [ 76.631744261514811, 8.913095007330398 ] ] } },
{ "type": "Feature", "properties": { "fid": null, "id": null, "path_id": null, "building": null, "floor": 1, "type": "DoorConnector", "accessible": true }, "geometry": { "type": "LineString", "coordinates": [ [ 76.631754751231952, 8.913091718867676 ], [ 76.631776429902189, 8.9131568197544 ], [ 76.63181681225727, 8.913144766507825 ], [ 76.631814033795749, 8.913136850310289 ] ] } },
{ "type": "Feature", "properties": { "fid": null, "id": null, "path_id": null, "building": null, "floor": 1, "type": "DoorConnector", "accessible": true }, "geometry": { "type": "LineString", "coordinates": [ [ 76.63181681225727, 8.913144766507825 ], [ 76.631894328694372, 8.913119281926518 ], [ 76.631892824596918, 8.91311127487538 ] ] } },
{ "type": "Feature", "properties": { "fid": null, "id": null, "path_id": null, "building": null, "floor": 1, "type": "DoorConnector", "accessible": true }, "geometry": { "type": "LineString", "coordinates": [ [ 76.631894328694372, 8.913119281926516 ], [ 76.631974178531522, 8.913093391571199 ], [ 76.631972338719962, 8.913085464648914 ] ] } },
{ "type": "Feature", "properties": { "fid": null, "id": null, "path_id": null, "building": null, "floor": 1, "type": "DoorConnector", "accessible": true }, "geometry": { "type": "LineString", "coordinates": [ [ 76.631974178531522, 8.913093391571199 ], [ 76.631990336095313, 8.913088083729724 ], [ 76.632000045516946, 8.913087454025382 ] ] } },
{ "type": "Feature", "properties": { "fid": null, "id": null, "path_id": null, "building": null, "floor": 1, "type": "Corridor", "accessible": true }, "geometry": { "type": "LineString", "coordinates": [ [ 76.631990336095313, 8.913088083729724 ], [ 76.631965364930238, 8.913008933002622 ] ] } }
]
}
