{
  "type": "FeatureCollection",
  "name": "rooms",
  "crs": {
    "type": "name",
    "properties": {
      "name": "urn:ogc:def:crs:OGC:1.3:CRS84"
    }
  },
  "features": [
    {
      "type": "Feature",
      "properties": {
        "fid": 1,
        "id": null,
        "room_no": null,
        "name": "Internal Ramp",
        "category": "Ramp",
        "floor": 1,
        "building": "Mechanical Block",
        "department": "Mechanical Engineering",
        "accessible": true,
        "remarks": null
      },
      "geometry": {
        "type": "Polygon",
        "coordinates": [
          [
            [
              76.63175061418914,
              8.913114184667
            ],
            [
              76.63175876041883,
              8.913111546725538
            ],
            [
              76.63175434920176,
              8.913098462419915
            ],
            [
              76.63174631688987,
              8.913101156969322
            ],
            [
              76.63174623641336,
              8.913100912996574
            ],
            [
              76.63175061418914,
              8.913114184667
            ]
          ]
        ]
      }
    },
    {
      "type": "Feature",
      "properties": {
        "fid": 2,
        "id": null,
        "room_no": null,
        "name": "Internal Stair 1",
        "category": "Stair",
        "floor": 1,
        "building": "Mechanical Block",
        "department": "Mechanical Engineering",
        "accessible": true,
        "remarks": null
      },
      "geometry": {
        "type": "Polygon",
        "coordinates": [
          [
            [
              76.63175876041883,
              8.913111546725538
            ],
            [
              76.63176677837968,
              8.913109079630209
            ],
            [
              76.631762456378,
              8.913095769377746
            ],
            [
              76.63175434920176,
              8.913098462419915
            ],
            [
              76.63175876041883,
              8.913111546725538
            ]
          ]
        ]
      }
    },
    {
      "type": "Feature",
      "properties": {
        "fid": 3,
        "id": null,
        "room_no": null,
        "name": "Internal Stair 2",
        "category": "Stair",
        "floor": 1,
        "building": "Mechanical Block",
        "department": "Mechanical Engineering",
        "accessible": true,
        "remarks": null
      },
      "geometry": {
        "type": "Polygon",
        "coordinates": [
          [
            [
              76.63165877103933,
              8.912841822176144
            ],
            [
              76.63167487384362,
              8.912836513251756
            ],
            [
              76.63167046823874,
              8.912823671401966
            ],
            [
              76.63165468335838,
              8.91282884251777
            ],
            [
              76.63165877103933,
              8.912841822176144
            ]
          ]
        ]
      }
    },
    {
      "type": "Feature",
      "properties": {
        "fid": 4,
        "id": null,
        "room_no": null,
        "name": "Main Corridor",
        "category": "Corridor",
        "floor": 1,
        "building": "Mechanical Block",
        "department": "Mechanical Engineering",
        "accessible": true,
        "remarks": null
      },
      "geometry": {
        "type": "Polygon",
        "coordinates": [
          [
            [
              76.63165147621142,
              8.913008144100372
            ],
            [
              76.63166783280522,
              8.913002782792793
            ],
            [
              76.63165454612805,
              8.912963279137866
            ],
            [
              76.6316568795924,
              8.91296254083069
            ],
            [
              76.63166635970732,
              8.912959541326185
            ],
            [
              76.63166622571059,
              8.912958648627548
            ],
            [
              76.63168311359033,
              8.912953186677711
            ],
            [
              76.63168346936725,
              8.91295448024194
            ],
            [
              76.6316931865596,
              8.912950941762652
            ],
            [
              76.63169578276542,
              8.912949996364004
            ],
            [
              76.63171249899457,
              8.912999997849804
            ],
            [
              76.63171676675019,
              8.913012763534114
            ],
            [
              76.6317341004193,
              8.91306461189357
            ],
            [
              76.63173835211462,
              8.91307732953616
            ],
            [
              76.631742178993,
              8.91308877646876
            ],
            [
              76.63174623641336,
              8.913100912996574
            ],
            [
              76.631762456378,
              8.913095769377746
            ],
            [
              76.63167487384362,
              8.912836513251756
            ],
            [
              76.63165877103931,
              8.912841822176144
            ],
            [
              76.63167301191365,
              8.912883622077674
            ],
            [
              76.6316773353155,
              8.912896312152307
            ],
            [
              76.63168393872269,
              8.912915694511188
            ],
            [
              76.6316581265736,
              8.912923999876861
            ],
            [
              76.63164984482123,
              8.91292666462904
            ],
            [
              76.631626678046,
              8.912934118814043
            ],
            [
              76.63165147621142,
              8.913008144100372
            ]
          ]
        ]
      }
    },
    {
      "type": "Feature",
      "properties": {
        "fid": 5,
        "id": null,
        "room_no": "M201",
        "name": "Faculty Room",
        "category": "Office",
        "floor": 1,
        "building": "Mechanical Block",
        "department": "Mechanical Engineering",
        "accessible": true,
        "remarks": null
      },
      "geometry": {
        "type": "Polygon",
        "coordinates": [
          [
            [
              76.63166340619955,
              8.912863230050323
            ],
            [
              76.63164038382432,
              8.912870717994156
            ],
            [
              76.63162817745828,
              8.912874688070266
            ],
            [
              76.63160971806663,
              8.912880691920098
            ],
            [
              76.63159629205273,
              8.912840128599798
            ],
            [
              76.63159177647414,
              8.912841624057727
            ],
            [
              76.63154576392195,
              8.912704916744325
            ],
            [
              76.63160351346635,
              8.912685961794871
            ],
            [
              76.63162719655095,
              8.9127561856582
            ],
            [
              76.63162964110822,
              8.91275516299964
            ],
            [
              76.63163393413988,
              8.912767793994334
            ],
            [
              76.63163131171036,
              8.912768720334256
            ],
            [
              76.63166340619955,
              8.912863230050323
            ]
          ]
        ]
      }
    },
    {
      "type": "Feature",
      "properties": {
        "fid": 6,
        "id": null,
        "room_no": "M202",
        "name": "Faculty Room",
        "category": "Office",
        "floor": 1,
        "building": "Mechanical Block",
        "department": "Mechanical Engineering",
        "accessible": true,
        "remarks": null
      },
      "geometry": {
        "type": "Polygon",
        "coordinates": [
          [
            [
              76.63165273257317,
              8.912764393305991
            ],
            [
              76.63168983481296,
              8.912752284332466
            ],
            [
              76.63166554296821,
              8.91267994730316
            ],
            [
              76.63165533410961,
              8.912683281118559
            ],
            [
              76.631655933242,
              8.912685312941464
            ],
            [
              76.63162894799734,
              8.912694141541134
            ],
            [
              76.63165273257317,
              8.912764393305991
            ]
          ]
        ]
      }
    },
    {
      "type": "Feature",
      "properties": {
        "fid": 7,
        "id": null,
        "room_no": "M203",
        "name": "Class Room 9",
        "category": "Classroom",
        "floor": 1,
        "building": "Mechanical Block",
        "department": "Mechanical Engineering",
        "accessible": true,
        "remarks": null
      },
      "geometry": {
        "type": "Polygon",
        "coordinates": [
          [
            [
              76.63169191421923,
              8.912751605681365
            ],
            [
              76.63176810365191,
              8.912726739908377
            ],
            [
              76.63174422511786,
              8.912654252778085
            ],
            [
              76.6317341625031,
              8.91265753883619
            ],
            [
              76.63173477120557,
              8.912659599261518
            ],
            [
              76.63166833876315,
              8.912681442791024
            ],
            [
              76.63169191421923,
              8.912751605681365
            ]
          ]
        ]
      }
    },
    {
      "type": "Feature",
      "properties": {
        "fid": 8,
        "id": null,
        "room_no": "M204",
        "name": "Class Room 8",
        "category": "Classroom",
        "floor": 1,
        "building": "Mechanical Block",
        "department": "Mechanical Engineering",
        "accessible": true,
        "remarks": null
      },
      "geometry": {
        "type": "Polygon",
        "coordinates": [
          [
            [
              76.63182408800292,
              8.91262817266898
            ],
            [
              76.63181404279226,
              8.912631453043808
            ],
            [
              76.63181473556808,
              8.9126338916242
            ],
            [
              76.63174713594837,
              8.912655803509557
            ],
            [
              76.63177073519849,
              8.912725881056437
            ],
            [
              76.63184821476372,
              8.912700433755642
            ],
            [
              76.63182408800292,
              8.91262817266898
            ]
          ]
        ]
      }
    },
    {
      "type": "Feature",
      "properties": {
        "fid": 9,
        "id": null,
        "room_no": "M205",
        "name": "Class Room 7",
        "category": "Classroom",
        "floor": 1,
        "building": "Mechanical Block",
        "department": "Mechanical Engineering",
        "accessible": true,
        "remarks": null
      },
      "geometry": {
        "type": "Polygon",
        "coordinates": [
          [
            [
              76.63186854017401,
              8.912697139031087
            ],
            [
              76.63192933099668,
              8.912677362786454
            ],
            [
              76.6318987915044,
              8.912586954506502
            ],
            [
              76.6318381797626,
              8.912606461345813
            ],
            [
              76.63184170102731,
              8.912616978336683
            ],
            [
              76.63184403827618,
              8.912616392801578
            ],
            [
              76.63186749221464,
              8.912685897576072
            ],
            [
              76.63186508409933,
              8.912686816746152
            ],
            [
              76.63186854017401,
              8.912697139031087
            ]
          ]
        ]
      }
    },
    {
      "type": "Feature",
      "properties": {
        "fid": 10,
        "id": null,
        "room_no": "M206",
        "name": "Class Room 6",
        "category": "Classroom",
        "floor": 1,
        "building": "Mechanical Block",
        "department": "Mechanical Engineering",
        "accessible": true,
        "remarks": null
      },
      "geometry": {
        "type": "Polygon",
        "coordinates": [
          [
            [
              76.63189793569275,
              8.912784376370201
            ],
            [
              76.6319847667324,
              8.912756061033026
            ],
            [
              76.6319613066105,
              8.91268720721274
            ],
            [
              76.63187687769124,
              8.912714663699374
            ],
            [
              76.63189605007007,
              8.912770871272986
            ],
            [
              76.63189364998655,
              8.912771655729887
            ],
            [
              76.63189793569275,
              8.912784376370201
            ]
          ]
        ]
      }
    },
    {
      "type": "Feature",
      "properties": {
        "fid": 11,
        "id": null,
        "room_no": "M206A",
        "name": "Gents Toilet",
        "category": "Toilet",
        "floor": 1,
        "building": "Mechanical Block",
        "department": "Mechanical Engineering",
        "accessible": true,
        "remarks": null
      },
      "geometry": {
        "type": "Polygon",
        "coordinates": [
          [
            [
              76.63192484178808,
              8.912578433937934
            ],
            [
              76.6319009093184,
              8.912586490291066
            ],
            [
              76.63190464445518,
              8.912596377868526
            ],
            [
              76.63191695270054,
              8.912592436437057
            ],
            [
              76.63191590108879,
              8.91258877581813
            ],
            [
              76.63191748236265,
              8.912588236250116
            ],
            [
              76.63191874746659,
              8.912592857751376
            ],
            [
              76.6319047230503,
              8.912597478256577
            ],
            [
              76.6319082072036,
              8.912607539452319
            ],
            [
              76.63192102372952,
              8.912603523557873
            ],
            [
              76.63191995962067,
              8.912600241106018
            ],
            [
              76.63192115810573,
              8.912599689191827
            ],
            [
              76.63192268682037,
              8.912604682622481
            ],
            [
              76.63190847725822,
              8.912609107870965
            ],
            [
              76.63191217007088,
              8.91261923258183
            ],
            [
              76.63192483127798,
              8.912615162463874
            ],
            [
              76.63192346278011,
              8.912611582481373
            ],
            [
              76.6319251852647,
              8.912611176181702
            ],
            [
              76.63192667944962,
              8.912616054927495
            ],
            [
              76.63191237892549,
              8.912620681669829
            ],
            [
              76.63192105014144,
              8.912646208178069
            ],
            [
              76.63193517176826,
              8.912641197096049
            ],
            [
              76.63193565988752,
              8.912642776333547
            ],
            [
              76.63192158999026,
              8.912647497585105
            ],
            [
              76.63193263860101,
              8.912677730680757
            ],
            [
              76.63194897533904,
              8.912672480616369
            ],
            [
              76.63194950392625,
              8.912673808157589
            ],
            [
              76.63195640426584,
              8.912671610382532
            ],
            [
              76.63192484178808,
              8.912578433937934
            ]
          ]
        ]
      }
    },
    {
      "type": "Feature",
      "properties": {
        "fid": 12,
        "id": null,
        "room_no": "M207",
        "name": "Class Room 5",
        "category": "Classroom",
        "floor": 1,
        "building": "Mechanical Block",
        "department": "Mechanical Engineering",
        "accessible": true,
        "remarks": null
      },
      "geometry": {
        "type": "Polygon",
        "coordinates": [
          [
            [
              76.63192643637768,
              8.912868970809674
            ],
            [
              76.63192218931046,
              8.912856364858717
            ],
            [
              76.63192485102753,
              8.912855407340524
            ],
            [
              76.63190107079754,
              8.912786035930854
            ],
            [
              76.63198548090608,
              8.912758684842435
            ],
            [
              76.63201307197154,
              8.912840755257548
            ],
            [
              76.63192643637768,
              8.912868970809674
            ]
          ]
        ]
      }
    },
    {
      "type": "Feature",
      "properties": {
        "fid": 13,
        "id": null,
        "room_no": "M208",
        "name": "Faculty",
        "category": "Office",
        "floor": 1,
        "building": "Mechanical Block",
        "department": "Mechanical Engineering",
        "accessible": true,
        "remarks": null
      },
      "geometry": {
        "type": "Polygon",
        "coordinates": [
          [
            [
              76.63193615406699,
              8.912897814409554
            ],
            [
              76.63193846779315,
              8.912896981914093
            ],
            [
              76.63194289996896,
              8.912910359663494
            ],
            [
              76.63202740103945,
              8.912882807090549
            ],
            [
              76.63201381429622,
              8.91284275911989
            ],
            [
              76.63192915951788,
              8.912870556594315
            ],
            [
              76.63193447967133,
              8.91288419769809
            ],
            [
              76.63193187629378,
              8.912885117319485
            ],
            [
              76.63193615406699,
              8.912897814409554
            ]
          ]
        ]
      }
    },
    {
      "type": "Feature",
      "properties": {
        "fid": 14,
        "id": null,
        "room_no": "M209",
        "name": "Library",
        "category": "Library",
        "floor": 1,
        "building": "Mechanical Block",
        "department": "Mechanical Engineering",
        "accessible": true,
        "remarks": null
      },
      "geometry": {
        "type": "Polygon",
        "coordinates": [
          [
            [
              76.63194557529685,
              8.912925778069939
            ],
            [
              76.63194138187913,
              8.912913331360956
            ],
            [
              76.63202810651568,
              8.912884940370757
            ],
            [
              76.63205214974624,
              8.912955919701103
            ],
            [
              76.63196757729744,
              8.912983487001993
            ],
            [
              76.63194819045813,
              8.912925014375817
            ],
            [
              76.63194557529685,
              8.912925778069939
            ]
          ]
        ]
      }
    },
    {
      "type": "Feature",
      "properties": {
        "fid": 15,
        "id": null,
        "room_no": "M210",
        "name": "Class Room 3",
        "category": "Classroom",
        "floor": 1,
        "building": "Mechanical Block",
        "department": "Mechanical Engineering",
        "accessible": true,
        "remarks": null
      },
      "geometry": {
        "type": "Polygon",
        "coordinates": [
          [
            [
              76.63197490521395,
              8.913012833764773
            ],
            [
              76.63197730241137,
              8.913012199068492
            ],
            [
              76.6320007642094,
              8.913081813806345
            ],
            [
              76.63199850750927,
              8.913082888984045
            ],
            [
              76.63200194502,
              8.913093092040075
            ],
            [
              76.63206251363148,
              8.913073391794764
            ],
            [
              76.6320318406884,
              8.912982578468513
            ],
            [
              76.63197142247876,
              8.913002496473295
            ],
            [
              76.63197490521395,
              8.913012833764773
            ]
          ]
        ]
      }
    },
    {
      "type": "Feature",
      "properties": {
        "fid": 16,
        "id": null,
        "room_no": "M211",
        "name": "Class Room 2",
        "category": "Classroom",
        "floor": 1,
        "building": "Mechanical Block",
        "department": "Mechanical Engineering",
        "accessible": true,
        "remarks": null
      },
      "geometry": {
        "type": "Polygon",
        "coordinates": [
          [
            [
              76.63197763644679,
              8.91308374501057
            ],
            [
              76.6319672437367,
              8.91308711847683
            ],
            [
              76.63196646908774,
              8.913084682658056
            ],
            [
              76.631898643609,
              8.913106935515637
            ],
            [
              76.63187549238354,
              8.913036967372745
            ],
            [
              76.63195324324568,
              8.913011797866494
            ],
            [
              76.63197763644679,
              8.91308374501057
            ]
          ]
        ]
      }
    },
    {
      "type": "Feature",
      "properties": {
        "fid": 17,
        "id": null,
        "room_no": "M212",
        "name": "Class Room 1",
        "category": "Classroom",
        "floor": 1,
        "building": "Mechanical Block",
        "department": "Mechanical Engineering",
        "accessible": true,
        "remarks": null
      },
      "geometry": {
        "type": "Polygon",
        "coordinates": [
          [
            [
              76.63189771733926,
              8.913109686694831
            ],
            [
              76.63188754339376,
              8.913112989150024
            ],
            [
              76.6318867816388,
              8.913110533587188
            ],
            [
              76.63182038393553,
              8.913132586896609
            ],
            [
              76.63179684357604,
              8.913062805666637
            ],
            [
              76.63187353903113,
              8.91303765606804
            ],
            [
              76.63189771733926,
              8.913109686694831
            ]
          ]
        ]
      }
    },
    {
      "type": "Feature",
      "properties": {
        "fid": 18,
        "id": null,
        "room_no": "M213",
        "name": "M.Tech Lecture Room",
        "category": "Classroom",
        "floor": 1,
        "building": "Mechanical Block",
        "department": "Mechanical Engineering",
        "accessible": true,
        "remarks": null
      },
      "geometry": {
        "type": "Polygon",
        "coordinates": [
          [
            [
              76.63181897295814,
              8.913135247061943
            ],
            [
              76.63180874569822,
              8.913138566822722
            ],
            [
              76.63180801251919,
              8.913136338183062
            ],
            [
              76.63178110479714,
              8.913145266872123
            ],
            [
              76.63175773080084,
              8.913075636877899
            ],
            [
              76.63179506067517,
              8.913063434911148
            ],
            [
              76.63181897295814,
              8.913135247061943
            ]
          ]
        ]
      }
    },
    {
      "type": "Feature",
      "properties": {
        "fid": 19,
        "id": null,
        "room_no": "M214",
        "name": "Faculty Room",
        "category": "Office",
        "floor": 1,
        "building": "Mechanical Block",
        "department": "Mechanical Engineering",
        "accessible": true,
        "remarks": null
      },
      "geometry": {
        "type": "Polygon",
        "coordinates": [
          [
            [
              76.631742178993,
              8.91308877646876
            ],
            [
              76.63174631688987,
              8.913101156969322
            ],
            [
              76.63174376943178,
              8.913102087167298
            ],
            [
              76.631768884536,
              8.913175092065464
            ],
            [
              76.63171035829949,
              8.913194123087731
            ],
            [
              76.63168164758541,
              8.913108113706434
            ],
            [
              76.631742178993,
              8.91308877646876
            ]
          ]
        ]
      }
    },
    {
      "type": "Feature",
      "properties": {
        "fid": 20,
        "id": null,
        "room_no": "M215",
        "name": "HOD Room",
        "category": "Office",
        "floor": 1,
        "building": "Mechanical Block",
        "department": "Mechanical Engineering",
        "accessible": true,
        "remarks": null
      },
      "geometry": {
        "type": "Polygon",
        "coordinates": [
          [
            [
              76.63173835211462,
              8.91307732953616
            ],
            [
              76.6317358160476,
              8.913078008447783
            ],
            [
              76.63173895050323,
              8.913087356696455
            ],
            [
              76.63169556707624,
              8.913101495531137
            ],
            [
              76.63169103510083,
              8.91308745427862
            ],
            [
              76.63168870812714,
              8.913080244701414
            ],
            [
              76.63168794732444,
              8.913077887534302
            ],
            [
              76.6316730924067,
              8.913082726725705
            ],
            [
              76.6316633316001,
              8.913054344643617
            ],
            [
              76.6316680330975,
              8.913052963075371
            ],
            [
              76.63165313962445,
              8.91300965832962
            ],
            [
              76.63170706367067,
              8.912992232467708
            ],
            [
              76.63170970958146,
              8.913000807940485
            ],
            [
              76.63171249899457,
              8.912999997849804
            ],
            [
              76.63171676675019,
              8.913012763534114
            ],
            [
              76.63171430983654,
              8.913013643600895
            ],
            [
              76.63173156728043,
              8.913065543471573
            ],
            [
              76.6317341004193,
              8.91306461189357
            ],
            [
              76.63173835211462,
              8.91307732953616
            ]
          ]
        ]
      }
    },
    {
      "type": "Feature",
      "properties": {
        "fid": 21,
        "id": null,
        "room_no": "M215A",
        "name": "Toilet",
        "category": "Toilet",
        "floor": 1,
        "building": "Mechanical Block",
        "department": "Mechanical Engineering",
        "accessible": true,
        "remarks": null
      },
      "geometry": {
        "type": "Polygon",
        "coordinates": [
          [
            [
              76.63168870812714,
              8.913080244701414
            ],
            [
              76.63169103510083,
              8.91308745427862
            ],
            [
              76.63168863180672,
              8.913088287503276
            ],
            [
              76.63169343866672,
              8.913101915592632
            ],
            [
              76.63168080747029,
              8.913106385709028
            ],
            [
              76.63167385514804,
              8.913084888233268
            ],
            [
              76.63168870812714,
              8.913080244701414
            ]
          ]
        ]
      }
    },
    {
      "type": "Feature",
      "properties": {
        "fid": 22,
        "id": null,
        "room_no": "M201A",
        "name": "Faculty",
        "category": "Office",
        "floor": 1,
        "building": "Mechanical Block",
        "department": "Mechanical Engineering",
        "accessible": true,
        "remarks": null
      },
      "geometry": {
        "type": "Polygon",
        "coordinates": [
          [
            [
              76.6316581265736,
              8.912923999876861
            ],
            [
              76.63164984482123,
              8.91292666462904
            ],
            [
              76.63164916181681,
              8.912923980270765
            ],
            [
              76.63162701516546,
              8.912931583618834
            ],
            [
              76.63161669156358,
              8.912901544757661
            ],
            [
              76.63163813942687,
              8.912894736581396
            ],
            [
              76.63163750390527,
              8.912893617285125
            ],
            [
              76.63161608778509,
              8.912900247611034
            ],
            [
              76.63161338632386,
              8.912891983374061
            ],
            [
              76.63163148808829,
              8.912886242734107
            ],
            [
              76.63163078364343,
              8.91288446960165
            ],
            [
              76.63161295191526,
              8.912890257281363
            ],
            [
              76.63161013402602,
              8.91288238536757
            ],
            [
              76.63162690680791,
              8.912876550756543
            ],
            [
              76.63162717967253,
              8.912877881948758
            ],
            [
              76.63162900361165,
              8.912877282775174
            ],
            [
              76.63162817745828,
              8.912874688070266
            ],
            [
              76.63164038382432,
              8.912870717994156
            ],
            [
              76.63164099591496,
              8.912872556116607
            ],
            [
              76.63164729660416,
              8.912891477231346
            ],
            [
              76.6316581265736,
              8.912923999876861
            ]
          ]
        ]
      }
    },
    {
      "type": "Feature",
      "properties": {
        "fid": 23,
        "id": null,
        "room_no": "M201B",
        "name": "Faculty",
        "category": "Office",
        "floor": 1,
        "building": "Mechanical Block",
        "department": "Mechanical Engineering",
        "accessible": true,
        "remarks": null
      },
      "geometry": {
        "type": "Polygon",
        "coordinates": [
          [
            [
              76.6316773353155,
              8.912896312152307
            ],
            [
              76.63167491935783,
              8.912896925826686
            ],
            [
              76.63168052361304,
              8.912914406271703
            ],
            [
              76.6316589539945,
              8.912921376618048
            ],
            [
              76.63164875214781,
              8.912891175585571
            ],
            [
              76.63164729660416,
              8.912891477231346
            ],
            [
              76.63164099591496,
              8.912872556116607
            ],
            [
              76.63166382238782,
              8.912864459993916
            ],
            [
              76.63166974973095,
              8.912882730241574
            ],
            [
              76.6316564818734,
              8.912887387448102
            ],
            [
              76.63165717566396,
              8.912888700274685
            ],
            [
              76.63167301191365,
              8.912883622077674
            ],
            [
              76.6316773353155,
              8.912896312152307
            ]
          ]
        ]
      }
    },
    {
      "type": "Feature",
      "properties": {
        "fid": 25,
        "id": null,
        "room_no": null,
        "name": "Ladies Toilet",
        "category": "Toilet",
        "floor": 1,
        "building": "Mechanical Block",
        "department": "Mechanical Engineering",
        "accessible": true,
        "remarks": null
      },
      "geometry": {
        "type": "Polygon",
        "coordinates": [
          [
            [
              76.63208871413701,
              8.913064869948306
            ],
            [
              76.63206509450124,
              8.913072552353867
            ],
            [
              76.63206165946143,
              8.913062036596395
            ],
            [
              76.63207358257478,
              8.913058153729995
            ],
            [
              76.63207484318343,
              8.913061490783113
            ],
            [
              76.63207660624492,
              8.913060972695028
            ],
            [
              76.63207471533197,
              8.913055967115335
            ],
            [
              76.63206067976304,
              8.913060765655882
            ],
            [
              76.63205760477084,
              8.913050694245392
            ],
            [
              76.63207021884632,
              8.913046840052997
            ],
            [
              76.63207119615585,
              8.913049944376247
            ],
            [
              76.63207301748633,
              8.913049619818358
            ],
            [
              76.63207116897074,
              8.913044896693872
            ],
            [
              76.63205698512077,
              8.91304948602445
            ],
            [
              76.63205394459017,
              8.913039741531595
            ],
            [
              76.63206626210359,
              8.913035468918848
            ],
            [
              76.63206728181048,
              8.913038855697565
            ],
            [
              76.63206926990219,
              8.913038376809206
            ],
            [
              76.6320671406961,
              8.913033146339185
            ],
            [
              76.63205332222161,
              8.913038028542365
            ],
            [
              76.63205010166689,
              8.913028252689399
            ],
            [
              76.6320623662385,
              8.913024016699143
            ],
            [
              76.6320634388872,
              8.91302736685534
            ],
            [
              76.6320653740371,
              8.913026924589595
            ],
            [
              76.63206349638705,
              8.91302210469971
            ],
            [
              76.63204948462548,
              8.913026769852959
            ],
            [
              76.63203370153437,
              8.91297888419169
            ],
            [
              76.63205699522202,
              8.912970909495991
            ],
            [
              76.63208871413701,
              8.913064869948306
            ]
          ]
        ]
      }
    },
    {
      "type": "Feature",
      "properties": {
        "fid": 26,
        "id": null,
        "room_no": null,
        "name": "Staircase 1",
        "category": "Stair",
        "floor": 1,
        "building": "Mechanical Block",
        "department": "Mechanical Engineering",
        "accessible": true,
        "remarks": null
      },
      "geometry": {
        "type": "Polygon",
        "coordinates": [
          [
            [
              76.63166635970732,
              8.912959541326185
            ],
            [
              76.63167669288602,
              8.912989429034122
            ],
            [
              76.63169350012953,
              8.912983921342798
            ],
            [
              76.63168346936725,
              8.91295448024194
            ],
            [
              76.6316931865596,
              8.912950941762652
            ],
            [
              76.6317062401071,
              8.912990541736699
            ],
            [
              76.63166986720842,
              8.913002451959143
            ],
            [
              76.6316568795924,
              8.91296254083069
            ],
            [
              76.63166635970732,
              8.912959541326185
            ]
          ]
        ]
      }
    },
    {
      "type": "Feature",
      "properties": {
        "fid": 27,
        "id": null,
        "room_no": null,
        "name": "Staircase 2",
        "category": "Stair",
        "floor": 1,
        "building": "Mechanical Block",
        "department": "Mechanical Engineering",
        "accessible": true,
        "remarks": null
      },
      "geometry": {
        "type": "Polygon",
        "coordinates": [
          [
            [
              76.63194808108334,
              8.913006576954109
            ],
            [
              76.63190082794439,
              8.913022357329279
            ],
            [
              76.63188533994875,
              8.912975821838948
            ],
            [
              76.63193312885895,
              8.912961561538097
            ],
            [
              76.63194808108334,
              8.913006576954109
            ]
          ],
          [
            [
              76.63191168731603,
              8.913000857813833
            ],
            [
              76.63192556061922,
              8.912995921576872
            ],
            [
              76.63192118974395,
              8.912982002294822
            ],
            [
              76.63190690670143,
              8.912986673657972
            ],
            [
              76.63191168731603,
              8.913000857813833
            ]
          ]
        ]
      }
    },
    {
      "type": "Feature",
      "properties": {
        "fid": 28,
        "id": null,
        "room_no": null,
        "name": "Staircase 3",
        "category": "Stair",
        "floor": 1,
        "building": "Mechanical Block",
        "department": "Mechanical Engineering",
        "accessible": true,
        "remarks": null
      },
      "geometry": {
        "type": "Polygon",
        "coordinates": [
          [
            [
              76.63184709204747,
              8.912707821216326
            ],
            [
              76.63180018925485,
              8.912722784786746
            ],
            [
              76.63181557206597,
              8.91276900905983
            ],
            [
              76.63186203838413,
              8.9127541613098
            ],
            [
              76.63184709204747,
              8.912707821216326
            ]
          ],
          [
            [
              76.63182661984371,
              8.912747713747425
            ],
            [
              76.63182179456963,
              8.912733779800078
            ],
            [
              76.63183623407494,
              8.912729329187636
            ],
            [
              76.63184077624796,
              8.9127430203211
            ],
            [
              76.63182661984371,
              8.912747713747425
            ]
          ]
        ]
      }
    },
    {
      "type": "Feature",
      "properties": {
        "fid": 29,
        "id": null,
        "room_no": null,
        "name": "Side Corridor",
        "category": "Corridor",
        "floor": 1,
        "building": "Mechanical Block",
        "department": "Mechanical Engineering",
        "accessible": true,
        "remarks": null
      },
      "geometry": {
        "type": "Polygon",
        "coordinates": [
          [
            [
              76.63186194304588,
              8.912752220080407
            ],
            [
              76.63186350340445,
              8.912751694980845
            ],
            [
              76.63189240660068,
              8.912838123413595
            ],
            [
              76.6318842469248,
              8.91284064563819
            ],
            [
              76.63188724480332,
              8.912849508876759
            ],
            [
              76.63189314994756,
              8.912867226887542
            ],
            [
              76.63189672711209,
              8.912878460182725
            ],
            [
              76.63190543603488,
              8.912875439064646
            ],
            [
              76.63193454305734,
              8.912961033617544
            ],
            [
              76.63193312885895,
              8.912961561538097
            ],
            [
              76.63194808108334,
              8.913006576954109
            ],
            [
              76.63194907201846,
              8.91300953695272
            ],
            [
              76.63194957918842,
              8.913010910561475
            ],
            [
              76.6319518757911,
              8.9130100609245
            ],
            [
              76.63195074732548,
              8.91300652275894
            ],
            [
              76.63195357417628,
              8.913005629653034
            ],
            [
              76.63197970874334,
              8.91308307234459
            ],
            [
              76.63197763644679,
              8.91308374501057
            ],
            [
              76.6319672437367,
              8.91308711847683
            ],
            [
              76.63189771733926,
              8.913109686694831
            ],
            [
              76.63188754339376,
              8.913112989150024
            ],
            [
              76.63181897295814,
              8.913135247061943
            ],
            [
              76.63180874569822,
              8.913138566822722
            ],
            [
              76.63177992812948,
              8.913147920983416
            ],
            [
              76.63176677837968,
              8.913109079630209
            ],
            [
              76.63175061418914,
              8.913114184667
            ],
            [
              76.63177164261761,
              8.913176470455538
            ],
            [
              76.63178764050195,
              8.913171270040303
            ],
            [
              76.63178458333304,
              8.913163130621744
            ],
            [
              76.63200194502,
              8.913093092040075
            ],
            [
              76.63199850750927,
              8.913082888984045
            ],
            [
              76.63197490521395,
              8.913012833764773
            ],
            [
              76.63197142247876,
              8.913002496473295
            ],
            [
              76.63197073050758,
              8.913000442596907
            ],
            [
              76.63203370153437,
              8.91297888419169
            ],
            [
              76.63205699522202,
              8.912970909495993
            ],
            [
              76.63205272854437,
              8.912958154865033
            ],
            [
              76.63196603143489,
              8.912986495028916
            ],
            [
              76.63194557529685,
              8.912925778069939
            ],
            [
              76.63194138187913,
              8.912913331360956
            ],
            [
              76.63193615406699,
              8.912897814409554
            ],
            [
              76.63193187629378,
              8.912885117319485
            ],
            [
              76.63192643637768,
              8.912868970809674
            ],
            [
              76.63192218931046,
              8.912856364858717
            ],
            [
              76.63189793569275,
              8.912784376370201
            ],
            [
              76.63189364998655,
              8.912771655729887
            ],
            [
              76.63187396030352,
              8.912713213692811
            ],
            [
              76.63196051639864,
              8.912684932389363
            ],
            [
              76.63195640426584,
              8.912671610382532
            ],
            [
              76.63194950392625,
              8.912673808157589
            ],
            [
              76.63186928332769,
              8.912699358613871
            ],
            [
              76.63186854017401,
              8.912697139031087
            ],
            [
              76.63186508409933,
              8.912686816746152
            ],
            [
              76.63184170102731,
              8.912616978336683
            ],
            [
              76.6318381797626,
              8.912606461345813
            ],
            [
              76.63160511870772,
              8.912683012972977
            ],
            [
              76.63162964110822,
              8.91275516299964
            ],
            [
              76.63163393413988,
              8.912767793994334
            ],
            [
              76.63165468335838,
              8.91282884251777
            ],
            [
              76.63167046823874,
              8.912823671401966
            ],
            [
              76.63162650177344,
              8.91269269663588
            ],
            [
              76.63165533410961,
              8.912683281118559
            ],
            [
              76.63166554296821,
              8.91267994730316
            ],
            [
              76.6317341625031,
              8.91265753883619
            ],
            [
              76.63174422511786,
              8.912654252778085
            ],
            [
              76.63181404279226,
              8.912631453043808
            ],
            [
              76.63182408800292,
              8.91262817266898
            ],
            [
              76.63182600623611,
              8.91262754624867
            ],
            [
              76.63185233954187,
              8.912705159477307
            ],
            [
              76.63184884226274,
              8.912705854294487
            ],
            [
              76.63184807625105,
              8.91270275055272
            ],
            [
              76.63184566208322,
              8.912703194780093
            ],
            [
              76.63184709204747,
              8.912707821216326
            ],
            [
              76.63185206172223,
              8.912721884700543
            ],
            [
              76.63186194304588,
              8.912752220080407
            ]
          ]
        ]
      }
    },
    {
      "type": "Feature",
      "properties": {
        "fid": 30,
        "id": null,
        "room_no": null,
        "name": "Lift",
        "category": "Lift",
        "floor": 1,
        "building": "Mechanical Block",
        "department": "Mechanical Engineering",
        "accessible": true,
        "remarks": null
      },
      "geometry": {
        "type": "Polygon",
        "coordinates": [
          [
            [
              76.63189314994756,
              8.912867226887542
            ],
            [
              76.63187518904466,
              8.912872934562706
            ],
            [
              76.6318690466049,
              8.912855223702365
            ],
            [
              76.63188724480332,
              8.912849508876759
            ],
            [
              76.63189314994756,
              8.912867226887542
            ]
          ]
        ]
      }
    }
  ]
}