{
  "type": "FeatureCollection",
  "name": "stairs",
  "crs": {
    "type": "name",
    "properties": {
      "name": "urn:ogc:def:crs:OGC:1.3:CRS84"
    }
  },
  "features": [
    {
      "type": "Feature",
      "properties": {
        "id": "MECH_STAIR_01_F1",
        "name": "Staircase 1",
        "building": "Mechanical Block",
        "floor": 1,
        "type": "Stair",
        "accessible": true,
        "connects_down": "MECH_STAIR_01_GF",
        "connects_up": null
      },
      "geometry": {
        "type": "Point",
        "coordinates": [
          76.63166232088693,
          8.912961607544828
        ]
      }
    },
    {
      "type": "Feature",
      "properties": {
        "id": "MECH_STAIR_02_F1",
        "name": "Staircase 2",
        "building": "Mechanical Block",
        "floor": 1,
        "type": "Stair",
        "accessible": true,
        "connects_down": "MECH_STAIR_02_GF",
        "connects_up": null
      },
      "geometry": {
        "type": "Point",
        "coordinates": [
          76.63194582804904,
          8.913000454192257
        ]
      }
    },
    {
      "type": "Feature",
      "properties": {
        "id": "MECH_STAIR_03_F1",
        "name": "Staircase 3",
        "building": "Mechanical Block",
        "floor": 1,
        "type": "Stair",
        "accessible": true,
        "connects_down": "MECH_STAIR_03_GF",
        "connects_up": null
      },
      "geometry": {
        "type": "Point",
        "coordinates": [
          76.6318493908225,
          8.912714784199261
        ]
      }
    },
    {
      "type": "Feature",
      "properties": {
        "id": "MECH_LIFT_01_F1",
        "name": "Lift",
        "building": "Mechanical Block",
        "floor": 1,
        "type": "Lift",
        "accessible": true,
        "connects_down": "MECH_LIFT_01_GF",
        "connects_up": null
      },
      "geometry": {
        "type": "Point",
        "coordinates": [
          76.6318903095528,
          8.91285898246286
        ]
      }
    }
  ]
}