{
  "type": "FeatureCollection",
  "name": "doors",
  "crs": {
    "type": "name",
    "properties": {
      "name": "urn:ogc:def:crs:OGC:1.3:CRS84"
    }
  },
  "features": [
    {
      "type": "Feature",
      "properties": {
        "fid": 1,
        "id": null,
        "room_no": "M316",
        "room_name": "Faculty Room",
        "building": "Mechanical Block",
        "floor": 2,
        "type": "Door",
        "accessible": true
      },
      "geometry": {
        "type": "Point",
        "coordinates": [
          76.63171468991057,
          8.913006551304292
        ]
      }
    },
    {
      "type": "Feature",
      "properties": {
        "fid": 2,
        "id": null,
        "room_no": "M315",
        "room_name": "Lecture Hall",
        "building": "Mechanical Block",
        "floor": 2,
        "type": "Door",
        "accessible": true
      },
      "geometry": {
        "type": "Point",
        "coordinates": [
          76.63173646486571,
          8.913071684409925
        ]
      }
    },
    {
      "type": "Feature",
      "properties": {
        "fid": 4,
        "id": null,
        "room_no": "M314",
        "room_name": "Class Room",
        "building": "Mechanical Block",
        "floor": 2,
        "type": "Door",
        "accessible": true
      },
      "geometry": {
        "type": "Point",
        "coordinates": [
          76.63174426151481,
          8.913095007330398
        ]
      }
    },
    {
      "type": "Feature",
      "properties": {
        "fid": 5,
        "id": null,
        "room_no": "M313",
        "room_name": "Bio Medical Engineering Lab",
        "building": "Mechanical Block",
        "floor": 2,
        "type": "Door",
        "accessible": true
      },
      "geometry": {
        "type": "Point",
        "coordinates": [
          76.63181403379575,
          8.913136850310291
        ]
      }
    },
    {
      "type": "Feature",
      "properties": {
        "fid": 6,
        "id": null,
        "room_no": "M312",
        "room_name": "Class Room 1",
        "building": "Mechanical Block",
        "floor": 2,
        "type": "Door",
        "accessible": true
      },
      "geometry": {
        "type": "Point",
        "coordinates": [
          76.63189282459692,
          8.91311127487538
        ]
      }
    },
    {
      "type": "Feature",
      "properties": {
        "fid": 7,
        "id": null,
        "room_no": "M311",
        "room_name": "Class Room 2",
        "building": "Mechanical Block",
        "floor": 2,
        "type": "Door",
        "accessible": true
      },
      "geometry": {
        "type": "Point",
        "coordinates": [
          76.63197233871996,
          8.913085464648914
        ]
      }
    },
    {
      "type": "Feature",
      "properties": {
        "fid": 8,
        "id": null,
        "room_no": "M310",
        "room_name": "PG PLG",
        "building": "Mechanical Block",
        "floor": 2,
        "type": "Door",
        "accessible": true
      },
      "geometry": {
        "type": "Point",
        "coordinates": [
          76.63200004551695,
          8.913087454025382
        ]
      }
    },
    {
      "type": "Feature",
      "properties": {
        "fid": 9,
        "id": null,
        "room_no": "M309",
        "room_name": "Class Room 4",
        "building": "Mechanical Block",
        "floor": 2,
        "type": "Door",
        "accessible": true
      },
      "geometry": {
        "type": "Point",
        "coordinates": [
          76.63194367533973,
          8.912920138704921
        ]
      }
    },
    {
      "type": "Feature",
      "properties": {
        "fid": 10,
        "id": null,
        "room_no": "M308",
        "room_name": "Faculty",
        "building": "Mechanical Block",
        "floor": 2,
        "type": "Door",
        "accessible": true
      },
      "geometry": {
        "type": "Point",
        "coordinates": [
          76.63193415564375,
          8.912891882781532
        ]
      }
    },
    {
      "type": "Feature",
      "properties": {
        "fid": 11,
        "id": null,
        "room_no": "M307",
        "room_name": "Class Room 5",
        "building": "Mechanical Block",
        "floor": 2,
        "type": "Door",
        "accessible": true
      },
      "geometry": {
        "type": "Point",
        "coordinates": [
          76.63192438180575,
          8.912862872523146
        ]
      }
    },
    {
      "type": "Feature",
      "properties": {
        "fid": 12,
        "id": null,
        "room_no": "M306",
        "room_name": "Class Room 6",
        "building": "Mechanical Block",
        "floor": 2,
        "type": "Door",
        "accessible": true
      },
      "geometry": {
        "type": "Point",
        "coordinates": [
          76.63189595307556,
          8.912778491655105
        ]
      }
    },
    {
      "type": "Feature",
      "properties": {
        "fid": 13,
        "id": null,
        "room_no": "M305",
        "room_name": "Research Lab of MCA and ASAP Class Room",
        "building": "Mechanical Block",
        "floor": 2,
        "type": "Door",
        "accessible": true
      },
      "geometry": {
        "type": "Point",
        "coordinates": [
          76.63186713632008,
          8.912692946129766
        ]
      }
    },
    {
      "type": "Feature",
      "properties": {
        "fid": 14,
        "id": null,
        "room_no": "M305",
        "room_name": "Research Lab of MCA and ASAP Class Room",
        "building": "Mechanical Block",
        "floor": 2,
        "type": "Door",
        "accessible": true
      },
      "geometry": {
        "type": "Point",
        "coordinates": [
          76.63183986242444,
          8.912611486966059
        ]
      }
    },
    {
      "type": "Feature",
      "properties": {
        "fid": 15,
        "id": null,
        "room_no": "M304",
        "room_name": "Class Room 8",
        "building": "Mechanical Block",
        "floor": 2,
        "type": "Door",
        "accessible": true
      },
      "geometry": {
        "type": "Point",
        "coordinates": [
          76.63181938483375,
          8.912629708540969
        ]
      }
    },
    {
      "type": "Feature",
      "properties": {
        "fid": 16,
        "id": null,
        "room_no": "M303",
        "room_name": "Class Room",
        "building": "Mechanical Block",
        "floor": 2,
        "type": "Door",
        "accessible": true
      },
      "geometry": {
        "type": "Point",
        "coordinates": [
          76.63173909128615,
          8.912655929287586
        ]
      }
    },
    {
      "type": "Feature",
      "properties": {
        "fid": 17,
        "id": null,
        "room_no": "M302",
        "room_name": "PG Lecture Hall",
        "building": "Mechanical Block",
        "floor": 2,
        "type": "Door",
        "accessible": true
      },
      "geometry": {
        "type": "Point",
        "coordinates": [
          76.63166010873043,
          8.912681721913458
        ]
      }
    },
    {
      "type": "Feature",
      "properties": {
        "fid": 21,
        "id": null,
        "room_no": "M301",
        "room_name": "Drawing Hall",
        "building": "Mechanical Block",
        "floor": 2,
        "type": "Door",
        "accessible": true
      },
      "geometry": {
        "type": "Point",
        "coordinates": [
          76.63169108231385,
          8.91293747456647
        ]
      }
    },
    {
      "type": "Feature",
      "properties": {
        "fid": 22,
        "id": null,
        "room_no": "M301",
        "room_name": "Drawing Hall",
        "building": "Mechanical Block",
        "floor": 2,
        "type": "Door",
        "accessible": true
      },
      "geometry": {
        "type": "Point",
        "coordinates": [
          76.6316402743804,
          8.912786507620147
        ]
      }
    },
    {
      "type": "Feature",
      "properties": {
        "fid": 23,
        "id": null,
        "room_no": "M310",
        "room_name": "PG PLG",
        "building": "Mechanical Block",
        "floor": 2,
        "type": "Door",
        "accessible": true
      },
      "geometry": {
        "type": "Point",
        "coordinates": [
          76.63197285390336,
          8.913006745160871
        ]
      }
    }
  ]
}