{
"type": "FeatureCollection",
"name": "doors1",
"crs": { "type": "name", "properties": { "name": "urn:ogc:def:crs:OGC:1.3:CRS84" } },
"features": [
{ "type": "Feature", "properties": { "fid": 1, "id": "DOOR_M101", "room_no": "M101", "room_name": "Refrigeration", "building": "Mechanical Block", "floor": 0, "type": "Door", "accessible": true }, "geometry": { "type": "Point", "coordinates": [ 76.631641160272466, 8.912788284720321 ] } },
{ "type": "Feature", "properties": { "fid": 2, "id": "DOOR_M102", "room_no": "M102", "room_name": "M102", "building": "Mechanical Block", "floor": 0, "type": "Door", "accessible": true }, "geometry": { "type": "Point", "coordinates": [ 76.631640470661324, 8.91276872526724 ] } },
{ "type": "Feature", "properties": { "fid": 3, "id": "DOOR_M115", "room_no": "M115", "room_name": "M115", "building": "Mechanical Block", "floor": 0, "type": "Door", "accessible": true }, "geometry": { "type": "Point", "coordinates": [ 76.631714471571968, 8.913007574232495 ] } },
{ "type": "Feature", "properties": { "fid": 4, "id": "DOOR_M114A", "room_no": "M114A", "room_name": "M114A", "building": "Mechanical Block", "floor": 0, "type": "Door", "accessible": true }, "geometry": { "type": "Point", "coordinates": [ 76.63173609307087, 8.913071912047943 ] } },
{ "type": "Feature", "properties": { "fid": null, "id": "DOOR_M101_2", "room_no": "M101", "room_name": "M101", "building": "Mechanical Block", "floor": 0, "type": "Door", "accessible": true }, "geometry": { "type": "Point", "coordinates": [ 76.631665806872135, 8.912862070982477 ] } },
{ "type": "Feature", "properties": { "fid": null, "id": "DOOR_M101A", "room_no": "M101A", "room_name": "M101A", "building": "Mechanical Block", "floor": 0, "type": "Door", "accessible": true }, "geometry": { "type": "Point", "coordinates": [ 76.631659967224124, 8.912870546484262 ] } },
{ "type": "Feature", "properties": { "fid": null, "id": "DOOR_M101A_2", "room_no": "M101A", "room_name": "M101A", "building": "Mechanical Block", "floor": 0, "type": "Door", "accessible": true }, "geometry": { "type": "Point", "coordinates": [ 76.631634275455795, 8.912878763924327 ] } },
{ "type": "Feature", "properties": { "fid": null, "id": "DOOR_M114", "room_no": "M114", "room_name": "M114", "building": "Mechanical Block", "floor": 0, "type": "Door", "accessible": true }, "geometry": { "type": "Point", "coordinates": [ 76.63173114592135, 8.913105000256815 ] } },
{ "type": "Feature", "properties": { "fid": null, "id": "DOOR_M114_2", "room_no": "M114", "room_name": "M114", "building": "Mechanical Block", "floor": 0, "type": "Door", "accessible": true }, "geometry": { "type": "Point", "coordinates": [ 76.631694167771997, 8.913152370901628 ] } },
{ "type": "Feature", "properties": { "fid": null, "id": "DOOR_M113", "room_no": "M113", "room_name": "M113", "building": "Mechanical Block", "floor": 0, "type": "Door", "accessible": true }, "geometry": { "type": "Point", "coordinates": [ 76.631763159129363, 8.913180428311428 ] } },
{ "type": "Feature", "properties": { "fid": null, "id": "DOOR_M102_2", "room_no": "M102", "room_name": "M102", "building": "Mechanical Block", "floor": 0, "type": "Door", "accessible": true }, "geometry": { "type": "Point", "coordinates": [ 76.631861555696943, 8.912696047462045 ] } },
{ "type": "Feature", "properties": { "fid": null, "id": "DOOR_M105", "room_no": "M105", "room_name": "M105", "building": "Mechanical Block", "floor": 0, "type": "Door", "accessible": true }, "geometry": { "type": "Point", "coordinates": [ 76.631873005184957, 8.912709710234052 ] } },
{ "type": "Feature", "properties": { "fid": null, "id": "DOOR_M106", "room_no": "M106", "room_name": "M106", "building": "Mechanical Block", "floor": 0, "type": "Door", "accessible": true }, "geometry": { "type": "Point", "coordinates": [ 76.631894771552197, 8.912774540030931 ] } },
{ "type": "Feature", "properties": { "fid": null, "id": "DOOR_M107", "room_no": "M107", "room_name": "M107", "building": "Mechanical Block", "floor": 0, "type": "Door", "accessible": true }, "geometry": { "type": "Point", "coordinates": [ 76.631916118696878, 8.912838121187827 ] } },
{ "type": "Feature", "properties": { "fid": null, "id": "DOOR_M108", "room_no": "M108", "room_name": "M108", "building": "Mechanical Block", "floor": 0, "type": "Door", "accessible": true }, "geometry": { "type": "Point", "coordinates": [ 76.631947588119829, 8.912931850907473 ] } },
{ "type": "Feature", "properties": { "fid": null, "id": "DOOR_M109", "room_no": "M109", "room_name": "M109", "building": "Mechanical Block", "floor": 0, "type": "Door", "accessible": true }, "geometry": { "type": "Point", "coordinates": [ 76.631982263888119, 8.912997778286737 ] } },
{ "type": "Feature", "properties": { "fid": null, "id": "DOOR_M111", "room_no": "M111", "room_name": "M111", "building": "Mechanical Block", "floor": 0, "type": "Door", "accessible": true }, "geometry": { "type": "Point", "coordinates": [ 76.631961596322427, 8.913002040341011 ] } },
{ "type": "Feature", "properties": { "fid": null, "id": "DOOR_M111_2", "room_no": "M111", "room_name": "M111", "building": "Mechanical Block", "floor": 0, "type": "Door", "accessible": true }, "geometry": { "type": "Point", "coordinates": [ 76.632085299863675, 8.913047442872237 ] } }
]
}
