{
"type": "FeatureCollection",
"name": "path",
"crs": { "type": "name", "properties": { "name": "urn:ogc:def:crs:OGC:1.3:CRS84" } },
"features": [
{ "type": "Feature", "properties": { "fid": null, "id": 18, "type": "StairConnector", "floor": 0, "building": "Mechanical Block", "accessible": true, "path_id": "MECH_PATH_016" }, "geometry": { "type": "LineString", "coordinates": [ [ 76.631913806371912, 8.912867151949746 ], [ 76.63193741678964, 8.912935437484331 ], [ 76.631958678945935, 8.912996931417586 ], [ 76.631945828049041, 8.913000454192257 ] ] } },
{ "type": "Feature", "properties": { "fid": null, "id": 19, "type": "DoorConnector", "floor": 0, "building": "Mechanical Block", "accessible": true, "path_id": "MECH_PATH_015" }, "geometry": { "type": "LineString", "coordinates": [ [ 76.631958678945935, 8.912996931417586 ], [ 76.631961596322427, 8.913002040341011 ] ] } },
{ "type": "Feature", "properties": { "fid": null, "id": 20, "type": "DoorConnector", "floor": 0, "building": "Mechanical Block", "accessible": true, "path_id": "MECH_PATH_014" }, "geometry": { "type": "LineString", "coordinates": [ [ 76.631961596322427, 8.913002040341011 ], [ 76.631964776160686, 8.913010815654165 ], [ 76.631984700528704, 8.913004364560077 ], [ 76.631982263888119, 8.912997778286735 ] ] } },
{ "type": "Feature", "properties": { "fid": null, "id": 21, "type": "DoorConnector", "floor": 0, "building": "Mechanical Block", "accessible": true, "path_id": "MECH_PATH_013" }, "geometry": { "type": "LineString", "coordinates": [ [ 76.631947588119829, 8.912931850907473 ], [ 76.63193741678964, 8.912935437484331 ] ] } },
{ "type": "Feature", "properties": { "fid": null, "id": 6, "type": "DoorConnector", "floor": 0, "building": "Mechanical Block", "accessible": true, "path_id": "MECH_PATH_006" }, "geometry": { "type": "LineString", "coordinates": [ [ 76.631673706460603, 8.91285951831739 ], [ 76.631665806872135, 8.912862070982477 ] ] } },
{ "type": "Feature", "properties": { "fid": 1, "id": 1, "type": "Entrance", "floor": 0, "building": "Mechanical Block", "accessible": true, "path_id": "MECH_PATH_001" }, "geometry": { "type": "LineString", "coordinates": [ [ 76.631631623231087, 8.912952148763097 ], [ 76.631657186751454, 8.91294385288993 ], [ 76.63169841645167, 8.912930473027961 ] ] } },
{ "type": "Feature", "properties": { "fid": 2, "id": 2, "type": "DoorConnector", "floor": 0, "building": "Mechanical Block", "accessible": true, "path_id": "MECH_PATH_002" }, "geometry": { "type": "LineString", "coordinates": [ [ 76.63169841645167, 8.912930473027961 ], [ 76.631673706460603, 8.91285951831739 ], [ 76.631648015371283, 8.912785746369524 ], [ 76.631641160272466, 8.912788284720321 ] ] } },
{ "type": "Feature", "properties": { "fid": 3, "id": 3, "type": "DoorConnector", "floor": 0, "building": "Mechanical Block", "accessible": true, "path_id": "MECH_PATH_003" }, "geometry": { "type": "LineString", "coordinates": [ [ 76.631648015371283, 8.91278574636952 ], [ 76.631640470661324, 8.91276872526724 ] ] } },
{ "type": "Feature", "properties": { "fid": 5, "id": 4, "type": "DoorConnector", "floor": 0, "building": "Mechanical Block", "accessible": true, "path_id": "MECH_PATH_004" }, "geometry": { "type": "LineString", "coordinates": [ [ 76.63172338033381, 8.913005029160376 ], [ 76.631744827531747, 8.913069534186208 ], [ 76.63173609307087, 8.913071912047943 ] ] } },
{ "type": "Feature", "properties": { "fid": 4, "id": 5, "type": "DoorConnector", "floor": 0, "building": "Mechanical Block", "accessible": true, "path_id": "MECH_PATH_005" }, "geometry": { "type": "LineString", "coordinates": [ [ 76.63169841645167, 8.912930473027961 ], [ 76.63172338033381, 8.913005029160376 ], [ 76.631714471571968, 8.913007574232495 ] ] } },
{ "type": "Feature", "properties": { "fid": null, "id": 7, "type": "StairConnector", "floor": 0, "building": "Mechanical Block", "accessible": true, "path_id": "MECH_PATH_007" }, "geometry": { "type": "LineString", "coordinates": [ [ 76.631657186751454, 8.91294385288993 ], [ 76.631662320886932, 8.912961607544828 ] ] } },
{ "type": "Feature", "properties": { "fid": null, "id": 8, "type": "DoorConnector", "floor": 0, "building": "Mechanical Block", "accessible": true, "path_id": "MECH_PATH_008" }, "geometry": { "type": "LineString", "coordinates": [ [ 76.63173609307087, 8.913071912047943 ], [ 76.631721761059552, 8.913076300662306 ], [ 76.63173114592135, 8.913105000256815 ] ] } },
{ "type": "Feature", "properties": { "fid": null, "id": 9, "type": "CorridorConnector", "floor": 0, "building": "Mechanical Block", "accessible": true, "path_id": "MECH_PATH_009" }, "geometry": { "type": "LineString", "coordinates": [ [ 76.63169841645167, 8.912930473027961 ], [ 76.631868300938194, 8.912875100006767 ], [ 76.631870769989405, 8.912882042932853 ], [ 76.631913806371912, 8.912867151949746 ] ] } },
{ "type": "Feature", "properties": { "fid": null, "id": 10, "type": "CorridorConnector", "floor": 0, "building": "Mechanical Block", "accessible": true, "path_id": "MECH_PATH_010" }, "geometry": { "type": "LineString", "coordinates": [ [ 76.631868300938194, 8.912875100006763 ], [ 76.631861263947172, 8.912853928657798 ], [ 76.631904294539254, 8.91283964724205 ] ] } },
{ "type": "Feature", "properties": { "fid": null, "id": 11, "type": "Corridor", "floor": 0, "building": "Mechanical Block", "accessible": true, "path_id": "MECH_PATH_011" }, "geometry": { "type": "LineString", "coordinates": [ [ 76.631913806371912, 8.912867151949746 ], [ 76.631908908879495, 8.912852990210389 ], [ 76.631905074790851, 8.912841903441707 ], [ 76.631904294539254, 8.91283964724205 ] ] } },
{ "type": "Feature", "properties": { "fid": null, "id": 12, "type": "VerticalConnector", "floor": 0, "building": "Mechanical Block", "accessible": true, "path_id": "MECH_PATH_012" }, "geometry": { "type": "LineString", "coordinates": [ [ 76.631890309552801, 8.912858982462859 ], [ 76.631908908879495, 8.912852990210389 ] ] } },
{ "type": "Feature", "properties": { "fid": null, "id": 13, "type": "DoorConnector", "floor": 0, "building": "Mechanical Block", "accessible": true, "path_id": "MECH_PATH_017" }, "geometry": { "type": "LineString", "coordinates": [ [ 76.631916118696878, 8.912838121187827 ], [ 76.631905074790851, 8.912841903441707 ] ] } },
{ "type": "Feature", "properties": { "fid": null, "id": 14, "type": "StairConnector", "floor": 0, "building": "Mechanical Block", "accessible": true, "path_id": "MECH_PATH_018" }, "geometry": { "type": "LineString", "coordinates": [ [ 76.631904294539254, 8.91283964724205 ], [ 76.631883476556482, 8.912777917693649 ], [ 76.631861540192688, 8.912712871907015 ], [ 76.631860814783835, 8.912710720921847 ], [ 76.631849390822495, 8.912714784199261 ] ] } },
{ "type": "Feature", "properties": { "fid": null, "id": 15, "type": "DoorConnector", "floor": 0, "building": "Mechanical Block", "accessible": true, "path_id": "MECH_PATH_019" }, "geometry": { "type": "LineString", "coordinates": [ [ 76.631873005184957, 8.912709710234052 ], [ 76.631861540192688, 8.912712871907015 ] ] } },
{ "type": "Feature", "properties": { "fid": null, "id": 16, "type": "DoorConnector", "floor": 0, "building": "Mechanical Block", "accessible": true, "path_id": "MECH_PATH_020" }, "geometry": { "type": "LineString", "coordinates": [ [ 76.631860814783835, 8.912710720921844 ], [ 76.631861555696943, 8.912696047462045 ] ] } },
{ "type": "Feature", "properties": { "fid": null, "id": 17, "type": "DoorConnector", "floor": 0, "building": "Mechanical Block", "accessible": true, "path_id": "MECH_PATH_021" }, "geometry": { "type": "LineString", "coordinates": [ [ 76.631894771552197, 8.912774540030929 ], [ 76.631883476556482, 8.912777917693649 ] ] } }
]
}
