{
"type": "FeatureCollection",
"name": "mechanical_gf",
"crs": { "type": "name", "properties": { "name": "urn:ogc:def:crs:OGC:1.3:CRS84" } },
"features": [
{ "type": "Feature", "properties": { "fid": null, "id": null, "room_no": "M102", "name": "Heat Engines Lab", "category": "Lab", "floor": 0, "building": "Mechanical Block", "department": "Mechanical Engineering", "accessible": true, "remarks": null }, "geometry": { "type": "Polygon", "coordinates": [ [ [ 76.631647111080085, 8.912766609498304 ], [ 76.631634785186094, 8.912770570192874 ], [ 76.631606496698694, 8.912685659270513 ], [ 76.631613233946581, 8.912683380603557 ], [ 76.631613941783314, 8.912685993470792 ], [ 76.631667335869025, 8.912669035087381 ], [ 76.631666634827894, 8.912666345483519 ], [ 76.631676522729137, 8.91266317927672 ], [ 76.631677273531494, 8.912665969836404 ], [ 76.631909038668837, 8.912589617627964 ], [ 76.631908447343648, 8.912587014830393 ], [ 76.631918241549741, 8.912583801862677 ], [ 76.631918939193028, 8.9125865298354 ], [ 76.631923539920479, 8.912584955728024 ], [ 76.631950210291649, 8.912664275484088 ], [ 76.631866789869363, 8.912691513044891 ], [ 76.631867740922615, 8.912694030948044 ], [ 76.631854805288356, 8.912698248237581 ], [ 76.631854066871313, 8.912695980684648 ], [ 76.631646156081118, 8.912763970436107 ], [ 76.631647111080085, 8.912766609498304 ] ] ] } },
{ "type": "Feature", "properties": { "fid": null, "id": null, "room_no": null, "name": "Main Corridor", "category": " Corridor", "floor": 0, "building": "Mechanical Block", "department": null, "accessible": true, "remarks": null }, "geometry": { "type": "Polygon", "coordinates": [ [ [ 76.631756559832056, 8.913073073388976 ], [ 76.631738353710304, 8.913078837473551 ], [ 76.631737756871402, 8.913076862920239 ], [ 76.63169292389955, 8.912943056901112 ], [ 76.631690603875171, 8.912943900247571 ], [ 76.631693156879123, 8.912951685931704 ], [ 76.631682517199977, 8.912955109294263 ], [ 76.631656893218349, 8.912963353920512 ], [ 76.631654424750849, 8.91295571361348 ], [ 76.631651979384785, 8.912956480884386 ], [ 76.631667721249002, 8.913003184645161 ], [ 76.63165052433817, 8.91300892106222 ], [ 76.631626121836291, 8.912935624500172 ], [ 76.631683882260091, 8.912916146006729 ], [ 76.631634785186094, 8.912770570192874 ], [ 76.631647111080085, 8.912766609498304 ], [ 76.631652481381423, 8.912764299672876 ], [ 76.631755456644242, 8.913070324660312 ], [ 76.631756559832056, 8.913073073388976 ] ] ] } },
{ "type": "Feature", "properties": { "fid": null, "id": null, "room_no": null, "name": "Central Courtyard", "category": "Courtyard", "floor": 0, "building": "Mechanical Block", "department": null, "accessible": true, "remarks": null }, "geometry": { "type": "Polygon", "coordinates": [ [ [ 76.631844940084591, 8.91270160005001 ], [ 76.631847147748275, 8.912708139677424 ], [ 76.631800189254847, 8.912722784786746 ], [ 76.631799875106651, 8.912723248583134 ], [ 76.631815687009421, 8.912769534354384 ], [ 76.631862576629985, 8.912753843709121 ], [ 76.631890515940967, 8.91283660660504 ], [ 76.631883522990464, 8.912839106368164 ], [ 76.631887056614431, 8.912849540604014 ], [ 76.631869046604905, 8.912855223702365 ], [ 76.631868927883033, 8.912855423514937 ], [ 76.631874980391416, 8.912873488582171 ], [ 76.631893038618145, 8.91286756287905 ], [ 76.631896735377211, 8.912878671789164 ], [ 76.631903885670937, 8.912876210923953 ], [ 76.631932611243869, 8.912961302886252 ], [ 76.631885339948752, 8.912975821838948 ], [ 76.63188535858643, 8.912976517805999 ], [ 76.631900447703345, 8.913022575929512 ], [ 76.631947885841498, 8.913006549860357 ], [ 76.631948813915201, 8.913009299034199 ], [ 76.631755456644242, 8.913070324660312 ], [ 76.631652481381423, 8.912764299672876 ], [ 76.631844940084591, 8.91270160005001 ] ] ] } },
{ "type": "Feature", "properties": { "fid": 3, "id": 3, "room_no": null, "name": "Main Staircase", "category": "Stair", "floor": 0, "building": "Mechanical Block", "department": "Mechanical Engineering", "accessible": true, "remarks": "Main Staircase" }, "geometry": { "type": "Polygon", "coordinates": [ [ [ 76.631668325182602, 8.912959675636884 ], [ 76.631677809961502, 8.912988323125314 ], [ 76.631692022620399, 8.912983554470946 ], [ 76.631682517199977, 8.912955109294263 ], [ 76.631693156879123, 8.912951685931704 ], [ 76.631706503442686, 8.912990707452472 ], [ 76.631669496896862, 8.913002761550656 ], [ 76.631656893218349, 8.912963353920512 ], [ 76.631668325182602, 8.912959675636884 ] ] ] } },
{ "type": "Feature", "properties": { "fid": null, "id": 4, "room_no": "M115", "name": "M115", "category": null, "floor": 0, "building": "Mechanical Block", "department": "Mechanical Engineering", "accessible": true, "remarks": null }, "geometry": { "type": "Polygon", "coordinates": [ [ [ 76.631660465339124, 8.91303132012384 ], [ 76.631701423153686, 8.913017832808315 ], [ 76.631713902450699, 8.91301372340398 ], [ 76.63171627546653, 8.913012941975229 ], [ 76.63171199501231, 8.91300020487969 ], [ 76.631709614985212, 8.913001110465842 ], [ 76.631707082708459, 8.912992781189013 ], [ 76.631653639973678, 8.913010190703755 ], [ 76.631660465339124, 8.91303132012384 ] ] ] } },
{ "type": "Feature", "properties": { "fid": null, "id": 5, "room_no": "M114A", "name": "M114A", "category": null, "floor": 0, "building": "Mechanical Block", "department": "Mechanical Engineering", "accessible": true, "remarks": null }, "geometry": { "type": "Polygon", "coordinates": [ [ [ 76.631737756871402, 8.913076862920239 ], [ 76.631735289799053, 8.913077629159742 ], [ 76.631743195366724, 8.913101045644142 ], [ 76.631736753835341, 8.913103159746573 ], [ 76.631727190627331, 8.913106298379285 ], [ 76.631685477272924, 8.913119988648877 ], [ 76.631663580143041, 8.913054381243738 ], [ 76.631667994941409, 8.913053139025124 ], [ 76.63166145356945, 8.913033320018371 ], [ 76.631702167367436, 8.913019905092968 ], [ 76.631701423153686, 8.913017832808315 ], [ 76.631713902450699, 8.91301372340398 ], [ 76.631731046211669, 8.913065006558753 ], [ 76.631733505732058, 8.913064213057371 ], [ 76.631737756871402, 8.913076862920239 ] ] ] } },
{ "type": "Feature", "properties": { "fid": 4, "id": 6, "room_no": null, "name": "Main Portico", "category": "Entrance", "floor": 0, "building": "Mechanical Block", "department": "Mechanical Engineering", "accessible": true, "remarks": "Main entrance portico" }, "geometry": { "type": "Polygon", "coordinates": [ [ [ 76.63165052433817, 8.91300892106222 ], [ 76.631624311368071, 8.913017431784992 ], [ 76.631583550534955, 8.91289536746959 ], [ 76.631609830545756, 8.912886691165641 ], [ 76.631626121836291, 8.912935624500172 ], [ 76.63165052433817, 8.91300892106222 ] ] ] } },
{ "type": "Feature", "properties": { "fid": null, "id": null, "room_no": null, "name": "Passage", "category": "Corridor", "floor": 0, "building": "Mechanical Block", "department": null, "accessible": true, "remarks": null }, "geometry": { "type": "Polygon", "coordinates": [ [ [ 76.631844940084591, 8.912701600050012 ], [ 76.631847092047465, 8.912707821216326 ], [ 76.631847147748275, 8.912708139677424 ], [ 76.631862576629985, 8.912753843709121 ], [ 76.631890515940967, 8.91283660660504 ], [ 76.631883522990464, 8.912839106368164 ], [ 76.631893149947558, 8.912867226887542 ], [ 76.631896735377211, 8.912878671789164 ], [ 76.631903885670937, 8.912876210923953 ], [ 76.631932611243869, 8.912961302886252 ], [ 76.631947885841498, 8.913006549860357 ], [ 76.631948391549145, 8.913008047886017 ], [ 76.631948813915201, 8.913009299034199 ], [ 76.631951219100856, 8.913008596567209 ], [ 76.631949951031515, 8.913005927238162 ], [ 76.631956883756672, 8.913003613273673 ], [ 76.631966606586857, 8.913000368044212 ], [ 76.631970190847213, 8.912999171710721 ], [ 76.631949372616958, 8.91293716592048 ], [ 76.631945940012471, 8.91292694212275 ], [ 76.631918293717888, 8.912844599353457 ], [ 76.631913888588045, 8.91283147894641 ], [ 76.631896342279873, 8.912779218347028 ], [ 76.631893086018607, 8.912769519772361 ], [ 76.631874382680351, 8.912713813020417 ], [ 76.631871037111495, 8.9127038484467 ], [ 76.631867740922601, 8.912694030948044 ], [ 76.631844940084591, 8.912701600050012 ] ] ] } },
{ "type": "Feature", "properties": { "fid": 6, "id": 8, "room_no": "M101A", "name": "Faculty Room", "category": "Office", "floor": 0, "building": "Mechanical Block", "department": "Mechanical Engineering", "accessible": true, "remarks": "Faculty Room" }, "geometry": { "type": "Polygon", "coordinates": [ [ [ 76.631665310253126, 8.912868837531386 ], [ 76.631680759758524, 8.912914773247895 ], [ 76.631644423621154, 8.912926496191977 ], [ 76.63163409933118, 8.912894970081615 ], [ 76.631631819942498, 8.91289576485754 ], [ 76.63164241239582, 8.912927423430475 ], [ 76.631627462287639, 8.912932324548214 ], [ 76.63161237809777, 8.9128880157922 ], [ 76.631629808717165, 8.91288258482323 ], [ 76.631629403000758, 8.912880322365393 ], [ 76.631639126752944, 8.912877212250546 ], [ 76.631640133007139, 8.912879273256745 ], [ 76.631655418319525, 8.912874372138294 ], [ 76.631655265196514, 8.912872050414622 ], [ 76.631665310253126, 8.912868837531386 ] ] ] } },
{ "type": "Feature", "properties": { "fid": null, "id": 9, "room_no": "M114", "name": "M114", "category": null, "floor": 0, "building": "Mechanical Block", "department": "Mechanical Engineering", "accessible": true, "remarks": null }, "geometry": { "type": "Polygon", "coordinates": [ [ [ 76.631736753835341, 8.913103159746573 ], [ 76.631737241437875, 8.913105305775714 ], [ 76.631743784499861, 8.913103010327456 ], [ 76.631755604982558, 8.913137899806685 ], [ 76.631698607826166, 8.913156682307896 ], [ 76.631695846492974, 8.913157787648139 ], [ 76.631692559293285, 8.913147180806586 ], [ 76.631694338999324, 8.913146638716622 ], [ 76.631685697206478, 8.913121592795356 ], [ 76.63170676749661, 8.913115004987128 ], [ 76.631715700951304, 8.913141728913191 ], [ 76.631717954348616, 8.913141140776164 ], [ 76.631709229885885, 8.913114376920856 ], [ 76.631727166392963, 8.913108707105691 ], [ 76.631727190627331, 8.913106298379285 ], [ 76.631736753835341, 8.913103159746573 ] ] ] } },
{ "type": "Feature", "properties": { "fid": null, "id": 10, "room_no": "M101", "name": "M101", "category": null, "floor": 0, "building": "Mechanical Block", "department": "Mechanical Engineering", "accessible": true, "remarks": null }, "geometry": { "type": "Polygon", "coordinates": [ [ [ 76.631642840883714, 8.912793297517187 ], [ 76.631638964576936, 8.912781735569938 ], [ 76.63163653316235, 8.912782656552213 ], [ 76.631605486128464, 8.912690035601766 ], [ 76.631605003604946, 8.912688659439318 ], [ 76.631547348479216, 8.912707734071811 ], [ 76.631592399926291, 8.912842846023445 ], [ 76.631596958703668, 8.912841256471363 ], [ 76.631605405850038, 8.912867881467815 ], [ 76.631622970551149, 8.912862450498547 ], [ 76.631626724838398, 8.91287357736233 ], [ 76.631624847694766, 8.912874239675638 ], [ 76.631621629734255, 8.912864834826529 ], [ 76.63160621034018, 8.91286973594511 ], [ 76.631611975852749, 8.912885896389691 ], [ 76.631629403000758, 8.912880322365393 ], [ 76.631639126752944, 8.912877212250546 ], [ 76.631655265196514, 8.912872050414622 ], [ 76.631665310253126, 8.912868837531386 ], [ 76.631667890101994, 8.912868012373945 ], [ 76.631663881416898, 8.912856579565601 ], [ 76.631661587184354, 8.912857398854756 ], [ 76.631640331713214, 8.912793988563624 ], [ 76.631642840883714, 8.912793297517187 ] ] ] } },
{ "type": "Feature", "properties": { "fid": null, "id": null, "room_no": " M113", "name": "Cryogenic Research Lab", "category": "Lab", "floor": 0, "building": "Mechanical Block", "department": null, "accessible": true, "remarks": null }, "geometry": { "type": "Polygon", "coordinates": [ [ [ 76.63175699825419, 8.913182607877308 ], [ 76.631769940908868, 8.913178029084873 ], [ 76.631768412062769, 8.91317405735464 ], [ 76.631785997092081, 8.913168021947076 ], [ 76.631774872462472, 8.913134021376997 ], [ 76.631771857253938, 8.913135154165237 ], [ 76.631771221522541, 8.913132776885412 ], [ 76.631774190073813, 8.91313164006448 ], [ 76.631755264110325, 8.913075661674752 ], [ 76.631739312070437, 8.913080599649367 ], [ 76.631758367515275, 8.913137239482687 ], [ 76.631761086452457, 8.913136266873643 ], [ 76.631761823662302, 8.913138560031157 ], [ 76.631698158985373, 8.91315934615343 ], [ 76.631709539937361, 8.913193283723489 ], [ 76.631755722519216, 8.913178255486537 ], [ 76.63175699825419, 8.913182607877308 ] ] ] } },
{ "type": "Feature", "properties": { "fid": null, "id": null, "room_no": "M105", "name": "Staff Room", "category": "Office", "floor": 0, "building": "Mechanical Block", "department": null, "accessible": true, "remarks": null }, "geometry": { "type": "Polygon", "coordinates": [ [ [ 76.631951308801277, 8.912666671652913 ], [ 76.631961415090416, 8.912696527903979 ], [ 76.63190096298689, 8.912716607051481 ], [ 76.631897560163608, 8.91270661486735 ], [ 76.631895212851632, 8.912707638176631 ], [ 76.631898411313628, 8.91271738975318 ], [ 76.63187996522197, 8.912723096836006 ], [ 76.631876969014684, 8.912712972588691 ], [ 76.631874382680351, 8.912713813020417 ], [ 76.631871037111495, 8.9127038484467 ], [ 76.631873663473641, 8.912703156020903 ], [ 76.631870348135919, 8.912693450078169 ], [ 76.631888726335561, 8.91268723550246 ], [ 76.631891793226671, 8.912697198651738 ], [ 76.631894522662762, 8.912696319842366 ], [ 76.631891343794265, 8.912686347014603 ], [ 76.631951308801277, 8.912666671652913 ] ] ] } },
{ "type": "Feature", "properties": { "fid": null, "id": null, "room_no": "M106", "name": "Thermal Energy Lab", "category": "Lab", "floor": 0, "building": "Mechanical Block", "department": null, "accessible": true, "remarks": null }, "geometry": { "type": "Polygon", "coordinates": [ [ [ 76.631961803534196, 8.912698512239412 ], [ 76.631881020631653, 8.912725194554715 ], [ 76.631895457796048, 8.912768578831194 ], [ 76.631893086018607, 8.912769519772361 ], [ 76.631896342279873, 8.912779218347028 ], [ 76.631899001986966, 8.912778248816196 ], [ 76.631915927932468, 8.912829205351875 ], [ 76.631996608654418, 8.912802402740416 ], [ 76.631961803534196, 8.912698512239412 ] ] ] } },
{ "type": "Feature", "properties": { "fid": null, "id": null, "room_no": "M107", "name": "M107", "category": "Lab", "floor": 0, "building": "Mechanical Block", "department": null, "accessible": true, "remarks": null }, "geometry": { "type": "Polygon", "coordinates": [ [ [ 76.631999417200547, 8.912803815945878 ], [ 76.632003658483711, 8.91281644445429 ], [ 76.632001401449045, 8.912817085413995 ], [ 76.632016942321627, 8.912863296140202 ], [ 76.631936118125438, 8.912889807666348 ], [ 76.631920679433463, 8.912843717247233 ], [ 76.631918293717888, 8.912844599353457 ], [ 76.631913888588045, 8.91283147894641 ], [ 76.631999417200547, 8.912803815945878 ] ] ] } },
{ "type": "Feature", "properties": { "fid": null, "id": null, "room_no": "M108", "name": "M108", "category": "Lab", "floor": 0, "building": "Mechanical Block", "department": null, "accessible": true, "remarks": null }, "geometry": { "type": "Polygon", "coordinates": [ [ [ 76.632044814795591, 8.912945946491959 ], [ 76.632017761410665, 8.912865230995935 ], [ 76.631936606806818, 8.912892005029876 ], [ 76.631948438215517, 8.912926023360757 ], [ 76.631945940012471, 8.91292694212275 ], [ 76.631949372616958, 8.91293716592048 ], [ 76.631951657054998, 8.91293611110876 ], [ 76.631964084458176, 8.912972459931638 ], [ 76.632044814795591, 8.912945946491959 ] ] ] } },
{ "type": "Feature", "properties": { "fid": null, "id": null, "room_no": "M109", "name": "M109", "category": null, "floor": 0, "building": "Mechanical Block", "department": null, "accessible": true, "remarks": null }, "geometry": { "type": "Polygon", "coordinates": [ [ [ 76.632053660050346, 8.91297177982068 ], [ 76.632045650604653, 8.912947975685716 ], [ 76.631964689939252, 8.912974754090353 ], [ 76.631972460032898, 8.912998500378512 ], [ 76.631977054582791, 8.912996946735888 ], [ 76.631977759365256, 8.912999181355516 ], [ 76.631987564340704, 8.912996127301767 ], [ 76.631986818264707, 8.91299372190505 ], [ 76.632053660050346, 8.91297177982068 ] ] ] } },
{ "type": "Feature", "properties": { "fid": null, "id": null, "room_no": "M111", "name": "M111", "category": null, "floor": 0, "building": "Mechanical Block", "department": null, "accessible": true, "remarks": null }, "geometry": { "type": "Polygon", "coordinates": [ [ [ 76.631786260649648, 8.913161444659593 ], [ 76.631757259648396, 8.913074832454161 ], [ 76.631954972535212, 8.913010308122574 ], [ 76.631954112620647, 8.913007452066033 ], [ 76.631957563489848, 8.913006023503781 ], [ 76.631956883756672, 8.913003613273673 ], [ 76.631966606586857, 8.913000368044212 ], [ 76.631967239080311, 8.913002973012802 ], [ 76.632057783096485, 8.91297273913513 ], [ 76.632081195168226, 8.913043008108133 ], [ 76.632083493608931, 8.913042280882586 ], [ 76.632086876044127, 8.913051947345846 ], [ 76.632084361088275, 8.913052608664701 ], [ 76.632087784278099, 8.913062686286846 ], [ 76.631786260649648, 8.913161444659593 ] ] ] } },
{ "type": "Feature", "properties": { "fid": null, "id": null, "room_no": null, "name": "Staircase 1", "category": "Stair", "floor": 0, "building": "Mechanical Block", "department": null, "accessible": true, "remarks": null }, "geometry": { "type": "Polygon", "coordinates": [ [ [ 76.631947885841498, 8.913006549860357 ], [ 76.631900827944392, 8.913022357329279 ], [ 76.631885339948752, 8.912975821838948 ], [ 76.631932611243869, 8.912961302886252 ], [ 76.631947885841498, 8.913006549860357 ] ], [ [ 76.631911687316034, 8.913000857813833 ], [ 76.631925560619223, 8.912995921576872 ], [ 76.631921189743949, 8.912982002294822 ], [ 76.631906906701431, 8.912986673657972 ], [ 76.631911687316034, 8.913000857813833 ] ] ] } },
{ "type": "Feature", "properties": { "fid": null, "id": null, "room_no": null, "name": "Staircase 2", "category": "Stair", "floor": 0, "building": "Mechanical Block", "department": null, "accessible": true, "remarks": null }, "geometry": { "type": "Polygon", "coordinates": [ [ [ 76.631862576629985, 8.912753843709121 ], [ 76.631815572065975, 8.912769009059829 ], [ 76.631800189254847, 8.912722784786746 ], [ 76.631847092047465, 8.912707821216326 ], [ 76.631862576629985, 8.912753843709121 ] ], [ [ 76.631836234074939, 8.912729329187636 ], [ 76.631821794569632, 8.912733779800078 ], [ 76.631826619843707, 8.912747713747425 ], [ 76.631840776247955, 8.9127430203211 ], [ 76.631836234074939, 8.912729329187636 ] ] ] } },
{ "type": "Feature", "properties": { "fid": null, "id": null, "room_no": null, "name": "Lift", "category": "Lift", "floor": 0, "building": "Mechanical Block", "department": null, "accessible": true, "remarks": null }, "geometry": { "type": "Polygon", "coordinates": [ [ [ 76.631893149947558, 8.912867226887542 ], [ 76.631875189044663, 8.912872934562706 ], [ 76.631869046604905, 8.912855223702365 ], [ 76.631887056614431, 8.912849540604013 ], [ 76.631893149947558, 8.912867226887542 ] ] ] } }
]
}
