{
"type": "FeatureCollection",
"name": "building",
"crs": { "type": "name", "properties": { "name": "urn:ogc:def:crs:OGC:1.3:CRS84" } },
"features": [
{ "type": "Feature", "properties": { "fid": null, "id": null, "name": null, "building_type": null, "floors": null, "description": null }, "geometry": { "type": "Polygon", "coordinates": [ [ [ 76.631501352669105, 8.912306420476426 ], [ 76.631499828617038, 8.912306853609076 ], [ 76.631423554937427, 8.912332436567466 ], [ 76.631480046673289, 8.912496953868127 ], [ 76.631445735412569, 8.912508065554015 ], [ 76.631465957648118, 8.912564705624957 ], [ 76.631499405939252, 8.912553332613779 ], [ 76.631534621478977, 8.912655888544062 ], [ 76.631534314810253, 8.912655981000382 ], [ 76.631534621478977, 8.912655888544068 ], [ 76.63153715686289, 8.91266277037802 ], [ 76.631720928773177, 8.91259971951118 ], [ 76.631722873533263, 8.912599133193273 ], [ 76.631916533676332, 8.91253327110582 ], [ 76.631903829071689, 8.912496758495212 ], [ 76.631870566106713, 8.912507940482595 ], [ 76.631773469768277, 8.912229085314726 ], [ 76.631768236290839, 8.912215268965307 ], [ 76.631501352669105, 8.912306420476426 ] ], [ [ 76.6315344930523, 8.912390044489726 ], [ 76.6315358768191, 8.91238962937798 ], [ 76.631710892325231, 8.912330340815958 ], [ 76.631755473937972, 8.912456879874142 ], [ 76.631748318400099, 8.912459388291623 ], [ 76.631655534617167, 8.912491650635618 ], [ 76.631636429840313, 8.912497477037284 ], [ 76.631579053177688, 8.912517296839125 ], [ 76.63157837665635, 8.912515181570507 ], [ 76.6315344930523, 8.912390044489726 ] ], [ [ 76.631528860221863, 8.912391734264389 ], [ 76.631528860221863, 8.912391734264387 ], [ 76.6315344930523, 8.912390044489726 ], [ 76.631528860221863, 8.912391734264389 ] ] ] } },
{ "type": "Feature", "properties": { "fid": 2, "id": 1, "name": "Mechanical Block", "building_type": "Academic", "floors": 4, "description": "Mechanical Block" }, "geometry": { "type": "Polygon", "coordinates": [ [ [ 76.631708914565266, 8.913187865533438 ], [ 76.631770945824172, 8.913167172847452 ], [ 76.631767991954732, 8.913156561213164 ], [ 76.632081102118761, 8.913054424217345 ], [ 76.631921593167249, 8.912593878863357 ], [ 76.631549942680948, 8.912706892926781 ], [ 76.631708914565266, 8.913187865533438 ] ], [ [ 76.631740079929088, 8.913075284998035 ], [ 76.631638813120148, 8.912772010234738 ], [ 76.631846118472438, 8.912707060166342 ], [ 76.631947915474086, 8.913008239821606 ], [ 76.631740079929088, 8.913075284998035 ] ] ] } },
{ "type": "Feature", "properties": { "fid": 4, "id": 3, "name": "Workshop (Electrical)", "building_type": "Workshop", "floors": 1, "description": "Workshop (Electrical)" }, "geometry": { "type": "Polygon", "coordinates": [ [ [ 76.632081154646514, 8.913054454772244 ], [ 76.632252344809118, 8.91300152922682 ], [ 76.63218910514901, 8.912825442300568 ], [ 76.632019123387565, 8.912874786442135 ], [ 76.632081154646514, 8.913054454772244 ] ] ] } },
{ "type": "Feature", "properties": { "fid": 5, "id": 4, "name": "Workshop Block", "building_type": "Workshop", "floors": 2, "description": "Workshop Block" }, "geometry": { "type": "Polygon", "coordinates": [ [ [ 76.632792229306119, 8.913972142320247 ], [ 76.632710542443434, 8.913643183290647 ], [ 76.632808304230863, 8.913616931375024 ], [ 76.632801414977408, 8.913587924626558 ], [ 76.632818966170817, 8.913582739062342 ], [ 76.632806335872772, 8.913529749073806 ], [ 76.632860793781219, 8.913515812867596 ], [ 76.632857841244032, 8.91349863568246 ], [ 76.632920828704414, 8.913480810300809 ], [ 76.632962328255132, 8.913665383983249 ], [ 76.633193610336207, 8.913606722296217 ], [ 76.633264245688096, 8.91396916467515 ], [ 76.632989290660902, 8.914027502206601 ], [ 76.632991505063814, 8.914036252835512 ], [ 76.632942788199927, 8.914046461902309 ], [ 76.632918983368711, 8.913941272039635 ], [ 76.632792229306119, 8.913972142320247 ] ], [ [ 76.632839449397608, 8.913800897305681 ], [ 76.632921751372209, 8.913780479158071 ], [ 76.6328877971944, 8.913633905993496 ], [ 76.632805679753332, 8.913656147198866 ], [ 76.632839449397608, 8.913800897305681 ] ], [ [ 76.633016878430283, 8.913916843193688 ], [ 76.633160445551852, 8.913883116799239 ], [ 76.633144391130813, 8.913807277976566 ], [ 76.632999809074576, 8.913840913225588 ], [ 76.633016878430283, 8.913916843193688 ] ] ] } },
{ "type": "Feature", "properties": { "fid": 6, "id": 5, "name": "Architecture Block", "building_type": "Academic", "floors": 3, "description": "Architecture Block" }, "geometry": { "type": "Polygon", "coordinates": [ [ [ 76.632288063074753, 8.913621691560477 ], [ 76.632412069637354, 8.913578667584146 ], [ 76.632270347851474, 8.913121081759614 ], [ 76.632287694007559, 8.913114154161056 ], [ 76.632269978784322, 8.913063473304433 ], [ 76.632127887931318, 8.913107226562364 ], [ 76.632288063074753, 8.913621691560477 ] ] ] } },
{ "type": "Feature", "properties": { "fid": 7, "id": 6, "name": "Interdisciplinary Research Block (RUSA)", "building_type": "Research", "floors": 3, "description": "Interdisciplinary Research Block (RUSA)" }, "geometry": { "type": "Polygon", "coordinates": [ [ [ 76.63294324953371, 8.913581219854041 ], [ 76.633177238107208, 8.913521241506116 ], [ 76.633154725010982, 8.913419150678497 ], [ 76.6329208287043, 8.913480792576706 ], [ 76.63294324953371, 8.913581219854041 ] ] ] } },
{ "type": "Feature", "properties": { "fid": 8, "id": 7, "name": "Main Block", "building_type": "Administration", "floors": 2, "description": "Main Block" }, "geometry": { "type": "Polygon", "coordinates": [ [ [ 76.632142771717454, 8.914976824583826 ], [ 76.632139819180253, 8.914961146413914 ], [ 76.632129485300041, 8.914966980151631 ], [ 76.632052350265582, 8.914930154680713 ], [ 76.632051981198401, 8.914915570334765 ], [ 76.632037956646698, 8.914923956333753 ], [ 76.632016181684804, 8.914845200857387 ], [ 76.632108079405285, 8.914806916939128 ], [ 76.632062684145808, 8.914639561477927 ], [ 76.63203094437084, 8.91465451044381 ], [ 76.631995144857243, 8.914517417465465 ], [ 76.632029468102274, 8.914504656148374 ], [ 76.631982227506995, 8.914318705477323 ], [ 76.631975215231137, 8.914321986960575 ], [ 76.631951225866345, 8.914232657683778 ], [ 76.631890329786501, 8.914255992680637 ], [ 76.631861911615928, 8.914147703698234 ], [ 76.631923545830062, 8.914122181037776 ], [ 76.631898449263829, 8.914034127845493 ], [ 76.631908229543299, 8.914031028664427 ], [ 76.631858590011547, 8.913851276117539 ], [ 76.631825743035137, 8.913864766676868 ], [ 76.631788836320084, 8.913734600989057 ], [ 76.631822052363631, 8.913722204254466 ], [ 76.6317744427012, 8.913561046666501 ], [ 76.631682175913582, 8.913594590785692 ], [ 76.631660216418098, 8.913520939563426 ], [ 76.631675348171299, 8.913514923497582 ], [ 76.631669443096882, 8.913499792180028 ], [ 76.631711147684854, 8.913422677142275 ], [ 76.631720374363638, 8.913421218701691 ], [ 76.631717052759299, 8.913409551176784 ], [ 76.631910443946168, 8.913342827511563 ], [ 76.631897526595921, 8.913301991163998 ], [ 76.63200935394255, 8.913263342473705 ], [ 76.63202300942713, 8.91330490804612 ], [ 76.632110478341815, 8.913275010003279 ], [ 76.632185029906239, 8.913516655395336 ], [ 76.632070988156727, 8.913556033278855 ], [ 76.632032974240232, 8.913433888904096 ], [ 76.631903062603229, 8.913478735947931 ], [ 76.631991085118685, 8.913774434611335 ], [ 76.631963405082402, 8.913784096770771 ], [ 76.632020795024317, 8.913990055665202 ], [ 76.632251277459872, 8.913898720954055 ], [ 76.63226991535096, 8.913966356041755 ], [ 76.632357568799208, 8.913933358871153 ], [ 76.632401303256543, 8.914099620827493 ], [ 76.632313834341815, 8.914134258725539 ], [ 76.632329704229292, 8.914199159199351 ], [ 76.632099406327328, 8.914291952272499 ], [ 76.632148492258324, 8.914481913657172 ], [ 76.632356646131271, 8.914398782775462 ], [ 76.632367718145787, 8.914444723528222 ], [ 76.632306452998776, 8.914469516947946 ], [ 76.63231826314761, 8.914514728473693 ], [ 76.632447067583144, 8.914466600075125 ], [ 76.632541548773673, 8.914814801603585 ], [ 76.632486188701108, 8.914838136563256 ], [ 76.632498736984232, 8.914878243521713 ], [ 76.632365134675723, 8.91493220560432 ], [ 76.632353324526889, 8.91488991099971 ], [ 76.632142771717454, 8.914976824583826 ] ], [ [ 76.63225441453055, 8.914780892987652 ], [ 76.632401303256458, 8.914721097141133 ], [ 76.632347050385349, 8.914516551518972 ], [ 76.632199423525094, 8.914575618180979 ], [ 76.63225441453055, 8.914780892987652 ] ] ] } },
{ "type": "Feature", "properties": { "fid": 9, "id": 8, "name": "Central Library", "building_type": "Library", "floors": 3, "description": "Central Library" }, "geometry": { "type": "Polygon", "coordinates": [ [ [ 76.632789561898889, 8.914443629700852 ], [ 76.632789192831737, 8.914406439567996 ], [ 76.632823147009603, 8.914363051074888 ], [ 76.632823516076741, 8.914332059290937 ], [ 76.632787532029553, 8.914286118524011 ], [ 76.632788454697419, 8.914250204507743 ], [ 76.633078356944196, 8.914264788880258 ], [ 76.633084262018627, 8.9144507851549 ], [ 76.632789561898889, 8.914443629700852 ] ] ] } }
]
}
