{
"type": "FeatureCollection",
"name": "campus_outline",
"crs": { "type": "name", "properties": { "name": "urn:ogc:def:crs:OGC:1.3:CRS84" } },
"features": [
{ "type": "Feature", "properties": { "fid": 1, "id": 1, "name": "TKM College of Engineering", "type": "Campus" }, "geometry": { "type": "Polygon", "coordinates": [ [ [ 76.631056788813083, 8.911766936707879 ], [ 76.631107008681596, 8.911962970950245 ], [ 76.631140998958401, 8.912099710822465 ], [ 76.631157228550109, 8.912169593348022 ], [ 76.631177898313027, 8.912252030509258 ], [ 76.631239907601866, 8.91248315698323 ], [ 76.631304825968471, 8.912756636287138 ], [ 76.63135014633761, 8.912935728817711 ], [ 76.631395466706749, 8.913083359080952 ], [ 76.631453035824336, 8.913263661534652 ], [ 76.6315086145203, 8.913471039498457 ], [ 76.631539389500674, 8.913587661190068 ], [ 76.631603752845862, 8.913816593546455 ], [ 76.631697455771274, 8.914165096838312 ], [ 76.631739713953309, 8.914310306445127 ], [ 76.631816881068303, 8.914575313828763 ], [ 76.631879349685235, 8.914879346035494 ], [ 76.631903234744669, 8.915004589079899 ], [ 76.63190920600951, 8.915042252740648 ], [ 76.631984535812265, 8.915026824253582 ], [ 76.632041722156444, 8.915082071847639 ], [ 76.631973282274686, 8.915191886342436 ], [ 76.632009569191879, 8.915260860718973 ], [ 76.632176764607763, 8.915602329068882 ], [ 76.632373816347837, 8.915642488448519 ], [ 76.632430313699928, 8.915647933787794 ], [ 76.632481299115213, 8.915652017792194 ], [ 76.632530217554191, 8.915653379126983 ], [ 76.632586714906267, 8.915646572452985 ], [ 76.632643212258344, 8.915640446446272 ], [ 76.632682484807944, 8.915639765778856 ], [ 76.632674905894859, 8.915540388322135 ], [ 76.632665948997584, 8.915429439485774 ], [ 76.632636322337348, 8.915019677233612 ], [ 76.632628054432161, 8.914910770245406 ], [ 76.632615652574358, 8.914748771040388 ], [ 76.632617030558578, 8.914631695939937 ], [ 76.632618408542783, 8.914590855779787 ], [ 76.632612896606005, 8.914560906326111 ], [ 76.63261186311783, 8.914475482302695 ], [ 76.632613930094138, 8.914435322794745 ], [ 76.632627020944014, 8.914369297831403 ], [ 76.632620820015106, 8.914112004561405 ], [ 76.63278135517406, 8.914101794507269 ], [ 76.633074176815867, 8.914078651716842 ], [ 76.633257448714048, 8.914054828254573 ], [ 76.633279496461199, 8.914053466913829 ], [ 76.633329792884368, 8.91403168546117 ], [ 76.633318769010771, 8.913908484095131 ], [ 76.633304989168849, 8.913721980290687 ], [ 76.63330016622416, 8.913649148487185 ], [ 76.633291898318987, 8.913574274655366 ], [ 76.633274673516496, 8.913492594094061 ], [ 76.633257448714062, 8.913421123587939 ], [ 76.633245046856288, 8.913362585829653 ], [ 76.633198884385692, 8.91318561115453 ], [ 76.633186482527904, 8.913125712014301 ], [ 76.633147898970364, 8.913048796058474 ], [ 76.633103114483973, 8.912883392664966 ], [ 76.633096224563005, 8.912724115252304 ], [ 76.633087956657789, 8.912529442764736 ], [ 76.633076932784206, 8.912344299603415 ], [ 76.633076932784206, 8.912273509546351 ], [ 76.633074176815825, 8.912128185684301 ], [ 76.633054540541053, 8.912053311540772 ], [ 76.632905029255681, 8.91202268120491 ], [ 76.632692819689368, 8.911976395359178 ], [ 76.632356591545346, 8.911909008602708 ], [ 76.632139903530387, 8.911867147126516 ], [ 76.631897378311763, 8.911846726892488 ], [ 76.631675522856057, 8.911824945308268 ], [ 76.631191850402942, 8.911775936739021 ], [ 76.631056788813083, 8.911766936707879 ] ] ] } },
{ "type": "Feature", "properties": { "fid": 2, "id": 2, "name": "Central Library", "type": "Campus" }, "geometry": { "type": "Polygon", "coordinates": [ [ [ 76.632691746016761, 8.914466675853275 ], [ 76.632687479239493, 8.914430846329498 ], [ 76.63270027957131, 8.914357079651838 ], [ 76.632708813125817, 8.914307901858448 ], [ 76.632724457975812, 8.914242565637002 ], [ 76.632750058639388, 8.914197603069214 ], [ 76.632801259966541, 8.914173014162614 ], [ 76.632964108632066, 8.914169501461533 ], [ 76.633185981049763, 8.914168096381092 ], [ 76.633295494999487, 8.914165286220197 ], [ 76.633315406626693, 8.914185659886215 ], [ 76.633320384533533, 8.914294553599108 ], [ 76.633329629217599, 8.914448409821988 ], [ 76.633330340347129, 8.914488454581697 ], [ 76.633141179888483, 8.91447580886858 ], [ 76.633072911452274, 8.914473701249682 ], [ 76.632876639698168, 8.914466675853275 ], [ 76.632691746016761, 8.914466675853275 ] ] ] } }
]
}
