{
"type": "FeatureCollection",
"name": "rooms_ff",
"crs": { "type": "name", "properties": { "name": "urn:ogc:def:crs:OGC:1.3:CRS84" } },
"features": [
{ "type": "Feature", "properties": { "fid": 2, "id": 1, "room_no": null, "room_name": "Main Corridor", "building": "Chemical Block", "floor": 1, "type": "Corridor", "accessible": true }, "geometry": { "type": "Polygon", "coordinates": [ [ [ 76.631602676233925, 8.912637590782499 ], [ 76.631617099001616, 8.912632836436966 ], [ 76.631604439508962, 8.912596753722895 ], [ 76.63160227220105, 8.912597685216628 ], [ 76.631601453998186, 8.912595008157357 ], [ 76.631603591293739, 8.912594124925 ], [ 76.631581924107493, 8.912532166499554 ], [ 76.63158460897894, 8.912531203456734 ], [ 76.631586402150802, 8.912536240565588 ], [ 76.631598036914099, 8.912532160642701 ], [ 76.631599123798594, 8.912535000777625 ], [ 76.631611658308856, 8.912530642633969 ], [ 76.631609190135734, 8.912523055267199 ], [ 76.631613455787985, 8.91252138974037 ], [ 76.631823769163219, 8.912449553501931 ], [ 76.631819313687117, 8.912436505400599 ], [ 76.631771606048872, 8.912453232646989 ], [ 76.631758808628845, 8.912417544837314 ], [ 76.631761154737589, 8.912416628797297 ], [ 76.631761811212684, 8.912418516333881 ], [ 76.631783587761021, 8.912410939419997 ], [ 76.631775415030589, 8.912387551503555 ], [ 76.631751268104239, 8.912395737227676 ], [ 76.631732077167882, 8.912340387576927 ], [ 76.631728795151062, 8.912330921728271 ], [ 76.631720355069376, 8.912306579214228 ], [ 76.631716367286174, 8.912295077823989 ], [ 76.631703562538647, 8.912258146927753 ], [ 76.63170106045618, 8.912250930529812 ], [ 76.631697880964751, 8.912241760378004 ], [ 76.631681878377336, 8.912247497001259 ], [ 76.631705374178324, 8.912314673644396 ], [ 76.631690522154983, 8.912319722995184 ], [ 76.631678645478956, 8.912323760795388 ], [ 76.631659553174117, 8.91233025174547 ], [ 76.631647710625501, 8.912334277942994 ], [ 76.631641476275476, 8.912336397480383 ], [ 76.631629733823885, 8.912340389647143 ], [ 76.631610921718661, 8.912346785335421 ], [ 76.631598970114894, 8.912350848609035 ], [ 76.631533544124622, 8.912373091957839 ], [ 76.631531585976177, 8.912367560709793 ], [ 76.631528139702993, 8.912357825905282 ], [ 76.631520474937261, 8.912360672447475 ], [ 76.631519783331925, 8.912358019042452 ], [ 76.631537425138646, 8.912352373247083 ], [ 76.631533783864867, 8.912341175456559 ], [ 76.631525391448861, 8.912344391377676 ], [ 76.631524579793876, 8.912341931018165 ], [ 76.631515088069179, 8.912344772218447 ], [ 76.631502987420077, 8.912309034623147 ], [ 76.631502724231169, 8.912308257330949 ], [ 76.631490318709425, 8.91231232149331 ], [ 76.631494494050187, 8.912324408896533 ], [ 76.631522413647744, 8.912405234728437 ], [ 76.631526482405988, 8.912417013577597 ], [ 76.631528692693763, 8.912423412248691 ], [ 76.631532892397402, 8.912435570177545 ], [ 76.631560208591097, 8.912514649161732 ], [ 76.631564191158731, 8.912526178490088 ], [ 76.631585289253167, 8.912587256381091 ], [ 76.631589356575205, 8.912599031066643 ], [ 76.631594678735993, 8.912614438444468 ], [ 76.631597188925269, 8.912621705311183 ], [ 76.631602676233925, 8.912637590782499 ] ], [ [ 76.631534708765685, 8.912390227552036 ], [ 76.6315344930523, 8.912390044489726 ], [ 76.631710892325231, 8.912330340815958 ], [ 76.631710917680635, 8.912330359661304 ], [ 76.631755473937972, 8.912456879874142 ], [ 76.631579160259292, 8.912517107126977 ], [ 76.631534708765685, 8.912390227552036 ] ] ] } },
{ "type": "Feature", "properties": { "fid": 3, "id": 2, "room_no": null, "room_name": "Central Courtyard", "building": "Chemical Block", "floor": 1, "type": "Courtyard", "accessible": true }, "geometry": { "type": "Polygon", "coordinates": [ [ [ 76.631579160259292, 8.912517107126977 ], [ 76.631755473937972, 8.912456879874142 ], [ 76.631710892325231, 8.912330340815958 ], [ 76.6315344930523, 8.912390044489726 ], [ 76.631579160259292, 8.912517107126977 ] ] ] } },
{ "type": "Feature", "properties": { "fid": 4, "id": 3, "room_no": null, "room_name": "Staircase 1", "building": "Chemical Block", "floor": 1, "type": "Stair", "accessible": true }, "geometry": { "type": "Polygon", "coordinates": [ [ [ 76.631783587761021, 8.912410939419997 ], [ 76.631827700568238, 8.91239585939655 ], [ 76.631827214916058, 8.912394368040315 ], [ 76.631828021430024, 8.912393980050213 ], [ 76.631820632264308, 8.912373660329465 ], [ 76.631819852566991, 8.912373745504727 ], [ 76.631819506764316, 8.912372418802269 ], [ 76.631775415030589, 8.912387551503555 ], [ 76.631783587761021, 8.912410939419997 ] ] ] } },
{ "type": "Feature", "properties": { "fid": 5, "id": 4, "room_no": null, "room_name": "Staircase 2", "building": "Chemical Block", "floor": 1, "type": "Stair", "accessible": true }, "geometry": { "type": "Polygon", "coordinates": [ [ [ 76.631598036914099, 8.912532160642701 ], [ 76.631586402150802, 8.912536240565588 ], [ 76.631601762586385, 8.912580769884608 ], [ 76.631626251147026, 8.912572359415771 ], [ 76.631611658308856, 8.912530642633969 ], [ 76.631599123798594, 8.912535000777625 ], [ 76.631598036914099, 8.912532160642701 ] ] ] } },
{ "type": "Feature", "properties": { "fid": 6, "id": 5, "room_no": null, "room_name": "Staircase 3", "building": "Chemical Block", "floor": 5, "type": "Stair", "accessible": true }, "geometry": { "type": "Polygon", "coordinates": [ [ [ 76.631515088069179, 8.912344772218447 ], [ 76.631524579793876, 8.912341931018162 ], [ 76.631525391448861, 8.912344391377676 ], [ 76.631533783864867, 8.912341175456559 ], [ 76.631520699526547, 8.912302042807386 ], [ 76.631505576886227, 8.912307143509219 ], [ 76.631505823064359, 8.912307851335653 ], [ 76.631502987420077, 8.912309034623147 ], [ 76.631515088069179, 8.912344772218447 ] ] ] } },
{ "type": "Feature", "properties": { "fid": 7, "id": 6, "room_no": "H201", "room_name": "HOD Chamber (Chemical)", "building": "Chemical Block", "floor": 1, "type": "Office", "accessible": true }, "geometry": { "type": "Polygon", "coordinates": [ [ [ 76.631588792780747, 8.912642267782086 ], [ 76.631586659146606, 8.912635998427863 ], [ 76.631583523414918, 8.912626784564601 ], [ 76.631597188925269, 8.912621705311183 ], [ 76.631594678735993, 8.912614438444468 ], [ 76.631592572190215, 8.912615285088796 ], [ 76.631591820247422, 8.912613313018616 ], [ 76.631529486771484, 8.912634471918198 ], [ 76.63153875244214, 8.912659759651149 ], [ 76.631588792780747, 8.912642267782086 ] ] ] } },
{ "type": "Feature", "properties": { "fid": 8, "id": 7, "room_no": "H201A", "room_name": "Toilet", "building": "Chemical Block", "floor": 1, "type": "Toilet", "accessible": true }, "geometry": { "type": "Polygon", "coordinates": [ [ [ 76.631588792780747, 8.912642267782088 ], [ 76.631600339741581, 8.912638307409933 ], [ 76.631595449699233, 8.912623772375518 ], [ 76.631584785881245, 8.912627351381186 ], [ 76.631587600169681, 8.91263568063709 ], [ 76.631586659146606, 8.912635998427863 ], [ 76.631588792780747, 8.912642267782088 ] ] ] } },
{ "type": "Feature", "properties": { "fid": 9, "id": 8, "room_no": "H202", "room_name": "Classroom", "building": "Chemical Block", "floor": 1, "type": "Classroom", "accessible": true }, "geometry": { "type": "Polygon", "coordinates": [ [ [ 76.631589356575205, 8.912599031066643 ], [ 76.631586746309637, 8.912599982618694 ], [ 76.631591011788245, 8.91261110721422 ], [ 76.631529138085725, 8.912632305853203 ], [ 76.631501787873063, 8.912552705246174 ], [ 76.631563416838986, 8.912531218458435 ], [ 76.631582969331689, 8.912588137413803 ], [ 76.631585289253167, 8.912587256381091 ], [ 76.631589356575205, 8.912599031066643 ] ] ] } },
{ "type": "Feature", "properties": { "fid": 10, "id": 9, "room_no": "H203", "room_name": "Software Lab", "building": "Chemical Block", "floor": 1, "type": "Laboratory", "accessible": true }, "geometry": { "type": "Polygon", "coordinates": [ [ [ 76.631564191158731, 8.912526178490088 ], [ 76.631561769751883, 8.912527147515201 ], [ 76.631562476676066, 8.912529191977923 ], [ 76.631501059394878, 8.912550468212785 ], [ 76.631463986586553, 8.912443328137241 ], [ 76.631525240553756, 8.912422152205275 ], [ 76.63152590245933, 8.912424269060686 ], [ 76.631528692693763, 8.912423412248691 ], [ 76.631532892397402, 8.912435570177545 ], [ 76.631530303966386, 8.912436473383035 ], [ 76.631557720022386, 8.912515221521042 ], [ 76.631560208591097, 8.912514649161732 ], [ 76.631564191158731, 8.912526178490088 ] ] ] } }
]
}
