{
"type": "FeatureCollection",
"name": "entrances1",
"crs": { "type": "name", "properties": { "name": "urn:ogc:def:crs:OGC:1.3:CRS84" } },
"features": [
{ "type": "Feature", "properties": { "id": 1, "name": "Chemical Block Main Entrance", "building": "Chemical Block", "floor": 0, "entrance_type": "Main Entrance", "accessible": 1, "node_id": "CHEM_MAIN_ENTRANCE" }, "geometry": { "type": "Point", "coordinates": [ 76.631489511535989, 8.912525104666102 ] } },
{ "type": "Feature", "properties": { "id": 2, "name": "Mechanical Block Main Entrance", "building": "Mechanical Block", "floor": 0, "entrance_type": "Main Entrance", "accessible": 1, "node_id": "MECH_MAIN_ENTRANCE" }, "geometry": { "type": "Point", "coordinates": [ 76.631631641809747, 8.912952142010484 ] } },
{ "type": "Feature", "properties": { "id": 3, "name": "Chemical Back Entrance", "building": "Chemical Block", "floor": 0, "entrance_type": "Back Entrance", "accessible": 1, "node_id": "CHEM_BACK_ENTRANCE" }, "geometry": { "type": "Point", "coordinates": [ 76.631837011277696, 8.912412762684593 ] } }
]
}
