{
"type": "FeatureCollection",
"name": "indoor_paths_ff",
"crs": { "type": "name", "properties": { "name": "urn:ogc:def:crs:OGC:1.3:CRS84" } },
"features": [
{ "type": "Feature", "properties": { "fid": 1, "id": 1, "path_id": "CHEM_FF_PATH_001", "building": "Chemical Block", "floor": 1, "type": "StairConnector", "accessible": true }, "geometry": { "type": "LineString", "coordinates": [ [ 76.631591618568109, 8.912534892503064 ], [ 76.631587765915867, 8.912523771883512 ] ] } },
{ "type": "Feature", "properties": { "fid": 2, "id": 2, "path_id": "CHEM_FF_PATH_002", "building": "Chemical Block", "floor": 1, "type": "DoorConnector", "accessible": true }, "geometry": { "type": "LineString", "coordinates": [ [ 76.631587765915867, 8.912523771883512 ], [ 76.63157179930424, 8.912528875603547 ], [ 76.63159407125984, 8.912591626498163 ], [ 76.631602905691409, 8.912616517371141 ], [ 76.63159609951515, 8.912618551525863 ] ] } },
{ "type": "Feature", "properties": { "fid": 3, "id": 3, "path_id": "CHEM_FF_PATH_003", "building": "Chemical Block", "floor": 1, "type": "DoorConnector", "accessible": true }, "geometry": { "type": "LineString", "coordinates": [ [ 76.63159609951515, 8.912618551525863 ], [ 76.631576590895833, 8.912625606667852 ], [ 76.631582058194866, 8.912641383617276 ], [ 76.631587811870176, 8.912639385527982 ] ] } },
{ "type": "Feature", "properties": { "fid": 4, "id": 4, "path_id": "CHEM_FF_PATH_004", "building": "Chemical Block", "floor": 1, "type": "DoorConnector", "accessible": true }, "geometry": { "type": "LineString", "coordinates": [ [ 76.631587598286544, 8.912593940912661 ], [ 76.63159407125984, 8.912591626498163 ] ] } },
{ "type": "Feature", "properties": { "fid": 5, "id": 5, "path_id": "CHEM_FF_PATH_005", "building": "Chemical Block", "floor": 1, "type": "DoorConnector", "accessible": true }, "geometry": { "type": "LineString", "coordinates": [ [ 76.63157179930424, 8.912528875603547 ], [ 76.631568456320068, 8.912518964132952 ], [ 76.63156246078286, 8.912521169141014 ] ] } }
]
}
