{
"type": "FeatureCollection",
"name": "mechanical_gf_4326",
"crs": { "type": "name", "properties": { "name": "urn:ogc:def:crs:OGC:1.3:CRS84" } },
"features": [
{ "type": "Feature", "properties": { "fid": null, "id": null, "room_no": null, "name": null, "category": null, "floor": null, "building": null, "department": null, "accessible": false, "remarks": null }, "geometry": { "type": "Polygon", "coordinates": [ [ [ 76.631642840883714, 8.912793297517187 ], [ 76.631638964576936, 8.912781735569938 ], [ 76.63163653316235, 8.912782656552213 ], [ 76.631605486128464, 8.912690035601766 ], [ 76.631605003604946, 8.912688659439318 ], [ 76.631547348479216, 8.912707734071811 ], [ 76.631592399926291, 8.912842846023445 ], [ 76.631596958703668, 8.912841256471363 ], [ 76.631605405850038, 8.912867881467815 ], [ 76.631622970551149, 8.912862450498547 ], [ 76.631626724838398, 8.91287357736233 ], [ 76.631624847694766, 8.912874239675638 ], [ 76.631621629734255, 8.912864834826529 ], [ 76.63160621034018, 8.91286973594511 ], [ 76.631611975852749, 8.912885896389691 ], [ 76.631629403000758, 8.912880322365393 ], [ 76.631639126752944, 8.912877212250546 ], [ 76.631655265196514, 8.912872050414622 ], [ 76.631665310253126, 8.912868837531386 ], [ 76.631667890101994, 8.912868012373945 ], [ 76.631663881416898, 8.912856579565601 ], [ 76.631661587184354, 8.912857398854756 ], [ 76.631640331713214, 8.912793988563624 ], [ 76.631642840883714, 8.912793297517187 ] ] ] } },
{ "type": "Feature", "properties": { "fid": 1, "id": 1, "room_no": null, "name": "Central Courtyard", "category": "Courtyard", "floor": 0, "building": "Mechanical Block", "department": "Mechanical Engineering", "accessible": true, "remarks": "Open courtyard" }, "geometry": { "type": "Polygon", "coordinates": [ [ [ 76.631847152771186, 8.912707808623532 ], [ 76.631654706753878, 8.912770445331002 ], [ 76.63175655983207, 8.913073073388977 ], [ 76.631948813915201, 8.913009299034199 ], [ 76.631947845789128, 8.913006427921429 ], [ 76.631847152771186, 8.912707808623532 ] ] ] } },
{ "type": "Feature", "properties": { "fid": 2, "id": 2, "room_no": null, "name": "Main Corridor", "category": "Corridor", "floor": 0, "building": "Mechanical Block", "department": "Mechanical Engineering", "accessible": true, "remarks": "Main circulation corridor" }, "geometry": { "type": "Polygon", "coordinates": [ [ [ 76.631654706753878, 8.912770445331002 ], [ 76.63175655983207, 8.913073073388977 ], [ 76.631738393866343, 8.913078758388153 ], [ 76.631693020623146, 8.912943743901707 ], [ 76.631690568015415, 8.912944282344423 ], [ 76.631693156879123, 8.912951685931704 ], [ 76.631682517199977, 8.912955109294263 ], [ 76.631668325182602, 8.912959675636884 ], [ 76.631656893218349, 8.912963353920512 ], [ 76.631654613829653, 8.912955869781868 ], [ 76.631652133318426, 8.912956730788975 ], [ 76.631667820875847, 8.9130030927072 ], [ 76.63165052433817, 8.91300892106222 ], [ 76.63162598738927, 8.912935139379341 ], [ 76.631684044760064, 8.912916197221369 ], [ 76.631667890101994, 8.912868012373945 ], [ 76.631642840883714, 8.912793297517187 ], [ 76.631638964576936, 8.912781735569938 ], [ 76.631635104943967, 8.912770223355665 ], [ 76.631647440459247, 8.912766779325459 ], [ 76.631867803713064, 8.912693726138688 ], [ 76.63197051028591, 8.912999317522649 ], [ 76.631966487835285, 8.913000377223579 ], [ 76.631947845789128, 8.913006427921429 ], [ 76.631847152771186, 8.912707808623532 ], [ 76.631654706753878, 8.912770445331002 ] ] ] } },
{ "type": "Feature", "properties": { "fid": 3, "id": 3, "room_no": null, "name": "Main Staircase", "category": "Stair", "floor": 0, "building": "Mechanical Block", "department": "Mechanical Engineering", "accessible": true, "remarks": "Main Staircase" }, "geometry": { "type": "Polygon", "coordinates": [ [ [ 76.631668325182602, 8.912959675636884 ], [ 76.631677809961502, 8.912988323125314 ], [ 76.631692022620399, 8.912983554470946 ], [ 76.631682517199977, 8.912955109294263 ], [ 76.631693156879123, 8.912951685931704 ], [ 76.631706503442686, 8.912990707452472 ], [ 76.631669496896862, 8.913002761550656 ], [ 76.631656893218349, 8.912963353920512 ], [ 76.631668325182602, 8.912959675636884 ] ] ] } },
{ "type": "Feature", "properties": { "fid": 4, "id": 6, "room_no": null, "name": "Main Portico", "category": "Entrance", "floor": 0, "building": "Mechanical Block", "department": "Mechanical Engineering", "accessible": true, "remarks": "Main entrance portico" }, "geometry": { "type": "Polygon", "coordinates": [ [ [ 76.63165052433817, 8.91300892106222 ], [ 76.631624311368071, 8.913017431784992 ], [ 76.631583550534955, 8.91289536746959 ], [ 76.631609830545756, 8.912886691165641 ], [ 76.63165052433817, 8.91300892106222 ] ] ] } },
{ "type": "Feature", "properties": { "fid": 6, "id": 8, "room_no": "M101A", "name": "Faculty Room", "category": "Office", "floor": 0, "building": "Mechanical Block", "department": "Mechanical Engineering", "accessible": true, "remarks": "Faculty Room" }, "geometry": { "type": "Polygon", "coordinates": [ [ [ 76.631665310253126, 8.912868837531386 ], [ 76.631680759758524, 8.912914773247895 ], [ 76.631644423621154, 8.912926496191977 ], [ 76.63163409933118, 8.912894970081615 ], [ 76.631631819942498, 8.91289576485754 ], [ 76.63164241239582, 8.912927423430475 ], [ 76.631627462287639, 8.912932324548214 ], [ 76.63161237809777, 8.9128880157922 ], [ 76.631629808717165, 8.91288258482323 ], [ 76.631629403000758, 8.912880322365393 ], [ 76.631639126752944, 8.912877212250546 ], [ 76.631640133007139, 8.912879273256745 ], [ 76.631655418319525, 8.912874372138294 ], [ 76.631655265196514, 8.912872050414622 ], [ 76.631665310253126, 8.912868837531386 ] ] ] } }
]
}
