{
"type": "FeatureCollection",
"name": "stairs_ff",
"crs": { "type": "name", "properties": { "name": "urn:ogc:def:crs:OGC:1.3:CRS84" } },
"features": [
{ "type": "Feature", "properties": { "fid": 1, "id": "CHEM_STAIR_02_F1", "name": "Bottom Left Staircase", "building": "Chemical Block", "floor": 1, "accessible": true, "connects_down": "CHEM_STAIR_02_GF", "connects_up": "CHEM_STAIR_02_F2" }, "geometry": { "type": "Point", "coordinates": [ 76.631591618568109, 8.912534892503064 ] } },
{ "type": "Feature", "properties": { "fid": 2, "id": "CHEM_STAIR_01_F1", "name": "Top Staircase", "building": "Chemical Block", "floor": 1, "accessible": true, "connects_down": "CHEM_STAIR_01_GF", "connects_up": "CHEM_STAIR_01_F2" }, "geometry": { "type": "Point", "coordinates": [ 76.631782233318972, 8.912404977890366 ] } },
{ "type": "Feature", "properties": { "fid": 3, "id": "CHEM_STAIR_03_F1", "name": "Bottom Right Staircase", "building": "Chemical Block", "floor": 1, "accessible": true, "connects_down": "CHEM_STAIR_03_GF", "connects_up": "CHEM_STAIR_03_F2" }, "geometry": { "type": "Point", "coordinates": [ 76.631518446940945, 8.912343761980244 ] } }
]
}
